<?xml version="1.0" encoding="UTF-8"?>
<gpx xmlns:xsi="http://www.w3.org/2001/XMLSchema-instance" xmlns="http://www.topografix.com/GPX/1/1" xsi:schemaLocation="http://www.topografix.com/GPX/1/1 http://www.topografix.com/GPX/1/1/gpx.xsd" version="1.1" creator="Waterkaarten">
	<metadata>
		<name>T2 Gaastmaar Workum</name>
		<time>2026-08-07T15:52:53Z</time>
	</metadata>
	<rte>
		<name>T2 Gaastmaar Workum</name>
		<rtept lat="52.96738073699242" lon="5.519797695411872">
			<time>2026-08-07T15:52:53Z</time>
		</rtept>
		<rtept lat="52.96707057659337" lon="5.519561602336742">
			<time>2026-08-07T15:52:53Z</time>
		</rtept>
		<rtept lat="52.96650194341516" lon="5.519110879193253">
			<time>2026-08-07T15:52:53Z</time>
		</rtept>
		<rtept lat="52.96610131100262" lon="5.5188103970976075">
			<time>2026-08-07T15:52:53Z</time>
		</rtept>
		<rtept lat="52.965984997671264" lon="5.517844561790116">
			<time>2026-08-07T15:52:53Z</time>
		</rtept>
		<rtept lat="52.96566190344208" lon="5.517093356550983">
			<time>2026-08-07T15:52:53Z</time>
		</rtept>
		<rtept lat="52.96524833930506" lon="5.516814337462149">
			<time>2026-08-07T15:52:53Z</time>
		</rtept>
		<rtept lat="52.964847695274386" lon="5.517200671585162">
			<time>2026-08-07T15:52:53Z</time>
		</rtept>
		<rtept lat="52.96420148740086" lon="5.516814337462149">
			<time>2026-08-07T15:52:53Z</time>
		</rtept>
		<rtept lat="52.96314168557761" lon="5.517067919910149">
			<time>2026-08-07T15:52:53Z</time>
		</rtept>
		<rtept lat="52.96292196731412" lon="5.518462300502658">
			<time>2026-08-07T15:52:53Z</time>
		</rtept>
		<rtept lat="52.962" lon="5.5242">
			<time>2026-08-07T15:52:53Z</time>
		</rtept>
		<rtept lat="52.9589" lon="5.5339">
			<time>2026-08-07T15:52:53Z</time>
		</rtept>
		<rtept lat="52.9585" lon="5.5372">
			<time>2026-08-07T15:52:53Z</time>
		</rtept>
		<rtept lat="52.9569" lon="5.5438">
			<time>2026-08-07T15:52:53Z</time>
		</rtept>
		<rtept lat="52.9566" lon="5.5447">
			<time>2026-08-07T15:52:53Z</time>
		</rtept>
		<rtept lat="52.956124571393" lon="5.54589560400856">
			<time>2026-08-07T15:52:53Z</time>
		</rtept>
		<rtept lat="52.95567660191157" lon="5.546568360285878">
			<time>2026-08-07T15:52:53Z</time>
		</rtept>
		<rtept lat="52.9531" lon="5.5508">
			<time>2026-08-07T15:52:53Z</time>
		</rtept>
		<rtept lat="52.9518" lon="5.553">
			<time>2026-08-07T15:52:53Z</time>
		</rtept>
		<rtept lat="52.94675051361112" lon="5.5617651715650505">
			<time>2026-08-07T15:52:53Z</time>
		</rtept>
		<rtept lat="52.945896869889204" lon="5.560197830200195">
			<time>2026-08-07T15:52:53Z</time>
		</rtept>
		<rtept lat="52.94329468434556" lon="5.553621051930731">
			<time>2026-08-07T15:52:53Z</time>
		</rtept>
		<rtept lat="52.94054363229282" lon="5.546250337100612">
			<time>2026-08-07T15:52:53Z</time>
		</rtept>
		<rtept lat="52.93915349246383" lon="5.5426454511760035">
			<time>2026-08-07T15:52:53Z</time>
		</rtept>
		<rtept lat="52.937737443652544" lon="5.539083477843556">
			<time>2026-08-07T15:52:53Z</time>
		</rtept>
		<rtept lat="52.934982805004644" lon="5.531852232048916">
			<time>2026-08-07T15:52:53Z</time>
		</rtept>
		<rtept lat="52.93231852759099" lon="5.524063090249243">
			<time>2026-08-07T15:52:53Z</time>
		</rtept>
		<rtept lat="52.93164034980459" lon="5.522496748444263">
			<time>2026-08-07T15:52:53Z</time>
		</rtept>
		<rtept lat="52.931329081836715" lon="5.52177784188658">
			<time>2026-08-07T15:52:53Z</time>
		</rtept>
		<rtept lat="52.93033961346338" lon="5.519492593523917">
			<time>2026-08-07T15:52:53Z</time>
		</rtept>
		<rtept lat="52.9287551235331" lon="5.515855521450122">
			<time>2026-08-07T15:52:53Z</time>
		</rtept>
		<rtept lat="52.92802429842856" lon="5.513355719759116">
			<time>2026-08-07T15:52:53Z</time>
		</rtept>
		<rtept lat="52.92622628680492" lon="5.509986852074179">
			<time>2026-08-07T15:52:53Z</time>
		</rtept>
		<rtept lat="52.9215" lon="5.5035">
			<time>2026-08-07T15:52:53Z</time>
		</rtept>
		<rtept lat="52.9152882391958" lon="5.49461229959542">
			<time>2026-08-07T15:52:53Z</time>
		</rtept>
		<rtept lat="52.9114480714139" lon="5.48943042755127">
			<time>2026-08-07T15:52:53Z</time>
		</rtept>
		<rtept lat="52.91025433817386" lon="5.487821102142335">
			<time>2026-08-07T15:52:53Z</time>
		</rtept>
		<rtept lat="52.90890528296514" lon="5.486061573028565">
			<time>2026-08-07T15:52:53Z</time>
		</rtept>
		<rtept lat="52.907109712659775" lon="5.483620762825012">
			<time>2026-08-07T15:52:53Z</time>
		</rtept>
		<rtept lat="52.9052057473277" lon="5.48118879624218">
			<time>2026-08-07T15:52:53Z</time>
		</rtept>
		<rtept lat="52.90417516999697" lon="5.479575991630555">
			<time>2026-08-07T15:52:53Z</time>
		</rtept>
		<rtept lat="52.9027016768188" lon="5.47646919798491">
			<time>2026-08-07T15:52:53Z</time>
		</rtept>
		<rtept lat="52.9026898819421" lon="5.47640360513977">
			<time>2026-08-07T15:52:53Z</time>
		</rtept>
		<rtept lat="52.90108155884" lon="5.46746017676059">
			<time>2026-08-07T15:52:53Z</time>
		</rtept>
		<rtept lat="52.9008304149834" lon="5.46676125831721">
			<time>2026-08-07T15:52:53Z</time>
		</rtept>
		<rtept lat="52.8998706620832" lon="5.46406976672438">
			<time>2026-08-07T15:52:53Z</time>
		</rtept>
		<rtept lat="52.8983626568513" lon="5.46145176963311">
			<time>2026-08-07T15:52:53Z</time>
		</rtept>
		<rtept lat="52.8932996362831" lon="5.45267683452057">
			<time>2026-08-07T15:52:53Z</time>
		</rtept>
		<rtept lat="52.89126664647271" lon="5.447190999984742">
			<time>2026-08-07T15:52:53Z</time>
		</rtept>
		<rtept lat="52.89061782914449" lon="5.445492556001806">
			<time>2026-08-07T15:52:53Z</time>
		</rtept>
		<rtept lat="52.889201375034766" lon="5.441698997900196">
			<time>2026-08-07T15:52:53Z</time>
		</rtept>
		<rtept lat="52.8874392615653" lon="5.43697986530488">
			<time>2026-08-07T15:52:53Z</time>
		</rtept>
		<rtept lat="52.8872958492641" lon="5.43608832806796">
			<time>2026-08-07T15:52:53Z</time>
		</rtept>
		<rtept lat="52.8872152970848" lon="5.43528600235641">
			<time>2026-08-07T15:52:53Z</time>
		</rtept>
		<rtept lat="52.8871634013602" lon="5.42990799608794">
			<time>2026-08-07T15:52:53Z</time>
		</rtept>
		<rtept lat="52.8871287449348" lon="5.42608991852555">
			<time>2026-08-07T15:52:53Z</time>
		</rtept>
		<rtept lat="52.8871557744321" lon="5.42586709908757">
			<time>2026-08-07T15:52:53Z</time>
		</rtept>
		<rtept lat="52.8878925104021" lon="5.41928768186237">
			<time>2026-08-07T15:52:53Z</time>
		</rtept>
		<rtept lat="52.8879095697557" lon="5.41642537297979">
			<time>2026-08-07T15:52:53Z</time>
		</rtept>
		<rtept lat="52.8874824911822" lon="5.41392290130945">
			<time>2026-08-07T15:52:53Z</time>
		</rtept>
		<rtept lat="52.8874735149289" lon="5.41387832696446">
			<time>2026-08-07T15:52:53Z</time>
		</rtept>
		<rtept lat="52.8867674252756" lon="5.41107814200012">
			<time>2026-08-07T15:52:53Z</time>
		</rtept>
		<rtept lat="52.88579155499121" lon="5.407107096770584">
			<time>2026-08-07T15:52:53Z</time>
		</rtept>
		<rtept lat="52.8850862649835" lon="5.404245891955">
			<time>2026-08-07T15:52:53Z</time>
		</rtept>
		<rtept lat="52.8849874592749" lon="5.40382996118784">
			<time>2026-08-07T15:52:53Z</time>
		</rtept>
		<rtept lat="52.8844332434393" lon="5.4019235698774">
			<time>2026-08-07T15:52:53Z</time>
		</rtept>
		<rtept lat="52.8837915508171" lon="5.39925873258292">
			<time>2026-08-07T15:52:53Z</time>
		</rtept>
		<rtept lat="52.8837377733096" lon="5.39772864810321">
			<time>2026-08-07T15:52:53Z</time>
		</rtept>
		<rtept lat="52.884133490605" lon="5.39238087273937">
			<time>2026-08-07T15:52:53Z</time>
		</rtept>
		<rtept lat="52.8841874930716" lon="5.38899389228343">
			<time>2026-08-07T15:52:53Z</time>
		</rtept>
		<rtept lat="52.8841066245983" lon="5.38700329625323">
			<time>2026-08-07T15:52:53Z</time>
		</rtept>
		<rtept lat="52.8823359972455" lon="5.37813514086809">
			<time>2026-08-07T15:52:53Z</time>
		</rtept>
		<rtept lat="52.8810146208947" lon="5.37376831451204">
			<time>2026-08-07T15:52:53Z</time>
		</rtept>
		<rtept lat="52.8805111662541" lon="5.37186716766044">
			<time>2026-08-07T15:52:53Z</time>
		</rtept>
		<rtept lat="52.880088527147" lon="5.36977293232877">
			<time>2026-08-07T15:52:53Z</time>
		</rtept>
		<rtept lat="52.8797827094932" lon="5.36791634349807">
			<time>2026-08-07T15:52:53Z</time>
		</rtept>
		<rtept lat="52.8795848221868" lon="5.36677270221076">
			<time>2026-08-07T15:52:53Z</time>
		</rtept>
		<rtept lat="52.8797822913072" lon="5.36552489653913">
			<time>2026-08-07T15:52:53Z</time>
		</rtept>
		<rtept lat="52.8798791020114" lon="5.365233421325684">
			<time>2026-08-07T15:52:53Z</time>
		</rtept>
		<rtept lat="52.8800786773691" lon="5.36470778730526">
			<time>2026-08-07T15:52:53Z</time>
		</rtept>
		<rtept lat="52.8805512788981" lon="5.36382750146556">
			<time>2026-08-07T15:52:53Z</time>
		</rtept>
		<rtept lat="52.8807186100657" lon="5.36361639860981">
			<time>2026-08-07T15:52:53Z</time>
		</rtept>
		<rtept lat="52.8808954734739" lon="5.363481889904">
			<time>2026-08-07T15:52:53Z</time>
		</rtept>
		<rtept lat="52.8812249669272" lon="5.36330013334378">
			<time>2026-08-07T15:52:53Z</time>
		</rtept>
		<rtept lat="52.8815330764786" lon="5.36318677226491">
			<time>2026-08-07T15:52:53Z</time>
		</rtept>
		<rtept lat="52.8817085147226" lon="5.36305933525421">
			<time>2026-08-07T15:52:53Z</time>
		</rtept>
		<rtept lat="52.8820080301064" lon="5.36277854695311">
			<time>2026-08-07T15:52:53Z</time>
		</rtept>
		<rtept lat="52.8822847297336" lon="5.3625472900382">
			<time>2026-08-07T15:52:53Z</time>
		</rtept>
		<rtept lat="52.8831087600264" lon="5.36190867964797">
			<time>2026-08-07T15:52:53Z</time>
		</rtept>
		<rtept lat="52.8841089939184" lon="5.36125391532017">
			<time>2026-08-07T15:52:53Z</time>
		</rtept>
		<rtept lat="52.8847693714696" lon="5.36076299194523">
			<time>2026-08-07T15:52:53Z</time>
		</rtept>
		<rtept lat="52.8841089939184" lon="5.36125391532017">
			<time>2026-08-07T15:52:53Z</time>
		</rtept>
		<rtept lat="52.8831087600264" lon="5.36190867964797">
			<time>2026-08-07T15:52:53Z</time>
		</rtept>
		<rtept lat="52.8822847297336" lon="5.3625472900382">
			<time>2026-08-07T15:52:53Z</time>
		</rtept>
		<rtept lat="52.8820080301064" lon="5.36277854695311">
			<time>2026-08-07T15:52:53Z</time>
		</rtept>
		<rtept lat="52.8817085147226" lon="5.36305933525421">
			<time>2026-08-07T15:52:53Z</time>
		</rtept>
		<rtept lat="52.8815330764786" lon="5.36318677226491">
			<time>2026-08-07T15:52:53Z</time>
		</rtept>
		<rtept lat="52.8812249669272" lon="5.36330013334378">
			<time>2026-08-07T15:52:53Z</time>
		</rtept>
		<rtept lat="52.8808954734739" lon="5.363481889904">
			<time>2026-08-07T15:52:53Z</time>
		</rtept>
		<rtept lat="52.8807186100657" lon="5.36361639860981">
			<time>2026-08-07T15:52:53Z</time>
		</rtept>
		<rtept lat="52.8805512788981" lon="5.36382750146556">
			<time>2026-08-07T15:52:53Z</time>
		</rtept>
		<rtept lat="52.8800786773691" lon="5.36470778730526">
			<time>2026-08-07T15:52:53Z</time>
		</rtept>
		<rtept lat="52.8798791020114" lon="5.365233421325684">
			<time>2026-08-07T15:52:53Z</time>
		</rtept>
		<rtept lat="52.8797822913072" lon="5.36552489653913">
			<time>2026-08-07T15:52:53Z</time>
		</rtept>
		<rtept lat="52.8795848221868" lon="5.36677270221076">
			<time>2026-08-07T15:52:53Z</time>
		</rtept>
		<rtept lat="52.879482161586026" lon="5.366150237920246">
			<time>2026-08-07T15:52:53Z</time>
		</rtept>
		<rtept lat="52.8793795007422" lon="5.36552777362975">
			<time>2026-08-07T15:52:53Z</time>
		</rtept>
		<rtept lat="52.8792726447635" lon="5.36493741438558">
			<time>2026-08-07T15:52:53Z</time>
		</rtept>
		<rtept lat="52.87916784079671" lon="5.36438437767354">
			<time>2026-08-07T15:52:53Z</time>
		</rtept>
		<rtept lat="52.8790630365766" lon="5.36383134096152">
			<time>2026-08-07T15:52:53Z</time>
		</rtept>
		<rtept lat="52.87898300707639" lon="5.363411238874596">
			<time>2026-08-07T15:52:53Z</time>
		</rtept>
		<rtept lat="52.87890626377683" lon="5.36297231912613">
			<time>2026-08-07T15:52:53Z</time>
		</rtept>
		<rtept lat="52.8787424535719" lon="5.36214849631766">
			<time>2026-08-07T15:52:53Z</time>
		</rtept>
		<rtept lat="52.8784605385032" lon="5.3615448902437">
			<time>2026-08-07T15:52:53Z</time>
		</rtept>
		<rtept lat="52.8778942622896" lon="5.36084713348726">
			<time>2026-08-07T15:52:53Z</time>
		</rtept>
		<rtept lat="52.876198105930435" lon="5.359477423819415">
			<time>2026-08-07T15:52:53Z</time>
		</rtept>
		<rtept lat="52.8753507145214" lon="5.35873967647862">
			<time>2026-08-07T15:52:53Z</time>
		</rtept>
		<rtept lat="52.87342979710946" lon="5.353431575232409">
			<time>2026-08-07T15:52:53Z</time>
		</rtept>
		<rtept lat="52.871642346829155" lon="5.348711013793946">
			<time>2026-08-07T15:52:53Z</time>
		</rtept>
		<rtept lat="52.87853340786115" lon="5.3475828403509205">
			<time>2026-08-07T15:52:53Z</time>
		</rtept>
		<rtept lat="52.88420400213774" lon="5.346651402370455">
			<time>2026-08-07T15:52:53Z</time>
		</rtept>
		<rtept lat="52.888062818226786" lon="5.347228632591796">
			<time>2026-08-07T15:52:53Z</time>
		</rtept>
		<rtept lat="52.891921290862214" lon="5.347805862813138">
			<time>2026-08-07T15:52:53Z</time>
		</rtept>
		<rtept lat="52.8996372058244" lon="5.34896032325586">
			<time>2026-08-07T15:52:53Z</time>
		</rtept>
		<rtept lat="52.9037265354404" lon="5.35120084568292">
			<time>2026-08-07T15:52:53Z</time>
		</rtept>
		<rtept lat="52.9078073358661" lon="5.3552551067182">
			<time>2026-08-07T15:52:53Z</time>
		</rtept>
		<rtept lat="52.9099914030604" lon="5.3570668936063">
			<time>2026-08-07T15:52:53Z</time>
		</rtept>
		<rtept lat="52.9140812710056" lon="5.36246015868273">
			<time>2026-08-07T15:52:53Z</time>
		</rtept>
		<rtept lat="52.9189888290112" lon="5.36922182830297">
			<time>2026-08-07T15:52:53Z</time>
		</rtept>
		<rtept lat="52.9255222598122" lon="5.37418540344568">
			<time>2026-08-07T15:52:53Z</time>
		</rtept>
		<rtept lat="52.9342388609467" lon="5.37688946220834">
			<time>2026-08-07T15:52:53Z</time>
		</rtept>
		<rtept lat="52.9421465825617" lon="5.37868737948187">
			<time>2026-08-07T15:52:53Z</time>
		</rtept>
		<rtept lat="52.9475919784946" lon="5.37823996103511">
			<time>2026-08-07T15:52:53Z</time>
		</rtept>
		<rtept lat="52.9528666230453" lon="5.37768831967698">
			<time>2026-08-07T15:52:53Z</time>
		</rtept>
		<rtept lat="52.9583" lon="5.3908">
			<time>2026-08-07T15:52:53Z</time>
		</rtept>
		<rtept lat="52.9494" lon="5.3999">
			<time>2026-08-07T15:52:53Z</time>
		</rtept>
		<rtept lat="52.9455" lon="5.4023">
			<time>2026-08-07T15:52:53Z</time>
		</rtept>
		<rtept lat="52.945127544373165" lon="5.402520278555257">
			<time>2026-08-07T15:52:53Z</time>
		</rtept>
		<rtept lat="52.94480106176298" lon="5.402606130582585">
			<time>2026-08-07T15:52:53Z</time>
		</rtept>
		<rtept lat="52.9446976212141" lon="5.402349871583283">
			<time>2026-08-07T15:52:53Z</time>
		</rtept>
		<rtept lat="52.94480106176298" lon="5.402606130582585">
			<time>2026-08-07T15:52:53Z</time>
		</rtept>
		<rtept lat="52.945127544373165" lon="5.402520278555257">
			<time>2026-08-07T15:52:53Z</time>
		</rtept>
		<rtept lat="52.9455" lon="5.4023">
			<time>2026-08-07T15:52:53Z</time>
		</rtept>
		<rtept lat="52.9494" lon="5.3999">
			<time>2026-08-07T15:52:53Z</time>
		</rtept>
		<rtept lat="52.9583" lon="5.3908">
			<time>2026-08-07T15:52:53Z</time>
		</rtept>
		<rtept lat="52.9585" lon="5.3912">
			<time>2026-08-07T15:52:53Z</time>
		</rtept>
		<rtept lat="52.9585" lon="5.3916">
			<time>2026-08-07T15:52:53Z</time>
		</rtept>
		<rtept lat="52.96" lon="5.4026">
			<time>2026-08-07T15:52:53Z</time>
		</rtept>
		<rtept lat="52.9607" lon="5.4112">
			<time>2026-08-07T15:52:53Z</time>
		</rtept>
		<rtept lat="52.960755420824455" lon="5.411541766213008">
			<time>2026-08-07T15:52:53Z</time>
		</rtept>
		<rtept lat="52.9608" lon="5.4117">
			<time>2026-08-07T15:52:53Z</time>
		</rtept>
		<rtept lat="52.960887904785096" lon="5.411868982086926">
			<time>2026-08-07T15:52:53Z</time>
		</rtept>
		<rtept lat="52.961" lon="5.4121">
			<time>2026-08-07T15:52:53Z</time>
		</rtept>
		<rtept lat="52.9619" lon="5.4134">
			<time>2026-08-07T15:52:53Z</time>
		</rtept>
		<rtept lat="52.9625" lon="5.4146">
			<time>2026-08-07T15:52:53Z</time>
		</rtept>
		<rtept lat="52.9639" lon="5.4171">
			<time>2026-08-07T15:52:53Z</time>
		</rtept>
		<rtept lat="52.9646" lon="5.4185">
			<time>2026-08-07T15:52:53Z</time>
		</rtept>
		<rtept lat="52.96544202274217" lon="5.420087864658405">
			<time>2026-08-07T15:52:53Z</time>
		</rtept>
		<rtept lat="52.9665" lon="5.4223">
			<time>2026-08-07T15:52:53Z</time>
		</rtept>
		<rtept lat="52.9676" lon="5.4246">
			<time>2026-08-07T15:52:53Z</time>
		</rtept>
		<rtept lat="52.96839520442036" lon="5.426323411540684">
			<time>2026-08-07T15:52:53Z</time>
		</rtept>
		<rtept lat="52.9705" lon="5.4307">
			<time>2026-08-07T15:52:53Z</time>
		</rtept>
		<rtept lat="52.9717" lon="5.4333">
			<time>2026-08-07T15:52:53Z</time>
		</rtept>
		<rtept lat="52.97182612482935" lon="5.433629751205444">
			<time>2026-08-07T15:52:53Z</time>
		</rtept>
		<rtept lat="52.971968266315514" lon="5.433930158615113">
			<time>2026-08-07T15:52:53Z</time>
		</rtept>
		<rtept lat="52.97211848351438" lon="5.434176921844482">
			<time>2026-08-07T15:52:53Z</time>
		</rtept>
		<rtept lat="52.972268826652574" lon="5.434390017485141">
			<time>2026-08-07T15:52:53Z</time>
		</rtept>
		<rtept lat="52.972379406554" lon="5.434542302834748">
			<time>2026-08-07T15:52:53Z</time>
		</rtept>
		<rtept lat="52.97248998617254" lon="5.434694588184358">
			<time>2026-08-07T15:52:53Z</time>
		</rtept>
		<rtept lat="52.97269673409485" lon="5.434953421354295">
			<time>2026-08-07T15:52:53Z</time>
		</rtept>
		<rtept lat="52.97279687726415" lon="5.4350942272291745">
			<time>2026-08-07T15:52:53Z</time>
		</rtept>
		<rtept lat="52.9734" lon="5.4358">
			<time>2026-08-07T15:52:53Z</time>
		</rtept>
		<rtept lat="52.9738" lon="5.4362">
			<time>2026-08-07T15:52:53Z</time>
		</rtept>
		<rtept lat="52.9741" lon="5.4365">
			<time>2026-08-07T15:52:53Z</time>
		</rtept>
		<rtept lat="52.9744" lon="5.4368">
			<time>2026-08-07T15:52:53Z</time>
		</rtept>
		<rtept lat="52.97466240516959" lon="5.437121985071851">
			<time>2026-08-07T15:52:53Z</time>
		</rtept>
		<rtept lat="52.97482876435331" lon="5.437408982841841">
			<time>2026-08-07T15:52:53Z</time>
		</rtept>
		<rtept lat="52.9750189782229" lon="5.43769394913783">
			<time>2026-08-07T15:52:53Z</time>
		</rtept>
		<rtept lat="52.9753" lon="5.438">
			<time>2026-08-07T15:52:53Z</time>
		</rtept>
		<rtept lat="52.97557656520166" lon="5.438221690767958">
			<time>2026-08-07T15:52:53Z</time>
		</rtept>
		<rtept lat="52.97580267954088" lon="5.438441640423368">
			<time>2026-08-07T15:52:53Z</time>
		</rtept>
		<rtept lat="52.9759" lon="5.4386">
			<time>2026-08-07T15:52:53Z</time>
		</rtept>
		<rtept lat="52.975955306051006" lon="5.4389579604233615">
			<time>2026-08-07T15:52:53Z</time>
		</rtept>
		<rtept lat="52.976112777282154" lon="5.4398578450799935">
			<time>2026-08-07T15:52:53Z</time>
		</rtept>
		<rtept lat="52.9763" lon="5.4407">
			<time>2026-08-07T15:52:53Z</time>
		</rtept>
		<rtept lat="52.9764325632472" lon="5.441311596688605">
			<time>2026-08-07T15:52:53Z</time>
		</rtept>
		<rtept lat="52.97663767724164" lon="5.442340224981309">
			<time>2026-08-07T15:52:53Z</time>
		</rtept>
		<rtept lat="52.976707125066376" lon="5.442666113376617">
			<time>2026-08-07T15:52:53Z</time>
		</rtept>
		<rtept lat="52.976760422158506" lon="5.442902147769928">
			<time>2026-08-07T15:52:53Z</time>
		</rtept>
		<rtept lat="52.97688478178447" lon="5.442620599642397">
			<time>2026-08-07T15:52:53Z</time>
		</rtept>
		<rtept lat="52.97703982705066" lon="5.442320192232729">
			<time>2026-08-07T15:52:53Z</time>
		</rtept>
		<rtept lat="52.977052747464406" lon="5.441928589716555">
			<time>2026-08-07T15:52:53Z</time>
		</rtept>
	</rte>
</gpx>
