<?xml version="1.0" encoding="UTF-8"?>
<gpx xmlns:xsi="http://www.w3.org/2001/XMLSchema-instance" xmlns="http://www.topografix.com/GPX/1/1" xsi:schemaLocation="http://www.topografix.com/GPX/1/1 http://www.topografix.com/GPX/1/1/gpx.xsd" version="1.1" creator="Waterkaarten">
	<metadata>
		<name>T3a Workum - ijlst - sneek - Lytse Griene Adam SN1</name>
		<time>2026-08-07T15:52:38Z</time>
	</metadata>
	<rte>
		<name>T3a Workum - ijlst - sneek - Lytse Griene Adam SN1</name>
		<rtept lat="52.97703982705066" lon="5.442320192232729">
			<time>2026-08-07T15:52:38Z</time>
		</rtept>
		<rtept lat="52.97688478178447" lon="5.442620599642397">
			<time>2026-08-07T15:52:38Z</time>
		</rtept>
		<rtept lat="52.976760422158506" lon="5.442902147769928">
			<time>2026-08-07T15:52:38Z</time>
		</rtept>
		<rtept lat="52.97686055591138" lon="5.443119406700134">
			<time>2026-08-07T15:52:38Z</time>
		</rtept>
		<rtept lat="52.9771" lon="5.4435">
			<time>2026-08-07T15:52:38Z</time>
		</rtept>
		<rtept lat="52.97724655320692" lon="5.443693399997068">
			<time>2026-08-07T15:52:38Z</time>
		</rtept>
		<rtept lat="52.97751141964922" lon="5.443977715855884">
			<time>2026-08-07T15:52:38Z</time>
		</rtept>
		<rtept lat="52.97797977706743" lon="5.444417594160106">
			<time>2026-08-07T15:52:38Z</time>
		</rtept>
		<rtept lat="52.97808636804656" lon="5.444540972936061">
			<time>2026-08-07T15:52:38Z</time>
		</rtept>
		<rtept lat="52.97860236156915" lon="5.445059984489635">
			<time>2026-08-07T15:52:38Z</time>
		</rtept>
		<rtept lat="52.9795" lon="5.4463">
			<time>2026-08-07T15:52:38Z</time>
		</rtept>
		<rtept lat="52.9799" lon="5.4468">
			<time>2026-08-07T15:52:38Z</time>
		</rtept>
		<rtept lat="52.9801" lon="5.4469">
			<time>2026-08-07T15:52:38Z</time>
		</rtept>
		<rtept lat="52.980218132412254" lon="5.446971051464825">
			<time>2026-08-07T15:52:38Z</time>
		</rtept>
		<rtept lat="52.98059037290337" lon="5.447519568425118">
			<time>2026-08-07T15:52:38Z</time>
		</rtept>
		<rtept lat="52.98083826229746" lon="5.448049301759794">
			<time>2026-08-07T15:52:38Z</time>
		</rtept>
		<rtept lat="52.98105465969374" lon="5.448623297327711">
			<time>2026-08-07T15:52:38Z</time>
		</rtept>
		<rtept lat="52.9812" lon="5.4494">
			<time>2026-08-07T15:52:38Z</time>
		</rtept>
		<rtept lat="52.981261366642244" lon="5.449932214191487">
			<time>2026-08-07T15:52:38Z</time>
		</rtept>
		<rtept lat="52.98139055798286" lon="5.4504901074213805">
			<time>2026-08-07T15:52:38Z</time>
		</rtept>
		<rtept lat="52.98157788474056" lon="5.450897812843324">
			<time>2026-08-07T15:52:38Z</time>
		</rtept>
		<rtept lat="52.9817" lon="5.4511">
			<time>2026-08-07T15:52:38Z</time>
		</rtept>
		<rtept lat="52.9821" lon="5.4514">
			<time>2026-08-07T15:52:38Z</time>
		</rtept>
		<rtept lat="52.98247171287043" lon="5.4517185667822154">
			<time>2026-08-07T15:52:38Z</time>
		</rtept>
		<rtept lat="52.98270828759121" lon="5.4519116867154604">
			<time>2026-08-07T15:52:38Z</time>
		</rtept>
		<rtept lat="52.983" lon="5.4522">
			<time>2026-08-07T15:52:38Z</time>
		</rtept>
		<rtept lat="52.9833" lon="5.4525">
			<time>2026-08-07T15:52:38Z</time>
		</rtept>
		<rtept lat="52.9838" lon="5.4532">
			<time>2026-08-07T15:52:38Z</time>
		</rtept>
		<rtept lat="52.98388064558882" lon="5.453392267794919">
			<time>2026-08-07T15:52:38Z</time>
		</rtept>
		<rtept lat="52.9839" lon="5.4536">
			<time>2026-08-07T15:52:38Z</time>
		</rtept>
		<rtept lat="52.98387418640326" lon="5.4538965230897185">
			<time>2026-08-07T15:52:38Z</time>
		</rtept>
		<rtept lat="52.9837" lon="5.4544">
			<time>2026-08-07T15:52:38Z</time>
		</rtept>
		<rtept lat="52.9833" lon="5.4553">
			<time>2026-08-07T15:52:38Z</time>
		</rtept>
		<rtept lat="52.9826" lon="5.4567">
			<time>2026-08-07T15:52:38Z</time>
		</rtept>
		<rtept lat="52.9823" lon="5.4572">
			<time>2026-08-07T15:52:38Z</time>
		</rtept>
		<rtept lat="52.98211402235131" lon="5.457372657456832">
			<time>2026-08-07T15:52:38Z</time>
		</rtept>
		<rtept lat="52.9819" lon="5.4577">
			<time>2026-08-07T15:52:38Z</time>
		</rtept>
		<rtept lat="52.981639250225975" lon="5.458606480984378">
			<time>2026-08-07T15:52:38Z</time>
		</rtept>
		<rtept lat="52.9815" lon="5.4593">
			<time>2026-08-07T15:52:38Z</time>
		</rtept>
		<rtept lat="52.981329999590066" lon="5.459766531180522">
			<time>2026-08-07T15:52:38Z</time>
		</rtept>
		<rtept lat="52.98114832390232" lon="5.460124609015825">
			<time>2026-08-07T15:52:38Z</time>
		</rtept>
		<rtept lat="52.980481365716365" lon="5.461538135139815">
			<time>2026-08-07T15:52:38Z</time>
		</rtept>
		<rtept lat="52.980161609714486" lon="5.462238192269759">
			<time>2026-08-07T15:52:38Z</time>
		</rtept>
		<rtept lat="52.979856385868864" lon="5.462940930756083">
			<time>2026-08-07T15:52:38Z</time>
		</rtept>
		<rtept lat="52.979630292741206" lon="5.4634398216328535">
			<time>2026-08-07T15:52:38Z</time>
		</rtept>
		<rtept lat="52.97941388821092" lon="5.463938712509623">
			<time>2026-08-07T15:52:38Z</time>
		</rtept>
		<rtept lat="52.979275001150285" lon="5.464255219378575">
			<time>2026-08-07T15:52:38Z</time>
		</rtept>
		<rtept lat="52.97881594394065" lon="5.465356260538101">
			<time>2026-08-07T15:52:38Z</time>
		</rtept>
		<rtept lat="52.978" lon="5.4671">
			<time>2026-08-07T15:52:38Z</time>
		</rtept>
		<rtept lat="52.977672922780656" lon="5.467935222106043">
			<time>2026-08-07T15:52:38Z</time>
		</rtept>
		<rtept lat="52.9776" lon="5.4685">
			<time>2026-08-07T15:52:38Z</time>
		</rtept>
		<rtept lat="52.97766646266699" lon="5.469088544730646">
			<time>2026-08-07T15:52:38Z</time>
		</rtept>
		<rtept lat="52.9779" lon="5.4703">
			<time>2026-08-07T15:52:38Z</time>
		</rtept>
		<rtept lat="52.9782" lon="5.4716">
			<time>2026-08-07T15:52:38Z</time>
		</rtept>
		<rtept lat="52.97824786902912" lon="5.4721999168396005">
			<time>2026-08-07T15:52:38Z</time>
		</rtept>
		<rtept lat="52.9782" lon="5.4729">
			<time>2026-08-07T15:52:38Z</time>
		</rtept>
		<rtept lat="52.97803145757499" lon="5.473455184981112">
			<time>2026-08-07T15:52:38Z</time>
		</rtept>
		<rtept lat="52.9776" lon="5.4744">
			<time>2026-08-07T15:52:38Z</time>
		</rtept>
		<rtept lat="52.97703982705066" lon="5.475311278161383">
			<time>2026-08-07T15:52:38Z</time>
		</rtept>
		<rtept lat="52.9767" lon="5.476">
			<time>2026-08-07T15:52:38Z</time>
		</rtept>
		<rtept lat="52.9756" lon="5.4789">
			<time>2026-08-07T15:52:38Z</time>
		</rtept>
		<rtept lat="52.9737" lon="5.4843">
			<time>2026-08-07T15:52:38Z</time>
		</rtept>
		<rtept lat="52.9726" lon="5.4876">
			<time>2026-08-07T15:52:38Z</time>
		</rtept>
		<rtept lat="52.9708" lon="5.492">
			<time>2026-08-07T15:52:38Z</time>
		</rtept>
		<rtept lat="52.9693" lon="5.4956">
			<time>2026-08-07T15:52:38Z</time>
		</rtept>
		<rtept lat="52.968" lon="5.4994">
			<time>2026-08-07T15:52:38Z</time>
		</rtept>
		<rtept lat="52.9668" lon="5.5023">
			<time>2026-08-07T15:52:38Z</time>
		</rtept>
		<rtept lat="52.9651" lon="5.5079">
			<time>2026-08-07T15:52:38Z</time>
		</rtept>
		<rtept lat="52.964430891610135" lon="5.510614505793298">
			<time>2026-08-07T15:52:38Z</time>
		</rtept>
		<rtept lat="52.9637" lon="5.5137">
			<time>2026-08-07T15:52:38Z</time>
		</rtept>
		<rtept lat="52.9634" lon="5.5156">
			<time>2026-08-07T15:52:38Z</time>
		</rtept>
		<rtept lat="52.96314168557761" lon="5.517067919910149">
			<time>2026-08-07T15:52:38Z</time>
		</rtept>
		<rtept lat="52.96292196731412" lon="5.518462300502658">
			<time>2026-08-07T15:52:38Z</time>
		</rtept>
		<rtept lat="52.962" lon="5.5242">
			<time>2026-08-07T15:52:38Z</time>
		</rtept>
		<rtept lat="52.9589" lon="5.5339">
			<time>2026-08-07T15:52:38Z</time>
		</rtept>
		<rtept lat="52.9585" lon="5.5372">
			<time>2026-08-07T15:52:38Z</time>
		</rtept>
		<rtept lat="52.9569" lon="5.5438">
			<time>2026-08-07T15:52:38Z</time>
		</rtept>
		<rtept lat="52.9566" lon="5.5447">
			<time>2026-08-07T15:52:38Z</time>
		</rtept>
		<rtept lat="52.956124571393" lon="5.54589560400856">
			<time>2026-08-07T15:52:38Z</time>
		</rtept>
		<rtept lat="52.95567660191157" lon="5.546568360285878">
			<time>2026-08-07T15:52:38Z</time>
		</rtept>
		<rtept lat="52.9531" lon="5.5508">
			<time>2026-08-07T15:52:38Z</time>
		</rtept>
		<rtept lat="52.9518" lon="5.553">
			<time>2026-08-07T15:52:38Z</time>
		</rtept>
		<rtept lat="52.94675051361112" lon="5.5617651715650505">
			<time>2026-08-07T15:52:38Z</time>
		</rtept>
		<rtept lat="52.9494765999948" lon="5.56917616147412">
			<time>2026-08-07T15:52:38Z</time>
		</rtept>
		<rtept lat="52.9531174321155" lon="5.579199701132451">
			<time>2026-08-07T15:52:38Z</time>
		</rtept>
		<rtept lat="52.95675795776577" lon="5.589223240790777">
			<time>2026-08-07T15:52:38Z</time>
		</rtept>
		<rtept lat="52.96039817695679" lon="5.599246780449106">
			<time>2026-08-07T15:52:38Z</time>
		</rtept>
		<rtept lat="52.96266347380978" lon="5.605494976043702">
			<time>2026-08-07T15:52:38Z</time>
		</rtept>
		<rtept lat="52.96397531236312" lon="5.609314441680908">
			<time>2026-08-07T15:52:38Z</time>
		</rtept>
		<rtept lat="52.964299262725206" lon="5.610412916544379">
			<time>2026-08-07T15:52:38Z</time>
		</rtept>
		<rtept lat="52.96496078065914" lon="5.613327026367188">
			<time>2026-08-07T15:52:38Z</time>
		</rtept>
		<rtept lat="52.96601407603345" lon="5.619852840900421">
			<time>2026-08-07T15:52:38Z</time>
		</rtept>
		<rtept lat="52.96633878308239" lon="5.621741116046906">
			<time>2026-08-07T15:52:38Z</time>
		</rtept>
		<rtept lat="52.9674195068858" lon="5.628100135706707">
			<time>2026-08-07T15:52:38Z</time>
		</rtept>
		<rtept lat="52.9676" lon="5.629">
			<time>2026-08-07T15:52:38Z</time>
		</rtept>
		<rtept lat="52.9684" lon="5.6286">
			<time>2026-08-07T15:52:38Z</time>
		</rtept>
		<rtept lat="52.9708311213368" lon="5.627768027484625">
			<time>2026-08-07T15:52:38Z</time>
		</rtept>
		<rtept lat="52.97776083567018" lon="5.624112069940567">
			<time>2026-08-07T15:52:38Z</time>
		</rtept>
		<rtept lat="52.9839" lon="5.6212">
			<time>2026-08-07T15:52:38Z</time>
		</rtept>
		<rtept lat="52.9878" lon="5.6192">
			<time>2026-08-07T15:52:38Z</time>
		</rtept>
		<rtept lat="52.9942131744406" lon="5.61604039628056">
			<time>2026-08-07T15:52:38Z</time>
		</rtept>
		<rtept lat="53.0001" lon="5.6127">
			<time>2026-08-07T15:52:38Z</time>
		</rtept>
		<rtept lat="53.0034" lon="5.6112">
			<time>2026-08-07T15:52:38Z</time>
		</rtept>
		<rtept lat="53.0084" lon="5.6087">
			<time>2026-08-07T15:52:38Z</time>
		</rtept>
		<rtept lat="53.0088" lon="5.6095">
			<time>2026-08-07T15:52:38Z</time>
		</rtept>
		<rtept lat="53.009" lon="5.6105">
			<time>2026-08-07T15:52:38Z</time>
		</rtept>
		<rtept lat="53.0091" lon="5.6124">
			<time>2026-08-07T15:52:38Z</time>
		</rtept>
		<rtept lat="53.0094" lon="5.614">
			<time>2026-08-07T15:52:38Z</time>
		</rtept>
		<rtept lat="53.009838766809224" lon="5.61529040336609">
			<time>2026-08-07T15:52:38Z</time>
		</rtept>
		<rtept lat="53.0102" lon="5.6162">
			<time>2026-08-07T15:52:38Z</time>
		</rtept>
		<rtept lat="53.01043587823074" lon="5.617446899414063">
			<time>2026-08-07T15:52:38Z</time>
		</rtept>
		<rtept lat="53.0106" lon="5.6193">
			<time>2026-08-07T15:52:38Z</time>
		</rtept>
		<rtept lat="53.0106" lon="5.6199">
			<time>2026-08-07T15:52:38Z</time>
		</rtept>
		<rtept lat="53.0106" lon="5.6204">
			<time>2026-08-07T15:52:38Z</time>
		</rtept>
		<rtept lat="53.0106" lon="5.6206">
			<time>2026-08-07T15:52:38Z</time>
		</rtept>
		<rtept lat="53.01057224441016" lon="5.621290504932404">
			<time>2026-08-07T15:52:38Z</time>
		</rtept>
		<rtept lat="53.01057849787846" lon="5.6214138865470895">
			<time>2026-08-07T15:52:38Z</time>
		</rtept>
		<rtept lat="53.010584347896376" lon="5.621474236249925">
			<time>2026-08-07T15:52:38Z</time>
		</rtept>
		<rtept lat="53.01059241688531" lon="5.621534585952759">
			<time>2026-08-07T15:52:38Z</time>
		</rtept>
		<rtept lat="53.01060895830792" lon="5.621635168790818">
			<time>2026-08-07T15:52:38Z</time>
		</rtept>
		<rtept lat="53.01062509627507" lon="5.621720999479295">
			<time>2026-08-07T15:52:38Z</time>
		</rtept>
		<rtept lat="53.01063760319546" lon="5.621771290898323">
			<time>2026-08-07T15:52:38Z</time>
		</rtept>
		<rtept lat="53.01065575839604" lon="5.621818900108338">
			<time>2026-08-07T15:52:38Z</time>
		</rtept>
		<rtept lat="53.01069227049854" lon="5.621877573430539">
			<time>2026-08-07T15:52:38Z</time>
		</rtept>
		<rtept lat="53.0119" lon="5.6234">
			<time>2026-08-07T15:52:38Z</time>
		</rtept>
		<rtept lat="53.0120279311757" lon="5.6236405963221">
			<time>2026-08-07T15:52:38Z</time>
		</rtept>
		<rtept lat="53.0122" lon="5.624">
			<time>2026-08-07T15:52:38Z</time>
		</rtept>
		<rtept lat="53.0143" lon="5.6269">
			<time>2026-08-07T15:52:38Z</time>
		</rtept>
		<rtept lat="53.015" lon="5.6278">
			<time>2026-08-07T15:52:38Z</time>
		</rtept>
		<rtept lat="53.0153" lon="5.6281">
			<time>2026-08-07T15:52:38Z</time>
		</rtept>
		<rtept lat="53.0156" lon="5.6284">
			<time>2026-08-07T15:52:38Z</time>
		</rtept>
		<rtept lat="53.016" lon="5.6286">
			<time>2026-08-07T15:52:38Z</time>
		</rtept>
		<rtept lat="53.0167" lon="5.6289">
			<time>2026-08-07T15:52:38Z</time>
		</rtept>
		<rtept lat="53.017087470712084" lon="5.629093064583347">
			<time>2026-08-07T15:52:38Z</time>
		</rtept>
		<rtept lat="53.01742308879739" lon="5.629420303517017">
			<time>2026-08-07T15:52:38Z</time>
		</rtept>
		<rtept lat="53.018010407035305" lon="5.630289316177369">
			<time>2026-08-07T15:52:38Z</time>
		</rtept>
		<rtept lat="53.01887524522108" lon="5.631651878356934">
			<time>2026-08-07T15:52:38Z</time>
		</rtept>
		<rtept lat="53.020604869588084" lon="5.634366273880006">
			<time>2026-08-07T15:52:38Z</time>
		</rtept>
		<rtept lat="53.02198593776352" lon="5.636179447174073">
			<time>2026-08-07T15:52:38Z</time>
		</rtept>
		<rtept lat="53.022818429464884" lon="5.637413263320923">
			<time>2026-08-07T15:52:38Z</time>
		</rtept>
		<rtept lat="53.02381223573087" lon="5.638614892959596">
			<time>2026-08-07T15:52:38Z</time>
		</rtept>
		<rtept lat="53.02442528661999" lon="5.6392157077789316">
			<time>2026-08-07T15:52:38Z</time>
		</rtept>
		<rtept lat="53.025333553894825" lon="5.63949465751648">
			<time>2026-08-07T15:52:38Z</time>
		</rtept>
		<rtept lat="53.02542066911145" lon="5.639556348323823">
			<time>2026-08-07T15:52:38Z</time>
		</rtept>
		<rtept lat="53.02550617091227" lon="5.639644861221314">
			<time>2026-08-07T15:52:38Z</time>
		</rtept>
		<rtept lat="53.02560135196285" lon="5.6397682428359985">
			<time>2026-08-07T15:52:38Z</time>
		</rtept>
		<rtept lat="53.0257279908317" lon="5.6399814784526825">
			<time>2026-08-07T15:52:38Z</time>
		</rtept>
		<rtept lat="53.025875601273235" lon="5.640244334936142">
			<time>2026-08-07T15:52:38Z</time>
		</rtept>
		<rtept lat="53.026100645728434" lon="5.6406520307064065">
			<time>2026-08-07T15:52:38Z</time>
		</rtept>
		<rtept lat="53.026199051895425" lon="5.640892088413239">
			<time>2026-08-07T15:52:38Z</time>
		</rtept>
		<rtept lat="53.02629100499612" lon="5.641144216060639">
			<time>2026-08-07T15:52:38Z</time>
		</rtept>
		<rtept lat="53.02639908996911" lon="5.641479492187501">
			<time>2026-08-07T15:52:38Z</time>
		</rtept>
		<rtept lat="53.02648055682198" lon="5.641732960939408">
			<time>2026-08-07T15:52:38Z</time>
		</rtept>
		<rtept lat="53.02656847632226" lon="5.641978383064271">
			<time>2026-08-07T15:52:38Z</time>
		</rtept>
		<rtept lat="53.02669349915624" lon="5.642284154891969">
			<time>2026-08-07T15:52:38Z</time>
		</rtept>
		<rtept lat="53.026812068864" lon="5.642588585615159">
			<time>2026-08-07T15:52:38Z</time>
		</rtept>
		<rtept lat="53.02691531296991" lon="5.642905086278915">
			<time>2026-08-07T15:52:38Z</time>
		</rtept>
		<rtept lat="53.02701129750295" lon="5.643247067928315">
			<time>2026-08-07T15:52:38Z</time>
		</rtept>
		<rtept lat="53.0271" lon="5.6436">
			<time>2026-08-07T15:52:38Z</time>
		</rtept>
		<rtept lat="53.02721133180976" lon="5.644196569919586">
			<time>2026-08-07T15:52:38Z</time>
		</rtept>
		<rtept lat="53.02732102764869" lon="5.6447383761405945">
			<time>2026-08-07T15:52:38Z</time>
		</rtept>
		<rtept lat="53.02746621288889" lon="5.645400881767274">
			<time>2026-08-07T15:52:38Z</time>
		</rtept>
		<rtept lat="53.027614623962634" lon="5.646025836467743">
			<time>2026-08-07T15:52:38Z</time>
		</rtept>
		<rtept lat="53.02767915035715" lon="5.6462860107421875">
			<time>2026-08-07T15:52:38Z</time>
		</rtept>
		<rtept lat="53.02776578375618" lon="5.6465515187930535">
			<time>2026-08-07T15:52:38Z</time>
		</rtept>
		<rtept lat="53.02811631413763" lon="5.6473588943481445">
			<time>2026-08-07T15:52:38Z</time>
		</rtept>
		<rtept lat="53.02830989078" lon="5.647916793823243">
			<time>2026-08-07T15:52:38Z</time>
		</rtept>
		<rtept lat="53.02842603634839" lon="5.6484317779541025">
			<time>2026-08-07T15:52:38Z</time>
		</rtept>
		<rtept lat="53.02849701404176" lon="5.649021863937379">
			<time>2026-08-07T15:52:38Z</time>
		</rtept>
		<rtept lat="53.02850991906437" lon="5.649654885703744">
			<time>2026-08-07T15:52:38Z</time>
		</rtept>
		<rtept lat="53.02845184643223" lon="5.651296377182008">
			<time>2026-08-07T15:52:38Z</time>
		</rtept>
		<rtept lat="53.02842603634839" lon="5.653055906295777">
			<time>2026-08-07T15:52:38Z</time>
		</rtept>
		<rtept lat="53.02840667877537" lon="5.6539249420166025">
			<time>2026-08-07T15:52:38Z</time>
		</rtept>
		<rtept lat="53.02837764239956" lon="5.654681324958801">
			<time>2026-08-07T15:52:38Z</time>
		</rtept>
		<rtept lat="53.02840345251235" lon="5.655190944671632">
			<time>2026-08-07T15:52:38Z</time>
		</rtept>
		<rtept lat="53.02846475146832" lon="5.655577182769775">
			<time>2026-08-07T15:52:38Z</time>
		</rtept>
		<rtept lat="53.02855186036119" lon="5.65598487854004">
			<time>2026-08-07T15:52:38Z</time>
		</rtept>
		<rtept lat="53.02880350728566" lon="5.656981990301038">
			<time>2026-08-07T15:52:38Z</time>
		</rtept>
		<rtept lat="53.029014018488844" lon="5.657721325757974">
			<time>2026-08-07T15:52:38Z</time>
		</rtept>
		<rtept lat="53.029224528664564" lon="5.65846066121491">
			<time>2026-08-07T15:52:38Z</time>
		</rtept>
		<rtept lat="53.02926485616715" lon="5.658589302913883">
			<time>2026-08-07T15:52:38Z</time>
		</rtept>
		<rtept lat="53.029271308564084" lon="5.658723410466467">
			<time>2026-08-07T15:52:38Z</time>
		</rtept>
		<rtept lat="53.02925840376928" lon="5.658849462117864">
			<time>2026-08-07T15:52:38Z</time>
		</rtept>
		<rtept lat="53.0292" lon="5.659">
			<time>2026-08-07T15:52:38Z</time>
		</rtept>
		<rtept lat="53.029116450771646" lon="5.659081488847733">
			<time>2026-08-07T15:52:38Z</time>
		</rtept>
		<rtept lat="53.028993854624986" lon="5.6591928005218515">
			<time>2026-08-07T15:52:38Z</time>
		</rtept>
		<rtept lat="53.02849862716981" lon="5.6595656275749215">
			<time>2026-08-07T15:52:38Z</time>
		</rtept>
		<rtept lat="53.0284" lon="5.6597">
			<time>2026-08-07T15:52:38Z</time>
		</rtept>
		<rtept lat="53.028345379736834" lon="5.659847257818248">
			<time>2026-08-07T15:52:38Z</time>
		</rtept>
		<rtept lat="53.02833247466499" lon="5.660061836242677">
			<time>2026-08-07T15:52:38Z</time>
		</rtept>
		<rtept lat="53.02838732119368" lon="5.660287141799927">
			<time>2026-08-07T15:52:38Z</time>
		</rtept>
		<rtept lat="53.0287954417019" lon="5.661778450012208">
			<time>2026-08-07T15:52:38Z</time>
		</rtept>
		<rtept lat="53.028856740100764" lon="5.661936700344087">
			<time>2026-08-07T15:52:38Z</time>
		</rtept>
		<rtept lat="53.02893094330916" lon="5.662068128585816">
			<time>2026-08-07T15:52:38Z</time>
		</rtept>
		<rtept lat="53.028985789076806" lon="5.662135183811189">
			<time>2026-08-07T15:52:38Z</time>
		</rtept>
		<rtept lat="53.029134194921895" lon="5.6622880697250375">
			<time>2026-08-07T15:52:38Z</time>
		</rtept>
		<rtept lat="53.02950682039089" lon="5.662642121315002">
			<time>2026-08-07T15:52:38Z</time>
		</rtept>
		<rtept lat="53.030098820467984" lon="5.663173198699952">
			<time>2026-08-07T15:52:38Z</time>
		</rtept>
		<rtept lat="53.03029238821262" lon="5.663309991359712">
			<time>2026-08-07T15:52:38Z</time>
		</rtept>
		<rtept lat="53.03048272898098" lon="5.663425326347352">
			<time>2026-08-07T15:52:38Z</time>
		</rtept>
		<rtept lat="53.030852519979156" lon="5.663624480366707">
			<time>2026-08-07T15:52:38Z</time>
		</rtept>
		<rtept lat="53.0315" lon="5.664">
			<time>2026-08-07T15:52:38Z</time>
		</rtept>
		<rtept lat="53.03155378340402" lon="5.664035503491603">
			<time>2026-08-07T15:52:38Z</time>
		</rtept>
		<rtept lat="53.0316" lon="5.6641">
			<time>2026-08-07T15:52:38Z</time>
		</rtept>
		<rtept lat="53.031677985283146" lon="5.664321175757926">
			<time>2026-08-07T15:52:38Z</time>
		</rtept>
		<rtept lat="53.03262158528012" lon="5.66687598824501">
			<time>2026-08-07T15:52:38Z</time>
		</rtept>
		<rtept lat="53.03276433322526" lon="5.667254179716111">
			<time>2026-08-07T15:52:38Z</time>
		</rtept>
		<rtept lat="53.03279175368042" lon="5.667384266853333">
			<time>2026-08-07T15:52:38Z</time>
		</rtept>
		<rtept lat="53.032815141701874" lon="5.667521059513093">
			<time>2026-08-07T15:52:38Z</time>
		</rtept>
		<rtept lat="53.032820787084475" lon="5.667627006769181">
			<time>2026-08-07T15:52:38Z</time>
		</rtept>
		<rtept lat="53.032821593567654" lon="5.667735636234284">
			<time>2026-08-07T15:52:38Z</time>
		</rtept>
		<rtept lat="53.03281473846026" lon="5.667850300669671">
			<time>2026-08-07T15:52:38Z</time>
		</rtept>
		<rtept lat="53.03280385093448" lon="5.667963624000549">
			<time>2026-08-07T15:52:38Z</time>
		</rtept>
		<rtept lat="53.032785301810165" lon="5.668058842420579">
			<time>2026-08-07T15:52:38Z</time>
		</rtept>
		<rtept lat="53.03276352674104" lon="5.6681527197361">
			<time>2026-08-07T15:52:38Z</time>
		</rtept>
		<rtept lat="53.0327312673591" lon="5.668258666992188">
			<time>2026-08-07T15:52:38Z</time>
		</rtept>
		<rtept lat="53.03269255606896" lon="5.6683579087257385">
			<time>2026-08-07T15:52:38Z</time>
		</rtept>
		<rtept lat="53.032599003640975" lon="5.668540298938752">
			<time>2026-08-07T15:52:38Z</time>
		</rtept>
		<rtept lat="53.03249254718295" lon="5.668717324733735">
			<time>2026-08-07T15:52:38Z</time>
		</rtept>
		<rtept lat="53.0307" lon="5.6707">
			<time>2026-08-07T15:52:38Z</time>
		</rtept>
		<rtept lat="53.02968425995888" lon="5.672729909420014">
			<time>2026-08-07T15:52:38Z</time>
		</rtept>
		<rtept lat="53.02939067773291" lon="5.6738001108169565">
			<time>2026-08-07T15:52:38Z</time>
		</rtept>
		<rtept lat="53.029" lon="5.6753">
			<time>2026-08-07T15:52:38Z</time>
		</rtept>
		<rtept lat="53.02879705481875" lon="5.675999522209168">
			<time>2026-08-07T15:52:38Z</time>
		</rtept>
		<rtept lat="53.02857041130641" lon="5.676706284284593">
			<time>2026-08-07T15:52:38Z</time>
		</rtept>
		<rtept lat="53.02831311704999" lon="5.677303075790405">
			<time>2026-08-07T15:52:38Z</time>
		</rtept>
		<rtept lat="53.02800339402836" lon="5.67794680595398">
			<time>2026-08-07T15:52:38Z</time>
		</rtept>
		<rtept lat="53.02753879233853" lon="5.6789208237838515">
			<time>2026-08-07T15:52:38Z</time>
		</rtept>
		<rtept lat="53.02717906827465" lon="5.679636597633362">
			<time>2026-08-07T15:52:38Z</time>
		</rtept>
		<rtept lat="53.02685643159602" lon="5.680277645587922">
			<time>2026-08-07T15:52:38Z</time>
		</rtept>
		<rtept lat="53.02660799970895" lon="5.680891871452332">
			<time>2026-08-07T15:52:38Z</time>
		</rtept>
		<rtept lat="53.026414415428434" lon="5.681441724300385">
			<time>2026-08-07T15:52:38Z</time>
		</rtept>
		<rtept lat="53.025965135229384" lon="5.682848542928697">
			<time>2026-08-07T15:52:38Z</time>
		</rtept>
		<rtept lat="53.02568362693904" lon="5.683823525905609">
			<time>2026-08-07T15:52:38Z</time>
		</rtept>
		<rtept lat="53.02507059393312" lon="5.68591833114624">
			<time>2026-08-07T15:52:38Z</time>
		</rtept>
		<rtept lat="53.02449304434145" lon="5.688053369522095">
			<time>2026-08-07T15:52:38Z</time>
		</rtept>
		<rtept lat="53.02416070783124" lon="5.6894803047180185">
			<time>2026-08-07T15:52:38Z</time>
		</rtept>
		<rtept lat="53.02394129979999" lon="5.690789222717286">
			<time>2026-08-07T15:52:38Z</time>
		</rtept>
		<rtept lat="53.02376101332143" lon="5.69194257259369">
			<time>2026-08-07T15:52:38Z</time>
		</rtept>
		<rtept lat="53.02359282592722" lon="5.69316029548645">
			<time>2026-08-07T15:52:38Z</time>
		</rtept>
		<rtept lat="53.02341858793522" lon="5.694758892059327">
			<time>2026-08-07T15:52:38Z</time>
		</rtept>
		<rtept lat="53.02330726884967" lon="5.696349442005158">
			<time>2026-08-07T15:52:38Z</time>
		</rtept>
		<rtept lat="53.02312818971796" lon="5.7006651163101205">
			<time>2026-08-07T15:52:38Z</time>
		</rtept>
		<rtept lat="53.023018483216056" lon="5.703063011169434">
			<time>2026-08-07T15:52:38Z</time>
		</rtept>
		<rtept lat="53.022779709276854" lon="5.707976818084718">
			<time>2026-08-07T15:52:38Z</time>
		</rtept>
		<rtept lat="53.02256029422159" lon="5.7118284702301025">
			<time>2026-08-07T15:52:38Z</time>
		</rtept>
		<rtept lat="53.02228279711232" lon="5.714950561523438">
			<time>2026-08-07T15:52:38Z</time>
		</rtept>
		<rtept lat="53.02200529821809" lon="5.717782974243164">
			<time>2026-08-07T15:52:38Z</time>
		</rtept>
		<rtept lat="53.0203" lon="5.7248">
			<time>2026-08-07T15:52:38Z</time>
		</rtept>
		<rtept lat="53.01934960805814" lon="5.724354386329652">
			<time>2026-08-07T15:52:38Z</time>
		</rtept>
		<rtept lat="53.01895269257114" lon="5.7255345582962045">
			<time>2026-08-07T15:52:38Z</time>
		</rtept>
		<rtept lat="53.01857190842823" lon="5.726494789123536">
			<time>2026-08-07T15:52:38Z</time>
		</rtept>
		<rtept lat="53.01817175875847" lon="5.727428197860719">
			<time>2026-08-07T15:52:38Z</time>
		</rtept>
		<rtept lat="53.017652204053235" lon="5.728613734245301">
			<time>2026-08-07T15:52:38Z</time>
		</rtept>
		<rtept lat="53.01700000289696" lon="5.729949999999989">
			<time>2026-08-07T15:52:38Z</time>
		</rtept>
		<rtept lat="53.0165" lon="5.7309">
			<time>2026-08-07T15:52:38Z</time>
		</rtept>
		<rtept lat="53.0158" lon="5.7327">
			<time>2026-08-07T15:52:38Z</time>
		</rtept>
		<rtept lat="53.01443792531895" lon="5.735399723052979">
			<time>2026-08-07T15:52:38Z</time>
		</rtept>
		<rtept lat="53.014283014272166" lon="5.735670629286105">
			<time>2026-08-07T15:52:38Z</time>
		</rtept>
		<rtept lat="53.013942530746256" lon="5.736099790109184">
			<time>2026-08-07T15:52:38Z</time>
		</rtept>
		<rtept lat="53.0137" lon="5.7365">
			<time>2026-08-07T15:52:38Z</time>
		</rtept>
		<rtept lat="53.0127" lon="5.7386">
			<time>2026-08-07T15:52:38Z</time>
		</rtept>
		<rtept lat="53.0121" lon="5.7398">
			<time>2026-08-07T15:52:38Z</time>
		</rtept>
		<rtept lat="53.0116" lon="5.7412">
			<time>2026-08-07T15:52:38Z</time>
		</rtept>
		<rtept lat="53.0112" lon="5.742">
			<time>2026-08-07T15:52:38Z</time>
		</rtept>
		<rtept lat="53.0105" lon="5.7436">
			<time>2026-08-07T15:52:38Z</time>
		</rtept>
		<rtept lat="53.0097" lon="5.7453">
			<time>2026-08-07T15:52:38Z</time>
		</rtept>
		<rtept lat="53.0095" lon="5.7457">
			<time>2026-08-07T15:52:38Z</time>
		</rtept>
		<rtept lat="53.0092" lon="5.7463">
			<time>2026-08-07T15:52:38Z</time>
		</rtept>
		<rtept lat="53.0089" lon="5.7469">
			<time>2026-08-07T15:52:38Z</time>
		</rtept>
		<rtept lat="53.00868325205692" lon="5.747421392373915">
			<time>2026-08-07T15:52:38Z</time>
		</rtept>
		<rtept lat="53.0085" lon="5.7479">
			<time>2026-08-07T15:52:38Z</time>
		</rtept>
		<rtept lat="53.00815000141906" lon="5.748900000000013">
			<time>2026-08-07T15:52:38Z</time>
		</rtept>
		<rtept lat="53.0078" lon="5.7499">
			<time>2026-08-07T15:52:38Z</time>
		</rtept>
		<rtept lat="53.0111" lon="5.7545">
			<time>2026-08-07T15:52:38Z</time>
		</rtept>
		<rtept lat="53.015" lon="5.7598">
			<time>2026-08-07T15:52:38Z</time>
		</rtept>
		<rtept lat="53.019" lon="5.7653">
			<time>2026-08-07T15:52:38Z</time>
		</rtept>
		<rtept lat="53.0206" lon="5.7654">
			<time>2026-08-07T15:52:38Z</time>
		</rtept>
		<rtept lat="53.0273" lon="5.765">
			<time>2026-08-07T15:52:38Z</time>
		</rtept>
		<rtept lat="53.0284" lon="5.7716">
			<time>2026-08-07T15:52:38Z</time>
		</rtept>
	</rte>
</gpx>
