<?xml version="1.0" encoding="UTF-8"?>
<gpx xmlns:xsi="http://www.w3.org/2001/XMLSchema-instance" xmlns="http://www.topografix.com/GPX/1/1" xsi:schemaLocation="http://www.topografix.com/GPX/1/1 http://www.topografix.com/GPX/1/1/gpx.xsd" version="1.1" creator="Waterkaarten">
	<metadata>
		<name>T4 Adam SN15a - Marchjepolle TJ15l Tsjukemar</name>
		<time>2026-08-07T15:51:58Z</time>
	</metadata>
	<rte>
		<name>T4 Adam SN15a - Marchjepolle TJ15l Tsjukemar</name>
		<rtept lat="53.0284" lon="5.7716">
			<time>2026-08-07T15:51:58Z</time>
		</rtept>
		<rtept lat="53.0273" lon="5.765">
			<time>2026-08-07T15:51:58Z</time>
		</rtept>
		<rtept lat="53.0206" lon="5.7654">
			<time>2026-08-07T15:51:58Z</time>
		</rtept>
		<rtept lat="53.019" lon="5.7653">
			<time>2026-08-07T15:51:58Z</time>
		</rtept>
		<rtept lat="53.0179071416158" lon="5.764453411102296">
			<time>2026-08-07T15:51:58Z</time>
		</rtept>
		<rtept lat="53.017093" lon="5.7637935">
			<time>2026-08-07T15:51:58Z</time>
		</rtept>
		<rtept lat="53.0152921" lon="5.7625927">
			<time>2026-08-07T15:51:58Z</time>
		</rtept>
		<rtept lat="53.0135973" lon="5.761284">
			<time>2026-08-07T15:51:58Z</time>
		</rtept>
		<rtept lat="53.0119191" lon="5.759942">
			<time>2026-08-07T15:51:58Z</time>
		</rtept>
		<rtept lat="53.0101792" lon="5.7586544">
			<time>2026-08-07T15:51:58Z</time>
		</rtept>
		<rtept lat="53.00876717316451" lon="5.756701827049256">
			<time>2026-08-07T15:51:58Z</time>
		</rtept>
		<rtept lat="53.0074" lon="5.756">
			<time>2026-08-07T15:51:58Z</time>
		</rtept>
		<rtept lat="53.00641649540135" lon="5.756150559848089">
			<time>2026-08-07T15:51:58Z</time>
		</rtept>
		<rtept lat="53.0054329683935" lon="5.75630111969621">
			<time>2026-08-07T15:51:58Z</time>
		</rtept>
		<rtept lat="53.003760516178" lon="5.75665938726935">
			<time>2026-08-07T15:51:58Z</time>
		</rtept>
		<rtept lat="53.0032034137945" lon="5.75665467488457">
			<time>2026-08-07T15:51:58Z</time>
		</rtept>
		<rtept lat="53.0025567311064" lon="5.75655983117013">
			<time>2026-08-07T15:51:58Z</time>
		</rtept>
		<rtept lat="53.00204651245719" lon="5.756388016826848">
			<time>2026-08-07T15:51:58Z</time>
		</rtept>
		<rtept lat="53.00162038342213" lon="5.755999093113213">
			<time>2026-08-07T15:51:58Z</time>
		</rtept>
		<rtept lat="53.0011861087533" lon="5.75519278172106">
			<time>2026-08-07T15:51:58Z</time>
		</rtept>
		<rtept lat="53.0008199829777" lon="5.75444494560775">
			<time>2026-08-07T15:51:58Z</time>
		</rtept>
		<rtept lat="53.00019023780982" lon="5.753295429264931">
			<time>2026-08-07T15:51:58Z</time>
		</rtept>
		<rtept lat="52.99969790809956" lon="5.752343237967802">
			<time>2026-08-07T15:51:58Z</time>
		</rtept>
		<rtept lat="52.99946707617114" lon="5.7518550827400405">
			<time>2026-08-07T15:51:58Z</time>
		</rtept>
		<rtept lat="52.9992294994653" lon="5.75149736000973">
			<time>2026-08-07T15:51:58Z</time>
		</rtept>
		<rtept lat="52.99898765206888" lon="5.751205984468109">
			<time>2026-08-07T15:51:58Z</time>
		</rtept>
		<rtept lat="52.9986919029639" lon="5.7509864704876">
			<time>2026-08-07T15:51:58Z</time>
		</rtept>
		<rtept lat="52.99841782457917" lon="5.750819745234473">
			<time>2026-08-07T15:51:58Z</time>
		</rtept>
		<rtept lat="52.998085287215176" lon="5.750699038448067">
			<time>2026-08-07T15:51:58Z</time>
		</rtept>
		<rtept lat="52.99783184682486" lon="5.750669541813491">
			<time>2026-08-07T15:51:58Z</time>
		</rtept>
		<rtept lat="52.9975695673333" lon="5.75069413995199">
			<time>2026-08-07T15:51:58Z</time>
		</rtept>
		<rtept lat="52.996814059435" lon="5.75092615242927">
			<time>2026-08-07T15:51:58Z</time>
		</rtept>
		<rtept lat="52.9959659221171" lon="5.75126296435904">
			<time>2026-08-07T15:51:58Z</time>
		</rtept>
		<rtept lat="52.9949610482446" lon="5.75156601893234">
			<time>2026-08-07T15:51:58Z</time>
		</rtept>
		<rtept lat="52.99469681147678" lon="5.751755839871">
			<time>2026-08-07T15:51:58Z</time>
		</rtept>
		<rtept lat="52.994417520767506" lon="5.752061601479271">
			<time>2026-08-07T15:51:58Z</time>
		</rtept>
		<rtept lat="52.9928141354001" lon="5.75428829803025">
			<time>2026-08-07T15:51:58Z</time>
		</rtept>
		<rtept lat="52.99243337465757" lon="5.754797464042287">
			<time>2026-08-07T15:51:58Z</time>
		</rtept>
		<rtept lat="52.9920912187212" lon="5.75540903167225">
			<time>2026-08-07T15:51:58Z</time>
		</rtept>
		<rtept lat="52.991404525957" lon="5.75683784841638">
			<time>2026-08-07T15:51:58Z</time>
		</rtept>
		<rtept lat="52.99113854504762" lon="5.757248994849565">
			<time>2026-08-07T15:51:58Z</time>
		</rtept>
		<rtept lat="52.99081563884797" lon="5.757605728364652">
			<time>2026-08-07T15:51:58Z</time>
		</rtept>
		<rtept lat="52.9901689079552" lon="5.75831653569747">
			<time>2026-08-07T15:51:58Z</time>
		</rtept>
		<rtept lat="52.98931732249207" lon="5.75929820026596">
			<time>2026-08-07T15:51:58Z</time>
		</rtept>
		<rtept lat="52.9884221518429" lon="5.76018203699726">
			<time>2026-08-07T15:51:58Z</time>
		</rtept>
		<rtept lat="52.98803854587177" lon="5.760768049670629">
			<time>2026-08-07T15:51:58Z</time>
		</rtept>
		<rtept lat="52.98761389324185" lon="5.761564670573872">
			<time>2026-08-07T15:51:58Z</time>
		</rtept>
		<rtept lat="52.98718923643711" lon="5.762315683704476">
			<time>2026-08-07T15:51:58Z</time>
		</rtept>
		<rtept lat="52.9867810882964" lon="5.7625777336308">
			<time>2026-08-07T15:51:58Z</time>
		</rtept>
		<rtept lat="52.986260965783" lon="5.76282362741529">
			<time>2026-08-07T15:51:58Z</time>
		</rtept>
		<rtept lat="52.9856373705221" lon="5.76294343144802">
			<time>2026-08-07T15:51:58Z</time>
		</rtept>
		<rtept lat="52.9839994746659" lon="5.76286493794253">
			<time>2026-08-07T15:51:58Z</time>
		</rtept>
		<rtept lat="52.98195092095097" lon="5.76290845218062">
			<time>2026-08-07T15:51:58Z</time>
		</rtept>
		<rtept lat="52.98067515608092" lon="5.763082796618227">
			<time>2026-08-07T15:51:58Z</time>
		</rtept>
		<rtept lat="52.9805" lon="5.7631">
			<time>2026-08-07T15:51:58Z</time>
		</rtept>
		<rtept lat="52.98016968439012" lon="5.763211537825082">
			<time>2026-08-07T15:51:58Z</time>
		</rtept>
		<rtept lat="52.978920425349" lon="5.76352099993549">
			<time>2026-08-07T15:51:58Z</time>
		</rtept>
		<rtept lat="52.9786" lon="5.7634">
			<time>2026-08-07T15:51:58Z</time>
		</rtept>
		<rtept lat="52.978079907994726" lon="5.763106930821903">
			<time>2026-08-07T15:51:58Z</time>
		</rtept>
		<rtept lat="52.9776" lon="5.7626">
			<time>2026-08-07T15:51:58Z</time>
		</rtept>
		<rtept lat="52.97452592555522" lon="5.756892934441567">
			<time>2026-08-07T15:51:58Z</time>
		</rtept>
		<rtept lat="52.973809602404984" lon="5.755923986434937">
			<time>2026-08-07T15:51:58Z</time>
		</rtept>
		<rtept lat="52.9687716753671" lon="5.74716532213824">
			<time>2026-08-07T15:51:58Z</time>
		</rtept>
		<rtept lat="52.96641616156171" lon="5.743053248037074">
			<time>2026-08-07T15:51:58Z</time>
		</rtept>
		<rtept lat="52.9640605193967" lon="5.73894117393593">
			<time>2026-08-07T15:51:58Z</time>
		</rtept>
		<rtept lat="52.9624095267479" lon="5.74201660878633">
			<time>2026-08-07T15:51:58Z</time>
		</rtept>
		<rtept lat="52.9619688559769" lon="5.742630805828">
			<time>2026-08-07T15:51:58Z</time>
		</rtept>
		<rtept lat="52.9605282351299" lon="5.74529683660341">
			<time>2026-08-07T15:51:58Z</time>
		</rtept>
		<rtept lat="52.958015998723" lon="5.75000824560531">
			<time>2026-08-07T15:51:58Z</time>
		</rtept>
		<rtept lat="52.9574460688843" lon="5.75126833847322">
			<time>2026-08-07T15:51:58Z</time>
		</rtept>
		<rtept lat="52.9572807981756" lon="5.75242761717678">
			<time>2026-08-07T15:51:58Z</time>
		</rtept>
		<rtept lat="52.9572875438798" lon="5.75425644854786">
			<time>2026-08-07T15:51:58Z</time>
		</rtept>
		<rtept lat="52.9571272429638" lon="5.75562556364681">
			<time>2026-08-07T15:51:58Z</time>
		</rtept>
		<rtept lat="52.9568286961248" lon="5.7571957493967">
			<time>2026-08-07T15:51:58Z</time>
		</rtept>
		<rtept lat="52.956749790287" lon="5.75855374565578">
			<time>2026-08-07T15:51:58Z</time>
		</rtept>
		<rtept lat="52.9569392449454" lon="5.76120400730407">
			<time>2026-08-07T15:51:58Z</time>
		</rtept>
		<rtept lat="52.9568818457107" lon="5.76231952064892">
			<time>2026-08-07T15:51:58Z</time>
		</rtept>
		<rtept lat="52.9566541284921" lon="5.76329964623647">
			<time>2026-08-07T15:51:58Z</time>
		</rtept>
		<rtept lat="52.9562016212693" lon="5.76432246316959">
			<time>2026-08-07T15:51:58Z</time>
		</rtept>
		<rtept lat="52.9540639969652" lon="5.76769980068537">
			<time>2026-08-07T15:51:58Z</time>
		</rtept>
		<rtept lat="52.9519680243069" lon="5.77128743551456">
			<time>2026-08-07T15:51:58Z</time>
		</rtept>
		<rtept lat="52.9482174192434" lon="5.7770330753323">
			<time>2026-08-07T15:51:58Z</time>
		</rtept>
		<rtept lat="52.94574292506728" lon="5.7807354256510735">
			<time>2026-08-07T15:51:58Z</time>
		</rtept>
		<rtept lat="52.9406755916671" lon="5.78871678113732">
			<time>2026-08-07T15:51:58Z</time>
		</rtept>
		<rtept lat="52.9393699978559" lon="5.79058117063808">
			<time>2026-08-07T15:51:58Z</time>
		</rtept>
		<rtept lat="52.93893335923" lon="5.79108062928366">
			<time>2026-08-07T15:51:58Z</time>
		</rtept>
		<rtept lat="52.9382857375489" lon="5.79126801060749">
			<time>2026-08-07T15:51:58Z</time>
		</rtept>
		<rtept lat="52.9376124616619" lon="5.7910684379327">
			<time>2026-08-07T15:51:58Z</time>
		</rtept>
		<rtept lat="52.9370764827499" lon="5.79073254471293">
			<time>2026-08-07T15:51:58Z</time>
		</rtept>
		<rtept lat="52.9363755376003" lon="5.79013489038064">
			<time>2026-08-07T15:51:58Z</time>
		</rtept>
		<rtept lat="52.9358950982563" lon="5.78968659894354">
			<time>2026-08-07T15:51:58Z</time>
		</rtept>
		<rtept lat="52.935386375577" lon="5.789255190972">
			<time>2026-08-07T15:51:58Z</time>
		</rtept>
		<rtept lat="52.9350467625977" lon="5.78910679493108">
			<time>2026-08-07T15:51:58Z</time>
		</rtept>
		<rtept lat="52.934745128262" lon="5.78908586546478">
			<time>2026-08-07T15:51:58Z</time>
		</rtept>
		<rtept lat="52.9322006263282" lon="5.7890703081837">
			<time>2026-08-07T15:51:58Z</time>
		</rtept>
		<rtept lat="52.9262425405435" lon="5.78917917538455">
			<time>2026-08-07T15:51:58Z</time>
		</rtept>
		<rtept lat="52.9237173978577" lon="5.78920059512702">
			<time>2026-08-07T15:51:58Z</time>
		</rtept>
		<rtept lat="52.9228454812901" lon="5.78928179971759">
			<time>2026-08-07T15:51:58Z</time>
		</rtept>
		<rtept lat="52.9212192102422" lon="5.78922226032906">
			<time>2026-08-07T15:51:58Z</time>
		</rtept>
		<rtept lat="52.9189748143125" lon="5.78859209805055">
			<time>2026-08-07T15:51:58Z</time>
		</rtept>
		<rtept lat="52.9185521350104" lon="5.78869229242289">
			<time>2026-08-07T15:51:58Z</time>
		</rtept>
		<rtept lat="52.917408201327" lon="5.789499468754">
			<time>2026-08-07T15:51:58Z</time>
		</rtept>
		<rtept lat="52.9158498660723" lon="5.79061497652497">
			<time>2026-08-07T15:51:58Z</time>
		</rtept>
		<rtept lat="52.9148050126196" lon="5.79134863879402">
			<time>2026-08-07T15:51:58Z</time>
		</rtept>
		<rtept lat="52.9137987566012" lon="5.79129475567479">
			<time>2026-08-07T15:51:58Z</time>
		</rtept>
		<rtept lat="52.9125593710981" lon="5.79109007418887">
			<time>2026-08-07T15:51:58Z</time>
		</rtept>
		<rtept lat="52.9115159728571" lon="5.79058855055224">
			<time>2026-08-07T15:51:58Z</time>
		</rtept>
		<rtept lat="52.9093" lon="5.7889">
			<time>2026-08-07T15:51:58Z</time>
		</rtept>
		<rtept lat="52.9066" lon="5.7858">
			<time>2026-08-07T15:51:58Z</time>
		</rtept>
		<rtept lat="52.90230021336825" lon="5.780750000000001">
			<time>2026-08-07T15:51:58Z</time>
		</rtept>
		<rtept lat="52.898" lon="5.7757">
			<time>2026-08-07T15:51:58Z</time>
		</rtept>
		<rtept lat="52.8876" lon="5.7629">
			<time>2026-08-07T15:51:58Z</time>
		</rtept>
		<rtept lat="52.8868" lon="5.7788">
			<time>2026-08-07T15:51:58Z</time>
		</rtept>
		<rtept lat="52.8867" lon="5.7799">
			<time>2026-08-07T15:51:58Z</time>
		</rtept>
		<rtept lat="52.8866" lon="5.7806">
			<time>2026-08-07T15:51:58Z</time>
		</rtept>
		<rtept lat="52.8864" lon="5.7813">
			<time>2026-08-07T15:51:58Z</time>
		</rtept>
		<rtept lat="52.8861" lon="5.7821">
			<time>2026-08-07T15:51:58Z</time>
		</rtept>
		<rtept lat="52.8858" lon="5.7829">
			<time>2026-08-07T15:51:58Z</time>
		</rtept>
		<rtept lat="52.8854" lon="5.7834">
			<time>2026-08-07T15:51:58Z</time>
		</rtept>
	</rte>
</gpx>
