<?xml version="1.0" encoding="UTF-8"?>
<gpx xmlns:xsi="http://www.w3.org/2001/XMLSchema-instance" xmlns="http://www.topografix.com/GPX/1/1" xsi:schemaLocation="http://www.topografix.com/GPX/1/1 http://www.topografix.com/GPX/1/1/gpx.xsd" version="1.1" creator="Waterkaarten">
	<metadata>
		<name>T 5 Marchjepolle TJ15i -Kalenberg - Giethorn</name>
		<time>2026-08-07T15:48:57Z</time>
	</metadata>
	<rte>
		<name>T 5 Marchjepolle TJ15i -Kalenberg - Giethorn</name>
		<rtept lat="52.8854" lon="5.7834">
			<time>2026-08-07T15:48:57Z</time>
		</rtept>
		<rtept lat="52.8858" lon="5.7829">
			<time>2026-08-07T15:48:57Z</time>
		</rtept>
		<rtept lat="52.8861" lon="5.7821">
			<time>2026-08-07T15:48:57Z</time>
		</rtept>
		<rtept lat="52.8864" lon="5.7813">
			<time>2026-08-07T15:48:57Z</time>
		</rtept>
		<rtept lat="52.8866" lon="5.7806">
			<time>2026-08-07T15:48:57Z</time>
		</rtept>
		<rtept lat="52.8867" lon="5.7799">
			<time>2026-08-07T15:48:57Z</time>
		</rtept>
		<rtept lat="52.8868" lon="5.7788">
			<time>2026-08-07T15:48:57Z</time>
		</rtept>
		<rtept lat="52.8859" lon="5.7788">
			<time>2026-08-07T15:48:57Z</time>
		</rtept>
		<rtept lat="52.8855" lon="5.7789">
			<time>2026-08-07T15:48:57Z</time>
		</rtept>
		<rtept lat="52.8851" lon="5.7793">
			<time>2026-08-07T15:48:57Z</time>
		</rtept>
		<rtept lat="52.884" lon="5.7807">
			<time>2026-08-07T15:48:57Z</time>
		</rtept>
		<rtept lat="52.8837" lon="5.7813">
			<time>2026-08-07T15:48:57Z</time>
		</rtept>
		<rtept lat="52.883" lon="5.7847">
			<time>2026-08-07T15:48:57Z</time>
		</rtept>
		<rtept lat="52.8828" lon="5.7852">
			<time>2026-08-07T15:48:57Z</time>
		</rtept>
		<rtept lat="52.8825" lon="5.7856">
			<time>2026-08-07T15:48:57Z</time>
		</rtept>
		<rtept lat="52.8822" lon="5.7857">
			<time>2026-08-07T15:48:57Z</time>
		</rtept>
		<rtept lat="52.8819" lon="5.7858">
			<time>2026-08-07T15:48:57Z</time>
		</rtept>
		<rtept lat="52.8811" lon="5.7856">
			<time>2026-08-07T15:48:57Z</time>
		</rtept>
		<rtept lat="52.8785" lon="5.8086">
			<time>2026-08-07T15:48:57Z</time>
		</rtept>
		<rtept lat="52.87840000011531" lon="5.809100000000009">
			<time>2026-08-07T15:48:57Z</time>
		</rtept>
		<rtept lat="52.8783" lon="5.8096">
			<time>2026-08-07T15:48:57Z</time>
		</rtept>
		<rtept lat="52.8782" lon="5.81">
			<time>2026-08-07T15:48:57Z</time>
		</rtept>
		<rtept lat="52.8771" lon="5.8124">
			<time>2026-08-07T15:48:57Z</time>
		</rtept>
		<rtept lat="52.8756" lon="5.8166">
			<time>2026-08-07T15:48:57Z</time>
		</rtept>
		<rtept lat="52.87398994043401" lon="5.821482539176942">
			<time>2026-08-07T15:48:57Z</time>
		</rtept>
		<rtept lat="52.87388471174855" lon="5.82177221775055">
			<time>2026-08-07T15:48:57Z</time>
		</rtept>
		<rtept lat="52.87378110171654" lon="5.822032392024995">
			<time>2026-08-07T15:48:57Z</time>
		</rtept>
		<rtept lat="52.8736888238234" lon="5.822228193283082">
			<time>2026-08-07T15:48:57Z</time>
		</rtept>
		<rtept lat="52.87359330790268" lon="5.822415947914124">
			<time>2026-08-07T15:48:57Z</time>
		</rtept>
		<rtept lat="52.87349293501357" lon="5.822590291500092">
			<time>2026-08-07T15:48:57Z</time>
		</rtept>
		<rtept lat="52.87341441734969" lon="5.822737812995911">
			<time>2026-08-07T15:48:57Z</time>
		</rtept>
		<rtept lat="52.87334399416942" lon="5.822914838790894">
			<time>2026-08-07T15:48:57Z</time>
		</rtept>
		<rtept lat="52.873291399452036" lon="5.823078709965945">
			<time>2026-08-07T15:48:57Z</time>
		</rtept>
		<rtept lat="52.8729" lon="5.8243">
			<time>2026-08-07T15:48:57Z</time>
		</rtept>
		<rtept lat="52.8705" lon="5.8312">
			<time>2026-08-07T15:48:57Z</time>
		</rtept>
		<rtept lat="52.8663707237332" lon="5.843353271484376">
			<time>2026-08-07T15:48:57Z</time>
		</rtept>
		<rtept lat="52.8651" lon="5.8471">
			<time>2026-08-07T15:48:57Z</time>
		</rtept>
		<rtept lat="52.8648" lon="5.8481">
			<time>2026-08-07T15:48:57Z</time>
		</rtept>
		<rtept lat="52.8645" lon="5.8486">
			<time>2026-08-07T15:48:57Z</time>
		</rtept>
		<rtept lat="52.8643" lon="5.849">
			<time>2026-08-07T15:48:57Z</time>
		</rtept>
		<rtept lat="52.8641" lon="5.8493">
			<time>2026-08-07T15:48:57Z</time>
		</rtept>
		<rtept lat="52.863621260045065" lon="5.849683284759522">
			<time>2026-08-07T15:48:57Z</time>
		</rtept>
		<rtept lat="52.86344313801363" lon="5.849887132644653">
			<time>2026-08-07T15:48:57Z</time>
		</rtept>
		<rtept lat="52.86332978724924" lon="5.850101709365846">
			<time>2026-08-07T15:48:57Z</time>
		</rtept>
		<rtept lat="52.863243964330685" lon="5.850367248058319">
			<time>2026-08-07T15:48:57Z</time>
		</rtept>
		<rtept lat="52.863184050117134" lon="5.850740075111389">
			<time>2026-08-07T15:48:57Z</time>
		</rtept>
		<rtept lat="52.86318081150863" lon="5.851072669029237">
			<time>2026-08-07T15:48:57Z</time>
		</rtept>
		<rtept lat="52.86321481688578" lon="5.851386487483979">
			<time>2026-08-07T15:48:57Z</time>
		</rtept>
		<rtept lat="52.863271492455134" lon="5.851673483848573">
			<time>2026-08-07T15:48:57Z</time>
		</rtept>
		<rtept lat="52.863381604778276" lon="5.851984620094299">
			<time>2026-08-07T15:48:57Z</time>
		</rtept>
		<rtept lat="52.86354353415763" lon="5.852279663085938">
			<time>2026-08-07T15:48:57Z</time>
		</rtept>
		<rtept lat="52.86373137148058" lon="5.852531790733337">
			<time>2026-08-07T15:48:57Z</time>
		</rtept>
		<rtept lat="52.86503325609333" lon="5.854071378707887">
			<time>2026-08-07T15:48:57Z</time>
		</rtept>
		<rtept lat="52.865599984703366" lon="5.854672193527223">
			<time>2026-08-07T15:48:57Z</time>
		</rtept>
		<rtept lat="52.86596916393035" lon="5.855026245117188">
			<time>2026-08-07T15:48:57Z</time>
		</rtept>
		<rtept lat="52.866373962103594" lon="5.855219364166261">
			<time>2026-08-07T15:48:57Z</time>
		</rtept>
		<rtept lat="52.8668" lon="5.8553">
			<time>2026-08-07T15:48:57Z</time>
		</rtept>
		<rtept lat="52.8669" lon="5.8554">
			<time>2026-08-07T15:48:57Z</time>
		</rtept>
		<rtept lat="52.8672" lon="5.8556">
			<time>2026-08-07T15:48:57Z</time>
		</rtept>
		<rtept lat="52.8674" lon="5.8558">
			<time>2026-08-07T15:48:57Z</time>
		</rtept>
		<rtept lat="52.8676" lon="5.8561">
			<time>2026-08-07T15:48:57Z</time>
		</rtept>
		<rtept lat="52.8679" lon="5.8565">
			<time>2026-08-07T15:48:57Z</time>
		</rtept>
		<rtept lat="52.8677" lon="5.857">
			<time>2026-08-07T15:48:57Z</time>
		</rtept>
		<rtept lat="52.8674" lon="5.8584">
			<time>2026-08-07T15:48:57Z</time>
		</rtept>
		<rtept lat="52.86693753697388" lon="5.860368749999996">
			<time>2026-08-07T15:48:57Z</time>
		</rtept>
		<rtept lat="52.86647506901801" lon="5.862337500000022">
			<time>2026-08-07T15:48:57Z</time>
		</rtept>
		<rtept lat="52.865550118316946" lon="5.866275000000033">
			<time>2026-08-07T15:48:57Z</time>
		</rtept>
		<rtept lat="52.86462514789662" lon="5.8702125000000045">
			<time>2026-08-07T15:48:57Z</time>
		</rtept>
		<rtept lat="52.86370015775688" lon="5.8741500000000135">
			<time>2026-08-07T15:48:57Z</time>
		</rtept>
		<rtept lat="52.863237655292146" lon="5.87611875000004">
			<time>2026-08-07T15:48:57Z</time>
		</rtept>
		<rtept lat="52.86277514789752" lon="5.878087500000024">
			<time>2026-08-07T15:48:57Z</time>
		</rtept>
		<rtept lat="52.86185011831837" lon="5.882024999999996">
			<time>2026-08-07T15:48:57Z</time>
		</rtept>
		<rtept lat="52.86" lon="5.8899">
			<time>2026-08-07T15:48:57Z</time>
		</rtept>
		<rtept lat="52.8591" lon="5.8939">
			<time>2026-08-07T15:48:57Z</time>
		</rtept>
		<rtept lat="52.8585" lon="5.8966">
			<time>2026-08-07T15:48:57Z</time>
		</rtept>
		<rtept lat="52.85811510255" lon="5.89805826544762">
			<time>2026-08-07T15:48:57Z</time>
		</rtept>
		<rtept lat="52.8576" lon="5.9002">
			<time>2026-08-07T15:48:57Z</time>
		</rtept>
		<rtept lat="52.8551" lon="5.911">
			<time>2026-08-07T15:48:57Z</time>
		</rtept>
		<rtept lat="52.855" lon="5.9113">
			<time>2026-08-07T15:48:57Z</time>
		</rtept>
		<rtept lat="52.855" lon="5.9115">
			<time>2026-08-07T15:48:57Z</time>
		</rtept>
		<rtept lat="52.855" lon="5.9118">
			<time>2026-08-07T15:48:57Z</time>
		</rtept>
		<rtept lat="52.855" lon="5.912">
			<time>2026-08-07T15:48:57Z</time>
		</rtept>
		<rtept lat="52.8551" lon="5.9122">
			<time>2026-08-07T15:48:57Z</time>
		</rtept>
		<rtept lat="52.856" lon="5.914">
			<time>2026-08-07T15:48:57Z</time>
		</rtept>
		<rtept lat="52.8564" lon="5.9147">
			<time>2026-08-07T15:48:57Z</time>
		</rtept>
		<rtept lat="52.8565" lon="5.9151">
			<time>2026-08-07T15:48:57Z</time>
		</rtept>
		<rtept lat="52.8565" lon="5.9153">
			<time>2026-08-07T15:48:57Z</time>
		</rtept>
		<rtept lat="52.8565" lon="5.9155">
			<time>2026-08-07T15:48:57Z</time>
		</rtept>
		<rtept lat="52.8565" lon="5.9157">
			<time>2026-08-07T15:48:57Z</time>
		</rtept>
		<rtept lat="52.8564" lon="5.916">
			<time>2026-08-07T15:48:57Z</time>
		</rtept>
		<rtept lat="52.8559" lon="5.9166">
			<time>2026-08-07T15:48:57Z</time>
		</rtept>
		<rtept lat="52.8516" lon="5.9212">
			<time>2026-08-07T15:48:57Z</time>
		</rtept>
		<rtept lat="52.849" lon="5.9239">
			<time>2026-08-07T15:48:57Z</time>
		</rtept>
		<rtept lat="52.8484" lon="5.9246">
			<time>2026-08-07T15:48:57Z</time>
		</rtept>
		<rtept lat="52.8476543442659" lon="5.9253953397274">
			<time>2026-08-07T15:48:57Z</time>
		</rtept>
		<rtept lat="52.8418" lon="5.9315">
			<time>2026-08-07T15:48:57Z</time>
		</rtept>
		<rtept lat="52.8412" lon="5.9321">
			<time>2026-08-07T15:48:57Z</time>
		</rtept>
		<rtept lat="52.8403" lon="5.9331">
			<time>2026-08-07T15:48:57Z</time>
		</rtept>
		<rtept lat="52.8399" lon="5.9336">
			<time>2026-08-07T15:48:57Z</time>
		</rtept>
		<rtept lat="52.8392" lon="5.9343">
			<time>2026-08-07T15:48:57Z</time>
		</rtept>
		<rtept lat="52.8387" lon="5.9347">
			<time>2026-08-07T15:48:57Z</time>
		</rtept>
		<rtept lat="52.8385" lon="5.9349">
			<time>2026-08-07T15:48:57Z</time>
		</rtept>
		<rtept lat="52.8383" lon="5.935">
			<time>2026-08-07T15:48:57Z</time>
		</rtept>
		<rtept lat="52.8381" lon="5.9351">
			<time>2026-08-07T15:48:57Z</time>
		</rtept>
		<rtept lat="52.83789934839924" lon="5.935127742802528">
			<time>2026-08-07T15:48:57Z</time>
		</rtept>
		<rtept lat="52.8377" lon="5.9351">
			<time>2026-08-07T15:48:57Z</time>
		</rtept>
		<rtept lat="52.8374" lon="5.935">
			<time>2026-08-07T15:48:57Z</time>
		</rtept>
		<rtept lat="52.8372" lon="5.9349">
			<time>2026-08-07T15:48:57Z</time>
		</rtept>
		<rtept lat="52.837" lon="5.9347">
			<time>2026-08-07T15:48:57Z</time>
		</rtept>
		<rtept lat="52.836812148624354" lon="5.93449205245305">
			<time>2026-08-07T15:48:57Z</time>
		</rtept>
		<rtept lat="52.83663715714612" lon="5.934188963118219">
			<time>2026-08-07T15:48:57Z</time>
		</rtept>
		<rtept lat="52.8365" lon="5.9339">
			<time>2026-08-07T15:48:57Z</time>
		</rtept>
		<rtept lat="52.835936576564244" lon="5.932463630466152">
			<time>2026-08-07T15:48:57Z</time>
		</rtept>
		<rtept lat="52.83580563418601" lon="5.932116619958744">
			<time>2026-08-07T15:48:57Z</time>
		</rtept>
		<rtept lat="52.83567469141301" lon="5.931769609451294">
			<time>2026-08-07T15:48:57Z</time>
		</rtept>
		<rtept lat="52.8352" lon="5.9306">
			<time>2026-08-07T15:48:57Z</time>
		</rtept>
		<rtept lat="52.8348" lon="5.9298">
			<time>2026-08-07T15:48:57Z</time>
		</rtept>
		<rtept lat="52.8343" lon="5.9286">
			<time>2026-08-07T15:48:57Z</time>
		</rtept>
		<rtept lat="52.8338" lon="5.9272">
			<time>2026-08-07T15:48:57Z</time>
		</rtept>
		<rtept lat="52.8337" lon="5.9269">
			<time>2026-08-07T15:48:57Z</time>
		</rtept>
		<rtept lat="52.8336" lon="5.9267">
			<time>2026-08-07T15:48:57Z</time>
		</rtept>
		<rtept lat="52.8334" lon="5.9264">
			<time>2026-08-07T15:48:57Z</time>
		</rtept>
		<rtept lat="52.8313" lon="5.9235">
			<time>2026-08-07T15:48:57Z</time>
		</rtept>
		<rtept lat="52.8309" lon="5.923">
			<time>2026-08-07T15:48:57Z</time>
		</rtept>
		<rtept lat="52.8307" lon="5.9228">
			<time>2026-08-07T15:48:57Z</time>
		</rtept>
		<rtept lat="52.8304" lon="5.9227">
			<time>2026-08-07T15:48:57Z</time>
		</rtept>
		<rtept lat="52.8302" lon="5.9227">
			<time>2026-08-07T15:48:57Z</time>
		</rtept>
		<rtept lat="52.83" lon="5.9227">
			<time>2026-08-07T15:48:57Z</time>
		</rtept>
		<rtept lat="52.82976818468496" lon="5.922811040993233">
			<time>2026-08-07T15:48:57Z</time>
		</rtept>
		<rtept lat="52.8291" lon="5.9234">
			<time>2026-08-07T15:48:57Z</time>
		</rtept>
		<rtept lat="52.8289" lon="5.9235">
			<time>2026-08-07T15:48:57Z</time>
		</rtept>
		<rtept lat="52.8287731549921" lon="5.923545962289092">
			<time>2026-08-07T15:48:57Z</time>
		</rtept>
		<rtept lat="52.8286" lon="5.9236">
			<time>2026-08-07T15:48:57Z</time>
		</rtept>
		<rtept lat="52.8285" lon="5.9236">
			<time>2026-08-07T15:48:57Z</time>
		</rtept>
		<rtept lat="52.8283" lon="5.9236">
			<time>2026-08-07T15:48:57Z</time>
		</rtept>
		<rtept lat="52.8281" lon="5.9235">
			<time>2026-08-07T15:48:57Z</time>
		</rtept>
		<rtept lat="52.8279" lon="5.9233">
			<time>2026-08-07T15:48:57Z</time>
		</rtept>
		<rtept lat="52.8276" lon="5.923">
			<time>2026-08-07T15:48:57Z</time>
		</rtept>
		<rtept lat="52.8274" lon="5.9229">
			<time>2026-08-07T15:48:57Z</time>
		</rtept>
		<rtept lat="52.8273" lon="5.9229">
			<time>2026-08-07T15:48:57Z</time>
		</rtept>
		<rtept lat="52.8271" lon="5.9229">
			<time>2026-08-07T15:48:57Z</time>
		</rtept>
		<rtept lat="52.8269" lon="5.9229">
			<time>2026-08-07T15:48:57Z</time>
		</rtept>
		<rtept lat="52.8265" lon="5.923">
			<time>2026-08-07T15:48:57Z</time>
		</rtept>
		<rtept lat="52.8258" lon="5.9234">
			<time>2026-08-07T15:48:57Z</time>
		</rtept>
		<rtept lat="52.8242" lon="5.9243">
			<time>2026-08-07T15:48:57Z</time>
		</rtept>
		<rtept lat="52.824" lon="5.9244">
			<time>2026-08-07T15:48:57Z</time>
		</rtept>
		<rtept lat="52.82381711395108" lon="5.92438548945268">
			<time>2026-08-07T15:48:57Z</time>
		</rtept>
		<rtept lat="52.82369069347649" lon="5.924326476596239">
			<time>2026-08-07T15:48:57Z</time>
		</rtept>
		<rtept lat="52.8235837220184" lon="5.9242379625632555">
			<time>2026-08-07T15:48:57Z</time>
		</rtept>
		<rtept lat="52.82348323343908" lon="5.924119947353691">
			<time>2026-08-07T15:48:57Z</time>
		</rtept>
		<rtept lat="52.82338922778355" lon="5.923934873228425">
			<time>2026-08-07T15:48:57Z</time>
		</rtept>
		<rtept lat="52.8233" lon="5.9237">
			<time>2026-08-07T15:48:57Z</time>
		</rtept>
		<rtept lat="52.8229" lon="5.9218">
			<time>2026-08-07T15:48:57Z</time>
		</rtept>
		<rtept lat="52.8228" lon="5.9215">
			<time>2026-08-07T15:48:57Z</time>
		</rtept>
		<rtept lat="52.8222" lon="5.92">
			<time>2026-08-07T15:48:57Z</time>
		</rtept>
		<rtept lat="52.8217" lon="5.9187">
			<time>2026-08-07T15:48:57Z</time>
		</rtept>
		<rtept lat="52.8213" lon="5.918">
			<time>2026-08-07T15:48:57Z</time>
		</rtept>
		<rtept lat="52.8201" lon="5.916">
			<time>2026-08-07T15:48:57Z</time>
		</rtept>
		<rtept lat="52.8193" lon="5.9148">
			<time>2026-08-07T15:48:57Z</time>
		</rtept>
		<rtept lat="52.8187" lon="5.9139">
			<time>2026-08-07T15:48:57Z</time>
		</rtept>
		<rtept lat="52.8184" lon="5.9136">
			<time>2026-08-07T15:48:57Z</time>
		</rtept>
		<rtept lat="52.818" lon="5.9133">
			<time>2026-08-07T15:48:57Z</time>
		</rtept>
		<rtept lat="52.8166" lon="5.9123">
			<time>2026-08-07T15:48:57Z</time>
		</rtept>
		<rtept lat="52.8159" lon="5.9118">
			<time>2026-08-07T15:48:57Z</time>
		</rtept>
		<rtept lat="52.81566548225013" lon="5.911663777204756">
			<time>2026-08-07T15:48:57Z</time>
		</rtept>
		<rtept lat="52.81544339413415" lon="5.911653014871653">
			<time>2026-08-07T15:48:57Z</time>
		</rtept>
		<rtept lat="52.81521644160242" lon="5.911741566943648">
			<time>2026-08-07T15:48:57Z</time>
		</rtept>
		<rtept lat="52.81501056220928" lon="5.911897125130938">
			<time>2026-08-07T15:48:57Z</time>
		</rtept>
		<rtept lat="52.814816029603236" lon="5.912095602352837">
			<time>2026-08-07T15:48:57Z</time>
		</rtept>
		<rtept lat="52.81388550326186" lon="5.913211401586885">
			<time>2026-08-07T15:48:57Z</time>
		</rtept>
		<rtept lat="52.81288038274415" lon="5.914281602132228">
			<time>2026-08-07T15:48:57Z</time>
		</rtept>
		<rtept lat="52.812384298567764" lon="5.9148931438004935">
			<time>2026-08-07T15:48:57Z</time>
		</rtept>
		<rtept lat="52.811565585176545" lon="5.915939190271056">
			<time>2026-08-07T15:48:57Z</time>
		</rtept>
		<rtept lat="52.8107388234406" lon="5.91706569056058">
			<time>2026-08-07T15:48:57Z</time>
		</rtept>
		<rtept lat="52.81053122819318" lon="5.9173446893692025">
			<time>2026-08-07T15:48:57Z</time>
		</rtept>
		<rtept lat="52.810025389485276" lon="5.918004512786865">
			<time>2026-08-07T15:48:57Z</time>
		</rtept>
		<rtept lat="52.80967843260955" lon="5.918559730052949">
			<time>2026-08-07T15:48:57Z</time>
		</rtept>
		<rtept lat="52.809070440752755" lon="5.919533371925354">
			<time>2026-08-07T15:48:57Z</time>
		</rtept>
		<rtept lat="52.808951273352235" lon="5.919721126556397">
			<time>2026-08-07T15:48:57Z</time>
		</rtept>
		<rtept lat="52.80883129495915" lon="5.919894129037858">
			<time>2026-08-07T15:48:57Z</time>
		</rtept>
		<rtept lat="52.80869591353696" lon="5.920073837041855">
			<time>2026-08-07T15:48:57Z</time>
		</rtept>
		<rtept lat="52.808575529103805" lon="5.920215994119645">
			<time>2026-08-07T15:48:57Z</time>
		</rtept>
		<rtept lat="52.80816330109562" lon="5.920641124248505">
			<time>2026-08-07T15:48:57Z</time>
		</rtept>
		<rtept lat="52.80785443153103" lon="5.920957624912263">
			<time>2026-08-07T15:48:57Z</time>
		</rtept>
		<rtept lat="52.80765824552373" lon="5.921131968498231">
			<time>2026-08-07T15:48:57Z</time>
		</rtept>
		<rtept lat="52.8074490875658" lon="5.921303629875184">
			<time>2026-08-07T15:48:57Z</time>
		</rtept>
		<rtept lat="52.80717507290449" lon="5.9214940667152405">
			<time>2026-08-07T15:48:57Z</time>
		</rtept>
		<rtept lat="52.8069918550374" lon="5.921684503555299">
			<time>2026-08-07T15:48:57Z</time>
		</rtept>
		<rtept lat="52.806811879212724" lon="5.9218910336494455">
			<time>2026-08-07T15:48:57Z</time>
		</rtept>
		<rtept lat="52.80616006863999" lon="5.922693014712643">
			<time>2026-08-07T15:48:57Z</time>
		</rtept>
		<rtept lat="52.80586820999248" lon="5.923084616661072">
			<time>2026-08-07T15:48:57Z</time>
		</rtept>
		<rtept lat="52.80532340194217" lon="5.923680067062379">
			<time>2026-08-07T15:48:57Z</time>
		</rtept>
		<rtept lat="52.8048" lon="5.9243">
			<time>2026-08-07T15:48:57Z</time>
		</rtept>
		<rtept lat="52.80393540772766" lon="5.9250855445861825">
			<time>2026-08-07T15:48:57Z</time>
		</rtept>
		<rtept lat="52.8031521426038" lon="5.92567105696701">
			<time>2026-08-07T15:48:57Z</time>
		</rtept>
		<rtept lat="52.8027" lon="5.9261">
			<time>2026-08-07T15:48:57Z</time>
		</rtept>
		<rtept lat="52.8024303261872" lon="5.92631463187448">
			<time>2026-08-07T15:48:57Z</time>
		</rtept>
		<rtept lat="52.8017809292057" lon="5.92684045484725">
			<time>2026-08-07T15:48:57Z</time>
		</rtept>
		<rtept lat="52.8010323796915" lon="5.92757565056152">
			<time>2026-08-07T15:48:57Z</time>
		</rtept>
		<rtept lat="52.800349300862464" lon="5.928181737921141">
			<time>2026-08-07T15:48:57Z</time>
		</rtept>
		<rtept lat="52.79966621130422" lon="5.92878782528076">
			<time>2026-08-07T15:48:57Z</time>
		</rtept>
		<rtept lat="52.798983111016774" lon="5.92939391264038">
			<time>2026-08-07T15:48:57Z</time>
		</rtept>
		<rtept lat="52.7983" lon="5.93">
			<time>2026-08-07T15:48:57Z</time>
		</rtept>
		<rtept lat="52.79794187732049" lon="5.930412411689758">
			<time>2026-08-07T15:48:57Z</time>
		</rtept>
		<rtept lat="52.7978072173587" lon="5.93053618913769">
			<time>2026-08-07T15:48:57Z</time>
		</rtept>
		<rtept lat="52.7969015124555" lon="5.9312778936581">
			<time>2026-08-07T15:48:57Z</time>
		</rtept>
		<rtept lat="52.7959246950776" lon="5.93213539307817">
			<time>2026-08-07T15:48:57Z</time>
		</rtept>
		<rtept lat="52.7949028931198" lon="5.93287292251509">
			<time>2026-08-07T15:48:57Z</time>
		</rtept>
		<rtept lat="52.7932" lon="5.9344">
			<time>2026-08-07T15:48:57Z</time>
		</rtept>
		<rtept lat="52.7919103067329" lon="5.93559604985043">
			<time>2026-08-07T15:48:57Z</time>
		</rtept>
		<rtept lat="52.7912504664465" lon="5.93624365979959">
			<time>2026-08-07T15:48:57Z</time>
		</rtept>
		<rtept lat="52.7900032063287" lon="5.93757394148329">
			<time>2026-08-07T15:48:57Z</time>
		</rtept>
		<rtept lat="52.78925498154918" lon="5.9385448694229135">
			<time>2026-08-07T15:48:57Z</time>
		</rtept>
		<rtept lat="52.78845691980896" lon="5.93938708305359">
			<time>2026-08-07T15:48:57Z</time>
		</rtept>
		<rtept lat="52.787610179762396" lon="5.940282940864564">
			<time>2026-08-07T15:48:57Z</time>
		</rtept>
		<rtept lat="52.7868062912666" lon="5.94109790941876">
			<time>2026-08-07T15:48:57Z</time>
		</rtept>
		<rtept lat="52.7860315140858" lon="5.94192068220334">
			<time>2026-08-07T15:48:57Z</time>
		</rtept>
		<rtept lat="52.78547748030358" lon="5.942656128329267">
			<time>2026-08-07T15:48:57Z</time>
		</rtept>
		<rtept lat="52.7853150754722" lon="5.94283540807629">
			<time>2026-08-07T15:48:57Z</time>
		</rtept>
		<rtept lat="52.7851360889284" lon="5.94294023391879">
			<time>2026-08-07T15:48:57Z</time>
		</rtept>
		<rtept lat="52.7847689718268" lon="5.94265397600754">
			<time>2026-08-07T15:48:57Z</time>
		</rtept>
		<rtept lat="52.784227607631" lon="5.94175537240368">
			<time>2026-08-07T15:48:57Z</time>
		</rtept>
		<rtept lat="52.7840417961962" lon="5.94156485247849">
			<time>2026-08-07T15:48:57Z</time>
		</rtept>
		<rtept lat="52.783852058012" lon="5.94147692391309">
			<time>2026-08-07T15:48:57Z</time>
		</rtept>
		<rtept lat="52.7836927419453" lon="5.94153763919652">
			<time>2026-08-07T15:48:57Z</time>
		</rtept>
		<rtept lat="52.7835295521476" lon="5.94168953116829">
			<time>2026-08-07T15:48:57Z</time>
		</rtept>
		<rtept lat="52.7834067470557" lon="5.94185122469995">
			<time>2026-08-07T15:48:57Z</time>
		</rtept>
		<rtept lat="52.78311436632682" lon="5.942332719079728">
			<time>2026-08-07T15:48:57Z</time>
		</rtept>
		<rtept lat="52.78282198363346" lon="5.942814213459453">
			<time>2026-08-07T15:48:57Z</time>
		</rtept>
		<rtept lat="52.78252959897564" lon="5.943295707839181">
			<time>2026-08-07T15:48:57Z</time>
		</rtept>
		<rtept lat="52.7822372123533" lon="5.9437772022189">
			<time>2026-08-07T15:48:57Z</time>
		</rtept>
		<rtept lat="52.78160278777143" lon="5.944524639985228">
			<time>2026-08-07T15:48:57Z</time>
		</rtept>
		<rtept lat="52.78110173494474" lon="5.945151150226594">
			<time>2026-08-07T15:48:57Z</time>
		</rtept>
		<rtept lat="52.780904211461376" lon="5.945398584008217">
			<time>2026-08-07T15:48:57Z</time>
		</rtept>
		<rtept lat="52.780849253536054" lon="5.945472680032253">
			<time>2026-08-07T15:48:57Z</time>
		</rtept>
		<rtept lat="52.78082177454737" lon="5.945509728044273">
			<time>2026-08-07T15:48:57Z</time>
		</rtept>
		<rtept lat="52.78079429554132" lon="5.945546776056291">
			<time>2026-08-07T15:48:57Z</time>
		</rtept>
		<rtept lat="52.780774725611316" lon="5.945575274527074">
			<time>2026-08-07T15:48:57Z</time>
		</rtept>
		<rtept lat="52.78075515567251" lon="5.945603772997857">
			<time>2026-08-07T15:48:57Z</time>
		</rtept>
		<rtept lat="52.78071601576851" lon="5.945660769939423">
			<time>2026-08-07T15:48:57Z</time>
		</rtept>
		<rtept lat="52.78063773585489" lon="5.945778787136079">
			<time>2026-08-07T15:48:57Z</time>
		</rtept>
		<rtept lat="52.7803310038205" lon="5.9462140597966">
			<time>2026-08-07T15:48:57Z</time>
		</rtept>
		<rtept lat="52.78004880680893" lon="5.946645140647889">
			<time>2026-08-07T15:48:57Z</time>
		</rtept>
		<rtept lat="52.779745416008396" lon="5.947068925698021">
			<time>2026-08-07T15:48:57Z</time>
		</rtept>
		<rtept lat="52.779235974291936" lon="5.94784140586853">
			<time>2026-08-07T15:48:57Z</time>
		</rtept>
		<rtept lat="52.779125648548714" lon="5.948131085009885">
			<time>2026-08-07T15:48:57Z</time>
		</rtept>
		<rtept lat="52.77908995486604" lon="5.94843149412279">
			<time>2026-08-07T15:48:57Z</time>
		</rtept>
		<rtept lat="52.77896178185508" lon="5.948701053857804">
			<time>2026-08-07T15:48:57Z</time>
		</rtept>
		<rtept lat="52.77890175132776" lon="5.948765426874162">
			<time>2026-08-07T15:48:57Z</time>
		</rtept>
		<rtept lat="52.77883766459235" lon="5.948802977800369">
			<time>2026-08-07T15:48:57Z</time>
		</rtept>
		<rtept lat="52.77876871040456" lon="5.948823083580811">
			<time>2026-08-07T15:48:57Z</time>
		</rtept>
		<rtept lat="52.778672985586304" lon="5.948817729949952">
			<time>2026-08-07T15:48:57Z</time>
		</rtept>
		<rtept lat="52.7785772605575" lon="5.948801636695862">
			<time>2026-08-07T15:48:57Z</time>
		</rtept>
		<rtept lat="52.778505061032085" lon="5.94878152012825">
			<time>2026-08-07T15:48:57Z</time>
		</rtept>
		<rtept lat="52.77845638712714" lon="5.948766767978669">
			<time>2026-08-07T15:48:57Z</time>
		</rtept>
		<rtept lat="52.7784012233024" lon="5.948737263679504">
			<time>2026-08-07T15:48:57Z</time>
		</rtept>
		<rtept lat="52.77826006849133" lon="5.948664844036103">
			<time>2026-08-07T15:48:57Z</time>
		</rtept>
		<rtept lat="52.77819516957398" lon="5.948638021945954">
			<time>2026-08-07T15:48:57Z</time>
		</rtept>
		<rtept lat="52.77813594922749" lon="5.948635330653006">
			<time>2026-08-07T15:48:57Z</time>
		</rtept>
		<rtept lat="52.7780888973879" lon="5.9486447274684915">
			<time>2026-08-07T15:48:57Z</time>
		</rtept>
		<rtept lat="52.77804346797725" lon="5.948679596185685">
			<time>2026-08-07T15:48:57Z</time>
		</rtept>
		<rtept lat="52.777989926111" lon="5.948741286993028">
			<time>2026-08-07T15:48:57Z</time>
		</rtept>
		<rtept lat="52.77794571345965" lon="5.948827117681504">
			<time>2026-08-07T15:48:57Z</time>
		</rtept>
		<rtept lat="52.77790312324848" lon="5.9489183127880105">
			<time>2026-08-07T15:48:57Z</time>
		</rtept>
		<rtept lat="52.77787756910177" lon="5.948989391326905">
			<time>2026-08-07T15:48:57Z</time>
		</rtept>
		<rtept lat="52.77785201494004" lon="5.949060469865799">
			<time>2026-08-07T15:48:57Z</time>
		</rtept>
		<rtept lat="52.777802529060374" lon="5.949205309152604">
			<time>2026-08-07T15:48:57Z</time>
		</rtept>
		<rtept lat="52.777710858347795" lon="5.949456095695496">
			<time>2026-08-07T15:48:57Z</time>
		</rtept>
		<rtept lat="52.77759079375964" lon="5.949724316596986">
			<time>2026-08-07T15:48:57Z</time>
		</rtept>
		<rtept lat="52.777246823105926" lon="5.950630902108527">
			<time>2026-08-07T15:48:57Z</time>
		</rtept>
		<rtept lat="52.7771523222814" lon="5.95100462282394">
			<time>2026-08-07T15:48:57Z</time>
		</rtept>
		<rtept lat="52.7771325134056" lon="5.9515402789707">
			<time>2026-08-07T15:48:57Z</time>
		</rtept>
		<rtept lat="52.77712026718134" lon="5.952036380767823">
			<time>2026-08-07T15:48:57Z</time>
		</rtept>
		<rtept lat="52.7770517955519" lon="5.95252553919395">
			<time>2026-08-07T15:48:57Z</time>
		</rtept>
		<rtept lat="52.7767783122042" lon="5.95333157885048">
			<time>2026-08-07T15:48:57Z</time>
		</rtept>
		<rtept lat="52.7765327346259" lon="5.95408666472764">
			<time>2026-08-07T15:48:57Z</time>
		</rtept>
		<rtept lat="52.77614188011531" lon="5.955045819282533">
			<time>2026-08-07T15:48:57Z</time>
		</rtept>
		<rtept lat="52.77600720820027" lon="5.9556372463703156">
			<time>2026-08-07T15:48:57Z</time>
		</rtept>
		<rtept lat="52.77596177661686" lon="5.956091879662849">
			<time>2026-08-07T15:48:57Z</time>
		</rtept>
		<rtept lat="52.77586766818611" lon="5.956521034240723">
			<time>2026-08-07T15:48:57Z</time>
		</rtept>
		<rtept lat="52.77576057903464" lon="5.956966281504942">
			<time>2026-08-07T15:48:57Z</time>
		</rtept>
		<rtept lat="52.77565997989478" lon="5.957298870880821">
			<time>2026-08-07T15:48:57Z</time>
		</rtept>
		<rtept lat="52.7754587809176" lon="5.957669016860368">
			<time>2026-08-07T15:48:57Z</time>
		</rtept>
		<rtept lat="52.7752060549428" lon="5.95802062342404">
			<time>2026-08-07T15:48:57Z</time>
		</rtept>
		<rtept lat="52.7746167981766" lon="5.95893042681032">
			<time>2026-08-07T15:48:57Z</time>
		</rtept>
		<rtept lat="52.7744830148629" lon="5.95906199326101">
			<time>2026-08-07T15:48:57Z</time>
		</rtept>
		<rtept lat="52.7743135937209" lon="5.95918916833458">
			<time>2026-08-07T15:48:57Z</time>
		</rtept>
		<rtept lat="52.7740697095393" lon="5.95947219510422">
			<time>2026-08-07T15:48:57Z</time>
		</rtept>
		<rtept lat="52.7739119510532" lon="5.95964658193355">
			<time>2026-08-07T15:48:57Z</time>
		</rtept>
		<rtept lat="52.7737992057624" lon="5.95985290912703">
			<time>2026-08-07T15:48:57Z</time>
		</rtept>
		<rtept lat="52.7735876545475" lon="5.96033630590732">
			<time>2026-08-07T15:48:57Z</time>
		</rtept>
		<rtept lat="52.7734141391324" lon="5.96082019436505">
			<time>2026-08-07T15:48:57Z</time>
		</rtept>
		<rtept lat="52.773364401812" lon="5.96127434054006">
			<time>2026-08-07T15:48:57Z</time>
		</rtept>
		<rtept lat="52.7733158565884" lon="5.96197550287391">
			<time>2026-08-07T15:48:57Z</time>
		</rtept>
		<rtept lat="52.773229590436" lon="5.96260950375146">
			<time>2026-08-07T15:48:57Z</time>
		</rtept>
		<rtept lat="52.773139408351" lon="5.96306704300888">
			<time>2026-08-07T15:48:57Z</time>
		</rtept>
		<rtept lat="52.7728984060076" lon="5.96373821816595">
			<time>2026-08-07T15:48:57Z</time>
		</rtept>
		<rtept lat="52.77251208290139" lon="5.964583754539491">
			<time>2026-08-07T15:48:57Z</time>
		</rtept>
		<rtept lat="52.77238226782894" lon="5.964956581592561">
			<time>2026-08-07T15:48:57Z</time>
		</rtept>
		<rtept lat="52.77231898284079" lon="5.965195298194886">
			<time>2026-08-07T15:48:57Z</time>
		</rtept>
		<rtept lat="52.772267056627925" lon="5.965447425842286">
			<time>2026-08-07T15:48:57Z</time>
		</rtept>
		<rtept lat="52.772221621140886" lon="5.965737104415894">
			<time>2026-08-07T15:48:57Z</time>
		</rtept>
		<rtept lat="52.772198903379575" lon="5.9659597277641305">
			<time>2026-08-07T15:48:57Z</time>
		</rtept>
		<rtept lat="52.77219403528632" lon="5.966179668903352">
			<time>2026-08-07T15:48:57Z</time>
		</rtept>
		<rtept lat="52.7722118849589" lon="5.966375470161439">
			<time>2026-08-07T15:48:57Z</time>
		</rtept>
		<rtept lat="52.7722524523694" lon="5.9665605425834665">
			<time>2026-08-07T15:48:57Z</time>
		</rtept>
		<rtept lat="52.7723011332121" lon="5.966737568378449">
			<time>2026-08-07T15:48:57Z</time>
		</rtept>
		<rtept lat="52.77238389051975" lon="5.966965556144715">
			<time>2026-08-07T15:48:57Z</time>
		</rtept>
		<rtept lat="52.77248125185674" lon="5.967155992984773">
			<time>2026-08-07T15:48:57Z</time>
		</rtept>
		<rtept lat="52.77260133053915" lon="5.96735179424286">
			<time>2026-08-07T15:48:57Z</time>
		</rtept>
		<rtept lat="52.77307716760157" lon="5.968004804920711">
			<time>2026-08-07T15:48:57Z</time>
		</rtept>
		<rtept lat="52.7735" lon="5.9686">
			<time>2026-08-07T15:48:57Z</time>
		</rtept>
		<rtept lat="52.77386258398417" lon="5.969115439951095">
			<time>2026-08-07T15:48:57Z</time>
		</rtept>
		<rtept lat="52.774225164948284" lon="5.969630879902176">
			<time>2026-08-07T15:48:57Z</time>
		</rtept>
		<rtept lat="52.774849378401" lon="5.97062456983679">
			<time>2026-08-07T15:48:57Z</time>
		</rtept>
		<rtept lat="52.775155358120614" lon="5.971144437789918">
			<time>2026-08-07T15:48:57Z</time>
		</rtept>
		<rtept lat="52.7753929633678" lon="5.97156536471274">
			<time>2026-08-07T15:48:57Z</time>
		</rtept>
		<rtept lat="52.77589708384668" lon="5.972305610767329">
			<time>2026-08-07T15:48:57Z</time>
		</rtept>
		<rtept lat="52.7764011984871" lon="5.97304585682191">
			<time>2026-08-07T15:48:57Z</time>
		</rtept>
		<rtept lat="52.77676708093368" lon="5.973569409680969">
			<time>2026-08-07T15:48:57Z</time>
		</rtept>
		<rtept lat="52.7771329603047" lon="5.97409296254001">
			<time>2026-08-07T15:48:57Z</time>
		</rtept>
		<rtept lat="52.7773914428755" lon="5.97452617677437">
			<time>2026-08-07T15:48:57Z</time>
		</rtept>
		<rtept lat="52.77768060905076" lon="5.9751154151602055">
			<time>2026-08-07T15:48:57Z</time>
		</rtept>
		<rtept lat="52.7779697733049" lon="5.97570465354606">
			<time>2026-08-07T15:48:57Z</time>
		</rtept>
		<rtept lat="52.77824136355899" lon="5.976212162864498">
			<time>2026-08-07T15:48:57Z</time>
		</rtept>
		<rtept lat="52.7785129521184" lon="5.97671967218295">
			<time>2026-08-07T15:48:57Z</time>
		</rtept>
		<rtept lat="52.77878015479542" lon="5.977204905199358">
			<time>2026-08-07T15:48:57Z</time>
		</rtept>
		<rtept lat="52.779047355832" lon="5.97769013821577">
			<time>2026-08-07T15:48:57Z</time>
		</rtept>
		<rtept lat="52.77914409882238" lon="5.977892760333888">
			<time>2026-08-07T15:48:57Z</time>
		</rtept>
		<rtept lat="52.77924084159769" lon="5.978095382452011">
			<time>2026-08-07T15:48:57Z</time>
		</rtept>
		<rtept lat="52.779292353883626" lon="5.9782080352306375">
			<time>2026-08-07T15:48:57Z</time>
		</rtept>
		<rtept lat="52.7793438661086" lon="5.978320688009263">
			<time>2026-08-07T15:48:57Z</time>
		</rtept>
		<rtept lat="52.77940589523967" lon="5.978457810361016">
			<time>2026-08-07T15:48:57Z</time>
		</rtept>
		<rtept lat="52.77946792428232" lon="5.978594932712769">
			<time>2026-08-07T15:48:57Z</time>
		</rtept>
		<rtept lat="52.77958641891535" lon="5.978857129812241">
			<time>2026-08-07T15:48:57Z</time>
		</rtept>
		<rtept lat="52.77985436289835" lon="5.979412729503497">
			<time>2026-08-07T15:48:57Z</time>
		</rtept>
		<rtept lat="52.7801233619285" lon="5.97998692659939">
			<time>2026-08-07T15:48:57Z</time>
		</rtept>
		<rtept lat="52.7803982498472" lon="5.98073165580553">
			<time>2026-08-07T15:48:57Z</time>
		</rtept>
		<rtept lat="52.7802879154243" lon="5.98123405922406">
			<time>2026-08-07T15:48:57Z</time>
		</rtept>
		<rtept lat="52.7800260703435" lon="5.9814824653583">
			<time>2026-08-07T15:48:57Z</time>
		</rtept>
		<rtept lat="52.77585797047" lon="5.98295245896787">
			<time>2026-08-07T15:48:57Z</time>
		</rtept>
		<rtept lat="52.7750301530624" lon="5.98316351881992">
			<time>2026-08-07T15:48:57Z</time>
		</rtept>
		<rtept lat="52.7741199088208" lon="5.98368463755094">
			<time>2026-08-07T15:48:57Z</time>
		</rtept>
		<rtept lat="52.7724596785369" lon="5.98502534400195">
			<time>2026-08-07T15:48:57Z</time>
		</rtept>
		<rtept lat="52.77057130720232" lon="5.986626148223878">
			<time>2026-08-07T15:48:57Z</time>
		</rtept>
		<rtept lat="52.7690671338781" lon="5.98773510277838">
			<time>2026-08-07T15:48:57Z</time>
		</rtept>
		<rtept lat="52.7673611051308" lon="5.98923785275217">
			<time>2026-08-07T15:48:57Z</time>
		</rtept>
		<rtept lat="52.7660158427145" lon="5.99047875794713">
			<time>2026-08-07T15:48:57Z</time>
		</rtept>
		<rtept lat="52.7650962040651" lon="5.99107356671574">
			<time>2026-08-07T15:48:57Z</time>
		</rtept>
		<rtept lat="52.7644646384457" lon="5.99156860538901">
			<time>2026-08-07T15:48:57Z</time>
		</rtept>
		<rtept lat="52.7638792750536" lon="5.99181241259419">
			<time>2026-08-07T15:48:57Z</time>
		</rtept>
		<rtept lat="52.762986482116446" lon="5.99242974351606">
			<time>2026-08-07T15:48:57Z</time>
		</rtept>
		<rtept lat="52.7620936708756" lon="5.99304707443794">
			<time>2026-08-07T15:48:57Z</time>
		</rtept>
		<rtept lat="52.7608111184994" lon="5.99431820875344">
			<time>2026-08-07T15:48:57Z</time>
		</rtept>
		<rtept lat="52.760051316979116" lon="5.99478006362915">
			<time>2026-08-07T15:48:57Z</time>
		</rtept>
		<rtept lat="52.7592435632495" lon="5.99508167365301">
			<time>2026-08-07T15:48:57Z</time>
		</rtept>
		<rtept lat="52.758171668234915" lon="5.995262861251832">
			<time>2026-08-07T15:48:57Z</time>
		</rtept>
		<rtept lat="52.757121961809" lon="5.99523010020837">
			<time>2026-08-07T15:48:57Z</time>
		</rtept>
		<rtept lat="52.7563851091024" lon="5.99521991326371">
			<time>2026-08-07T15:48:57Z</time>
		</rtept>
		<rtept lat="52.755689609236114" lon="5.995360075006678">
			<time>2026-08-07T15:48:57Z</time>
		</rtept>
		<rtept lat="52.754994098264866" lon="5.995500236749649">
			<time>2026-08-07T15:48:57Z</time>
		</rtept>
		<rtept lat="52.7545062821978" lon="5.99554181098938">
			<time>2026-08-07T15:48:57Z</time>
		</rtept>
		<rtept lat="52.7539755761267" lon="5.995438400539">
			<time>2026-08-07T15:48:57Z</time>
		</rtept>
		<rtept lat="52.7536265536383" lon="5.99515215706398">
			<time>2026-08-07T15:48:57Z</time>
		</rtept>
		<rtept lat="52.7534572507934" lon="5.99486840105237">
			<time>2026-08-07T15:48:57Z</time>
		</rtept>
		<rtept lat="52.753197032842" lon="5.99479074966356">
			<time>2026-08-07T15:48:57Z</time>
		</rtept>
		<rtept lat="52.75207077657468" lon="5.994887330588946">
			<time>2026-08-07T15:48:57Z</time>
		</rtept>
		<rtept lat="52.75094449119056" lon="5.994983911514283">
			<time>2026-08-07T15:48:57Z</time>
		</rtept>
		<rtept lat="52.7495747611386" lon="5.99491843852185">
			<time>2026-08-07T15:48:57Z</time>
		</rtept>
		<rtept lat="52.748869621825854" lon="5.9949249029159555">
			<time>2026-08-07T15:48:57Z</time>
		</rtept>
		<rtept lat="52.7481912888962" lon="5.99482527859819">
			<time>2026-08-07T15:48:57Z</time>
		</rtept>
		<rtept lat="52.74802876983178" lon="5.994819657323633">
			<time>2026-08-07T15:48:57Z</time>
		</rtept>
		<rtept lat="52.747866250161174" lon="5.994814036049108">
			<time>2026-08-07T15:48:57Z</time>
		</rtept>
		<rtept lat="52.7475412090014" lon="5.9948027935">
			<time>2026-08-07T15:48:57Z</time>
		</rtept>
		<rtept lat="52.7471460198823" lon="5.99488768654809">
			<time>2026-08-07T15:48:57Z</time>
		</rtept>
		<rtept lat="52.7468048270394" lon="5.99513595783638">
			<time>2026-08-07T15:48:57Z</time>
		</rtept>
		<rtept lat="52.74623611638508" lon="5.995638370513917">
			<time>2026-08-07T15:48:57Z</time>
		</rtept>
		<rtept lat="52.7456326658911" lon="5.99598709289365">
			<time>2026-08-07T15:48:57Z</time>
		</rtept>
		<rtept lat="52.74507030914546" lon="5.9963250160217285">
			<time>2026-08-07T15:48:57Z</time>
		</rtept>
		<rtept lat="52.7444995718058" lon="5.996506065130234">
			<time>2026-08-07T15:48:57Z</time>
		</rtept>
		<rtept lat="52.74405060816206" lon="5.99655568599701">
			<time>2026-08-07T15:48:57Z</time>
		</rtept>
		<rtept lat="52.7435995850227" lon="5.99649440535277">
			<time>2026-08-07T15:48:57Z</time>
		</rtept>
		<rtept lat="52.7433168999217" lon="5.99638870080423">
			<time>2026-08-07T15:48:57Z</time>
		</rtept>
		<rtept lat="52.7431160750689" lon="5.99614712832351">
			<time>2026-08-07T15:48:57Z</time>
		</rtept>
		<rtept lat="52.7426852667431" lon="5.99553073176413">
			<time>2026-08-07T15:48:57Z</time>
		</rtept>
		<rtept lat="52.7421310749532" lon="5.99453836759136">
			<time>2026-08-07T15:48:57Z</time>
		</rtept>
		<rtept lat="52.7415272327704" lon="5.993793010711671">
			<time>2026-08-07T15:48:57Z</time>
		</rtept>
		<rtept lat="52.741173234060334" lon="5.993438959121705">
			<time>2026-08-07T15:48:57Z</time>
		</rtept>
		<rtept lat="52.7408225442418" lon="5.99299108747146">
			<time>2026-08-07T15:48:57Z</time>
		</rtept>
		<rtept lat="52.74015668967105" lon="5.993133187294007">
			<time>2026-08-07T15:48:57Z</time>
		</rtept>
		<rtept lat="52.7394904293692" lon="5.99340214120668">
			<time>2026-08-07T15:48:57Z</time>
		</rtept>
		<rtept lat="52.7383664766236" lon="5.99413410828527">
			<time>2026-08-07T15:48:57Z</time>
		</rtept>
		<rtept lat="52.7376559403249" lon="5.99477469332731">
			<time>2026-08-07T15:48:57Z</time>
		</rtept>
		<rtept lat="52.736493035880784" lon="5.996341109275819">
			<time>2026-08-07T15:48:57Z</time>
		</rtept>
		<rtept lat="52.736012320864084" lon="5.997038483619691">
			<time>2026-08-07T15:48:57Z</time>
		</rtept>
		<rtept lat="52.735421164048496" lon="5.99780559539795">
			<time>2026-08-07T15:48:57Z</time>
		</rtept>
		<rtept lat="52.7346416043431" lon="5.999103784561158">
			<time>2026-08-07T15:48:57Z</time>
		</rtept>
		<rtept lat="52.73375808649068" lon="6.000080108642578">
			<time>2026-08-07T15:48:57Z</time>
		</rtept>
		<rtept lat="52.732997986950664" lon="6.001077890396119">
			<time>2026-08-07T15:48:57Z</time>
		</rtept>
		<rtept lat="52.73230284158123" lon="6.002300977706909">
			<time>2026-08-07T15:48:57Z</time>
		</rtept>
		<rtept lat="52.7305" lon="6.0046">
			<time>2026-08-07T15:48:57Z</time>
		</rtept>
		<rtept lat="52.729957456262106" lon="6.0052353143692025">
			<time>2026-08-07T15:48:57Z</time>
		</rtept>
		<rtept lat="52.72948641491067" lon="6.005927324295045">
			<time>2026-08-07T15:48:57Z</time>
		</rtept>
		<rtept lat="52.728625533084994" lon="6.007091403007508">
			<time>2026-08-07T15:48:57Z</time>
		</rtept>
		<rtept lat="52.72815772602185" lon="6.007861196994782">
			<time>2026-08-07T15:48:57Z</time>
		</rtept>
		<rtept lat="52.72764118322584" lon="6.008437871932984">
			<time>2026-08-07T15:48:57Z</time>
		</rtept>
		<rtept lat="52.72642614648629" lon="6.01004183292389">
			<time>2026-08-07T15:48:57Z</time>
		</rtept>
		<rtept lat="52.725227320372625" lon="6.0115545988082895">
			<time>2026-08-07T15:48:57Z</time>
		</rtept>
		<rtept lat="52.72435335861397" lon="6.012611389160157">
			<time>2026-08-07T15:48:57Z</time>
		</rtept>
		<rtept lat="52.723875758727736" lon="6.012895703315736">
			<time>2026-08-07T15:48:57Z</time>
		</rtept>
		<rtept lat="52.7235" lon="6.0134">
			<time>2026-08-07T15:48:57Z</time>
		</rtept>
		<rtept lat="52.7226941587456" lon="6.01430670345448">
			<time>2026-08-07T15:48:57Z</time>
		</rtept>
		<rtept lat="52.7225949232542" lon="6.01437929486302">
			<time>2026-08-07T15:48:57Z</time>
		</rtept>
		<rtept lat="52.7218725372578" lon="6.01503503766264">
			<time>2026-08-07T15:48:57Z</time>
		</rtept>
		<rtept lat="52.7199637913657" lon="6.016345024108888">
			<time>2026-08-07T15:48:57Z</time>
		</rtept>
		<rtept lat="52.7194" lon="6.0167">
			<time>2026-08-07T15:48:57Z</time>
		</rtept>
		<rtept lat="52.71893537957459" lon="6.016908288002015">
			<time>2026-08-07T15:48:57Z</time>
		</rtept>
		<rtept lat="52.7181192758433" lon="6.01783782034795">
			<time>2026-08-07T15:48:57Z</time>
		</rtept>
		<rtept lat="52.717799711841295" lon="6.018083095550538">
			<time>2026-08-07T15:48:57Z</time>
		</rtept>
		<rtept lat="52.71744227095778" lon="6.018147468566895">
			<time>2026-08-07T15:48:57Z</time>
		</rtept>
		<rtept lat="52.71669488510008" lon="6.017954349517823">
			<time>2026-08-07T15:48:57Z</time>
		</rtept>
		<rtept lat="52.7160187183399" lon="6.01739336972867">
			<time>2026-08-07T15:48:57Z</time>
		</rtept>
		<rtept lat="52.7152648234526" lon="6.01720499781418">
			<time>2026-08-07T15:48:57Z</time>
		</rtept>
		<rtept lat="52.7136935052379" lon="6.01694574923357">
			<time>2026-08-07T15:48:57Z</time>
		</rtept>
		<rtept lat="52.71320474858377" lon="6.016787588596344">
			<time>2026-08-07T15:48:57Z</time>
		</rtept>
		<rtept lat="52.7127059703892" lon="6.01675405498342">
			<time>2026-08-07T15:48:57Z</time>
		</rtept>
		<rtept lat="52.712491517498336" lon="6.017372485419919">
			<time>2026-08-07T15:48:57Z</time>
		</rtept>
		<rtept lat="52.7122770635533" lon="6.0179909158564">
			<time>2026-08-07T15:48:57Z</time>
		</rtept>
		<rtept lat="52.7119651981731" lon="6.019185040256">
			<time>2026-08-07T15:48:57Z</time>
		</rtept>
		<rtept lat="52.7117628014706" lon="6.02006997724112">
			<time>2026-08-07T15:48:57Z</time>
		</rtept>
		<rtept lat="52.7113870695179" lon="6.02144072045139">
			<time>2026-08-07T15:48:57Z</time>
		</rtept>
		<rtept lat="52.7111934060499" lon="6.02237015308178">
			<time>2026-08-07T15:48:57Z</time>
		</rtept>
		<rtept lat="52.710928161852" lon="6.0232393553633">
			<time>2026-08-07T15:48:57Z</time>
		</rtept>
		<rtept lat="52.7107337738667" lon="6.02430193322953">
			<time>2026-08-07T15:48:57Z</time>
		</rtept>
		<rtept lat="52.7103861382204" lon="6.02545106256344">
			<time>2026-08-07T15:48:57Z</time>
		</rtept>
		<rtept lat="52.709955080071" lon="6.02707245902577">
			<time>2026-08-07T15:48:57Z</time>
		</rtept>
		<rtept lat="52.7096968020154" lon="6.02831162712282">
			<time>2026-08-07T15:48:57Z</time>
		</rtept>
		<rtept lat="52.7095" lon="6.029">
			<time>2026-08-07T15:48:57Z</time>
		</rtept>
		<rtept lat="52.7091838741934" lon="6.03010933385521">
			<time>2026-08-07T15:48:57Z</time>
		</rtept>
		<rtept lat="52.7086384885188" lon="6.03125548560194">
			<time>2026-08-07T15:48:57Z</time>
		</rtept>
		<rtept lat="52.7078779052225" lon="6.03230968012902">
			<time>2026-08-07T15:48:57Z</time>
		</rtept>
		<rtept lat="52.7069425706322" lon="6.0341010624274">
			<time>2026-08-07T15:48:57Z</time>
		</rtept>
		<rtept lat="52.7064622167356" lon="6.03484858260546">
			<time>2026-08-07T15:48:57Z</time>
		</rtept>
		<rtept lat="52.7061" lon="6.0363">
			<time>2026-08-07T15:48:57Z</time>
		</rtept>
		<rtept lat="52.705261535016845" lon="6.039830446243287">
			<time>2026-08-07T15:48:57Z</time>
		</rtept>
		<rtept lat="52.70380046330137" lon="6.044408977031709">
			<time>2026-08-07T15:48:57Z</time>
		</rtept>
		<rtept lat="52.70245311355146" lon="6.049078702926637">
			<time>2026-08-07T15:48:57Z</time>
		</rtept>
		<rtept lat="52.701796488948204" lon="6.051256656646729">
			<time>2026-08-07T15:48:57Z</time>
		</rtept>
		<rtept lat="52.700990322460434" lon="6.053895950317384">
			<time>2026-08-07T15:48:57Z</time>
		</rtept>
		<rtept lat="52.69964451135625" lon="6.0583698749542245">
			<time>2026-08-07T15:48:57Z</time>
		</rtept>
		<rtept lat="52.69827915334003" lon="6.0631548373695985">
			<time>2026-08-07T15:48:57Z</time>
		</rtept>
		<rtept lat="52.69679671627973" lon="6.0676395287144835">
			<time>2026-08-07T15:48:57Z</time>
		</rtept>
		<rtept lat="52.695128977034" lon="6.07203130764909">
			<time>2026-08-07T15:48:57Z</time>
		</rtept>
		<rtept lat="52.694802082458" lon="6.07261789550434">
			<time>2026-08-07T15:48:57Z</time>
		</rtept>
		<rtept lat="52.694188055689" lon="6.07312604634593">
			<time>2026-08-07T15:48:57Z</time>
		</rtept>
		<rtept lat="52.6938250412335" lon="6.07374163362465">
			<time>2026-08-07T15:48:57Z</time>
		</rtept>
		<rtept lat="52.6943986181625" lon="6.0740168201081">
			<time>2026-08-07T15:48:57Z</time>
		</rtept>
		<rtept lat="52.69496152738121" lon="6.073803715834823">
			<time>2026-08-07T15:48:57Z</time>
		</rtept>
		<rtept lat="52.6955244293417" lon="6.07359061156153">
			<time>2026-08-07T15:48:57Z</time>
		</rtept>
		<rtept lat="52.69703798097542" lon="6.072941112737632">
			<time>2026-08-07T15:48:57Z</time>
		</rtept>
		<rtept lat="52.6985514801318" lon="6.07229161391376">
			<time>2026-08-07T15:48:57Z</time>
		</rtept>
		<rtept lat="52.6997990364261" lon="6.071793232517396">
			<time>2026-08-07T15:48:57Z</time>
		</rtept>
		<rtept lat="52.7010465570635" lon="6.07129485112109">
			<time>2026-08-07T15:48:57Z</time>
		</rtept>
		<rtept lat="52.7021351411673" lon="6.07108984457317">
			<time>2026-08-07T15:48:57Z</time>
		</rtept>
		<rtept lat="52.7024" lon="6.0711">
			<time>2026-08-07T15:48:57Z</time>
		</rtept>
		<rtept lat="52.703812600528714" lon="6.07122247852261">
			<time>2026-08-07T15:48:57Z</time>
		</rtept>
		<rtept lat="52.7052251553356" lon="6.07134495704518">
			<time>2026-08-07T15:48:57Z</time>
		</rtept>
		<rtept lat="52.70653154126682" lon="6.071557599840945">
			<time>2026-08-07T15:48:57Z</time>
		</rtept>
		<rtept lat="52.7078378880895" lon="6.07177024263673">
			<time>2026-08-07T15:48:57Z</time>
		</rtept>
		<rtept lat="52.7079633532324" lon="6.07183137747719">
			<time>2026-08-07T15:48:57Z</time>
		</rtept>
		<rtept lat="52.7085457482243" lon="6.07213635814461">
			<time>2026-08-07T15:48:57Z</time>
		</rtept>
		<rtept lat="52.7095645494496" lon="6.07312878514657">
			<time>2026-08-07T15:48:57Z</time>
		</rtept>
		<rtept lat="52.7101215968211" lon="6.07372628862441">
			<time>2026-08-07T15:48:57Z</time>
		</rtept>
		<rtept lat="52.7106129451828" lon="6.07418519925745">
			<time>2026-08-07T15:48:57Z</time>
		</rtept>
		<rtept lat="52.7111212444023" lon="6.07463882104888">
			<time>2026-08-07T15:48:57Z</time>
		</rtept>
		<rtept lat="52.711703319049654" lon="6.075010299682618">
			<time>2026-08-07T15:48:57Z</time>
		</rtept>
		<rtept lat="52.71243129133728" lon="6.075310707092286">
			<time>2026-08-07T15:48:57Z</time>
		</rtept>
		<rtept lat="52.71313325311093" lon="6.075546741485597">
			<time>2026-08-07T15:48:57Z</time>
		</rtept>
		<rtept lat="52.71382870410051" lon="6.0758739709854135">
			<time>2026-08-07T15:48:57Z</time>
		</rtept>
		<rtept lat="52.71392375904044" lon="6.075911521911621">
			<time>2026-08-07T15:48:57Z</time>
		</rtept>
		<rtept lat="52.71401881377327" lon="6.0759490728378305">
			<time>2026-08-07T15:48:57Z</time>
		</rtept>
		<rtept lat="52.714113868298995" lon="6.075986623764039">
			<time>2026-08-07T15:48:57Z</time>
		</rtept>
		<rtept lat="52.714208922617594" lon="6.076024174690247">
			<time>2026-08-07T15:48:57Z</time>
		</rtept>
		<rtept lat="52.7143039767291" lon="6.076061725616456">
			<time>2026-08-07T15:48:57Z</time>
		</rtept>
		<rtept lat="52.714399030633466" lon="6.0760992765426645">
			<time>2026-08-07T15:48:57Z</time>
		</rtept>
		<rtept lat="52.71449408433074" lon="6.076136827468873">
			<time>2026-08-07T15:48:57Z</time>
		</rtept>
		<rtept lat="52.714589137820894" lon="6.076174378395081">
			<time>2026-08-07T15:48:57Z</time>
		</rtept>
		<rtept lat="52.71464986633115" lon="6.0761970095336455">
			<time>2026-08-07T15:48:57Z</time>
		</rtept>
		<rtept lat="52.71471059475691" lon="6.076219640672208">
			<time>2026-08-07T15:48:57Z</time>
		</rtept>
		<rtept lat="52.71477132309811" lon="6.076242271810771">
			<time>2026-08-07T15:48:57Z</time>
		</rtept>
		<rtept lat="52.71483205135479" lon="6.076264902949333">
			<time>2026-08-07T15:48:57Z</time>
		</rtept>
		<rtept lat="52.71489277952691" lon="6.076287534087897">
			<time>2026-08-07T15:48:57Z</time>
		</rtept>
		<rtept lat="52.71495350761451" lon="6.07631016522646">
			<time>2026-08-07T15:48:57Z</time>
		</rtept>
		<rtept lat="52.71501423561759" lon="6.0763327963650235">
			<time>2026-08-07T15:48:57Z</time>
		</rtept>
		<rtept lat="52.71507496353608" lon="6.076355427503587">
			<time>2026-08-07T15:48:57Z</time>
		</rtept>
		<rtept lat="52.7151356913701" lon="6.07637805864215">
			<time>2026-08-07T15:48:57Z</time>
		</rtept>
		<rtept lat="52.715196419119515" lon="6.076400689780713">
			<time>2026-08-07T15:48:57Z</time>
		</rtept>
		<rtept lat="52.71525714678443" lon="6.076423320919276">
			<time>2026-08-07T15:48:57Z</time>
		</rtept>
		<rtept lat="52.71531787436477" lon="6.076445952057839">
			<time>2026-08-07T15:48:57Z</time>
		</rtept>
		<rtept lat="52.71537860186061" lon="6.0764685831964025">
			<time>2026-08-07T15:48:57Z</time>
		</rtept>
		<rtept lat="52.715439329271895" lon="6.076491214334965">
			<time>2026-08-07T15:48:57Z</time>
		</rtept>
		<rtept lat="52.715560783840836" lon="6.076536476612092">
			<time>2026-08-07T15:48:57Z</time>
		</rtept>
		<rtept lat="52.71653240821914" lon="6.0768985748291025">
			<time>2026-08-07T15:48:57Z</time>
		</rtept>
		<rtept lat="52.71701983704647" lon="6.077051460742951">
			<time>2026-08-07T15:48:57Z</time>
		</rtept>
		<rtept lat="52.717440748746" lon="6.07715851405205">
			<time>2026-08-07T15:48:57Z</time>
		</rtept>
		<rtept lat="52.7179793956877" lon="6.07725575244146">
			<time>2026-08-07T15:48:57Z</time>
		</rtept>
		<rtept lat="52.7188947852855" lon="6.07727875798484">
			<time>2026-08-07T15:48:57Z</time>
		</rtept>
		<rtept lat="52.71988905767658" lon="6.077284814981684">
			<time>2026-08-07T15:48:57Z</time>
		</rtept>
		<rtept lat="52.71990530414165" lon="6.076491099014933">
			<time>2026-08-07T15:48:57Z</time>
		</rtept>
		<rtept lat="52.71991505201777" lon="6.07605127289133">
			<time>2026-08-07T15:48:57Z</time>
		</rtept>
		<rtept lat="52.72008076557859" lon="6.075793503345342">
			<time>2026-08-07T15:48:57Z</time>
		</rtept>
		<rtept lat="52.720191240935996" lon="6.075659720366686">
			<time>2026-08-07T15:48:57Z</time>
		</rtept>
		<rtept lat="52.720464178854655" lon="6.07525705400939">
			<time>2026-08-07T15:48:57Z</time>
		</rtept>
		<rtept lat="52.72045443110128" lon="6.074624519856254">
			<time>2026-08-07T15:48:57Z</time>
		</rtept>
	</rte>
</gpx>
