<?xml version="1.0" encoding="UTF-8"?>
<gpx xmlns:xsi="http://www.w3.org/2001/XMLSchema-instance" xmlns="http://www.topografix.com/GPX/1/1" xsi:schemaLocation="http://www.topografix.com/GPX/1/1 http://www.topografix.com/GPX/1/1/gpx.xsd" version="1.1" creator="Waterkaarten">
	<metadata>
		<name>T6 Giethorn - Liegeover Sloten</name>
		<time>2026-08-07T15:48:34Z</time>
	</metadata>
	<rte>
		<name>T6 Giethorn - Liegeover Sloten</name>
		<rtept lat="52.72045443110128" lon="6.074624519856254">
			<time>2026-08-07T15:48:34Z</time>
		</rtept>
		<rtept lat="52.720464178854655" lon="6.07525705400939">
			<time>2026-08-07T15:48:34Z</time>
		</rtept>
		<rtept lat="52.720191240935996" lon="6.075659720366686">
			<time>2026-08-07T15:48:34Z</time>
		</rtept>
		<rtept lat="52.72008076557859" lon="6.075793503345342">
			<time>2026-08-07T15:48:34Z</time>
		</rtept>
		<rtept lat="52.71991505201777" lon="6.07605127289133">
			<time>2026-08-07T15:48:34Z</time>
		</rtept>
		<rtept lat="52.71990530414165" lon="6.076491099014933">
			<time>2026-08-07T15:48:34Z</time>
		</rtept>
		<rtept lat="52.71988905767658" lon="6.077284814981684">
			<time>2026-08-07T15:48:34Z</time>
		</rtept>
		<rtept lat="52.720791447581774" lon="6.0772251714219925">
			<time>2026-08-07T15:48:34Z</time>
		</rtept>
		<rtept lat="52.72169381881694" lon="6.077165527862301">
			<time>2026-08-07T15:48:34Z</time>
		</rtept>
		<rtept lat="52.72192055060504" lon="6.077150541495874">
			<time>2026-08-07T15:48:34Z</time>
		</rtept>
		<rtept lat="52.72203391605708" lon="6.07714304831264">
			<time>2026-08-07T15:48:34Z</time>
		</rtept>
		<rtept lat="52.72214728121441" lon="6.077135555129446">
			<time>2026-08-07T15:48:34Z</time>
		</rtept>
		<rtept lat="52.72231459938244" lon="6.077148493221004">
			<time>2026-08-07T15:48:34Z</time>
		</rtept>
		<rtept lat="52.72248191690854" lon="6.077161431312562">
			<time>2026-08-07T15:48:34Z</time>
		</rtept>
		<rtept lat="52.72291053079771" lon="6.07715965425642">
			<time>2026-08-07T15:48:34Z</time>
		</rtept>
		<rtept lat="52.72316422266582" lon="6.077118515968324">
			<time>2026-08-07T15:48:34Z</time>
		</rtept>
		<rtept lat="52.723495624467795" lon="6.0770970582962045">
			<time>2026-08-07T15:48:34Z</time>
		</rtept>
		<rtept lat="52.72365238963886" lon="6.077089011669159">
			<time>2026-08-07T15:48:34Z</time>
		</rtept>
		<rtept lat="52.72408462282206" lon="6.07704278339551">
			<time>2026-08-07T15:48:34Z</time>
		</rtept>
		<rtept lat="52.72451685172127" lon="6.076996555121862">
			<time>2026-08-07T15:48:34Z</time>
		</rtept>
		<rtept lat="52.7253830510683" lon="6.07690678078362">
			<time>2026-08-07T15:48:34Z</time>
		</rtept>
		<rtept lat="52.72702642788498" lon="6.076893365501492">
			<time>2026-08-07T15:48:34Z</time>
		</rtept>
		<rtept lat="52.72866974276876" lon="6.076879950219407">
			<time>2026-08-07T15:48:34Z</time>
		</rtept>
		<rtept lat="52.73031299572057" lon="6.076866534937283">
			<time>2026-08-07T15:48:34Z</time>
		</rtept>
		<rtept lat="52.7319561867414" lon="6.07685311965517">
			<time>2026-08-07T15:48:34Z</time>
		</rtept>
		<rtept lat="52.7326580105689" lon="6.07682013394855">
			<time>2026-08-07T15:48:34Z</time>
		</rtept>
		<rtept lat="52.7332172248082" lon="6.07665611209275">
			<time>2026-08-07T15:48:34Z</time>
		</rtept>
		<rtept lat="52.7349503778341" lon="6.075955131894047">
			<time>2026-08-07T15:48:34Z</time>
		</rtept>
		<rtept lat="52.7366834619559" lon="6.07525415169535">
			<time>2026-08-07T15:48:34Z</time>
		</rtept>
		<rtept lat="52.7372725783482" lon="6.07514210238959">
			<time>2026-08-07T15:48:34Z</time>
		</rtept>
		<rtept lat="52.737888943469" lon="6.07503610244147">
			<time>2026-08-07T15:48:34Z</time>
		</rtept>
		<rtept lat="52.7385630599637" lon="6.07501702769947">
			<time>2026-08-07T15:48:34Z</time>
		</rtept>
		<rtept lat="52.7389942147928" lon="6.0750533808418">
			<time>2026-08-07T15:48:34Z</time>
		</rtept>
		<rtept lat="52.7407711205933" lon="6.075488375837241">
			<time>2026-08-07T15:48:34Z</time>
		</rtept>
		<rtept lat="52.74163556886966" lon="6.075744187918639">
			<time>2026-08-07T15:48:34Z</time>
		</rtept>
		<rtept lat="52.7425" lon="6.076">
			<time>2026-08-07T15:48:34Z</time>
		</rtept>
		<rtept lat="52.74335000828948" lon="6.076199999999998">
			<time>2026-08-07T15:48:34Z</time>
		</rtept>
		<rtept lat="52.74369868587394" lon="6.076286430931091">
			<time>2026-08-07T15:48:34Z</time>
		</rtept>
		<rtept lat="52.74404736066859" lon="6.076372861862183">
			<time>2026-08-07T15:48:34Z</time>
		</rtept>
		<rtept lat="52.7442" lon="6.0764">
			<time>2026-08-07T15:48:34Z</time>
		</rtept>
		<rtept lat="52.745150637925214" lon="6.076633770519862">
			<time>2026-08-07T15:48:34Z</time>
		</rtept>
		<rtept lat="52.7461012551123" lon="6.07686754103971">
			<time>2026-08-07T15:48:34Z</time>
		</rtept>
		<rtept lat="52.74860632629841" lon="6.0775081300304565">
			<time>2026-08-07T15:48:34Z</time>
		</rtept>
		<rtept lat="52.751111253466" lon="6.07814871902119">
			<time>2026-08-07T15:48:34Z</time>
		</rtept>
		<rtept lat="52.75361603661852" lon="6.078789308011921">
			<time>2026-08-07T15:48:34Z</time>
		</rtept>
		<rtept lat="52.75426022726287" lon="6.078954063331708">
			<time>2026-08-07T15:48:34Z</time>
		</rtept>
		<rtept lat="52.75458231901271" lon="6.079036440991603">
			<time>2026-08-07T15:48:34Z</time>
		</rtept>
		<rtept lat="52.754743363994585" lon="6.0790776298215485">
			<time>2026-08-07T15:48:34Z</time>
		</rtept>
		<rtept lat="52.75490440838109" lon="6.079118818651495">
			<time>2026-08-07T15:48:34Z</time>
		</rtept>
		<rtept lat="52.75520847840945" lon="6.079196588239305">
			<time>2026-08-07T15:48:34Z</time>
		</rtept>
		<rtept lat="52.755512546315316" lon="6.079274357827075">
			<time>2026-08-07T15:48:34Z</time>
		</rtept>
		<rtept lat="52.7561206757595" lon="6.07942989700267">
			<time>2026-08-07T15:48:34Z</time>
		</rtept>
		<rtept lat="52.75687251350447" lon="6.0797402959056335">
			<time>2026-08-07T15:48:34Z</time>
		</rtept>
		<rtept lat="52.75762433827244" lon="6.080050694808616">
			<time>2026-08-07T15:48:34Z</time>
		</rtept>
		<rtept lat="52.758376150063526" lon="6.080361093711596">
			<time>2026-08-07T15:48:34Z</time>
		</rtept>
		<rtept lat="52.7591279488778" lon="6.08067149261452">
			<time>2026-08-07T15:48:34Z</time>
		</rtept>
		<rtept lat="52.76096085257873" lon="6.081437913322914">
			<time>2026-08-07T15:48:34Z</time>
		</rtept>
		<rtept lat="52.762793679143385" lon="6.082204334031332">
			<time>2026-08-07T15:48:34Z</time>
		</rtept>
		<rtept lat="52.76462642857315" lon="6.082970754739751">
			<time>2026-08-07T15:48:34Z</time>
		</rtept>
		<rtept lat="52.7664591008694" lon="6.08373717544816">
			<time>2026-08-07T15:48:34Z</time>
		</rtept>
		<rtept lat="52.7696439553865" lon="6.08503057301745">
			<time>2026-08-07T15:48:34Z</time>
		</rtept>
		<rtept lat="52.7713840234305" lon="6.08570640465326">
			<time>2026-08-07T15:48:34Z</time>
		</rtept>
		<rtept lat="52.77218904534202" lon="6.0860371933071375">
			<time>2026-08-07T15:48:34Z</time>
		</rtept>
		<rtept lat="52.77288939097887" lon="6.086324974785704">
			<time>2026-08-07T15:48:34Z</time>
		</rtept>
		<rtept lat="52.7729940523674" lon="6.08636798196103">
			<time>2026-08-07T15:48:34Z</time>
		</rtept>
		<rtept lat="52.7737431708712" lon="6.08670905756475">
			<time>2026-08-07T15:48:34Z</time>
		</rtept>
		<rtept lat="52.7744546621252" lon="6.08712208260852">
			<time>2026-08-07T15:48:34Z</time>
		</rtept>
		<rtept lat="52.7754616317846" lon="6.08753842157957">
			<time>2026-08-07T15:48:34Z</time>
		</rtept>
		<rtept lat="52.7758746321635" lon="6.08760427877083">
			<time>2026-08-07T15:48:34Z</time>
		</rtept>
		<rtept lat="52.7763323878388" lon="6.08770048892049">
			<time>2026-08-07T15:48:34Z</time>
		</rtept>
		<rtept lat="52.7768713631569" lon="6.08773871830767">
			<time>2026-08-07T15:48:34Z</time>
		</rtept>
		<rtept lat="52.7775997353149" lon="6.08766141082618">
			<time>2026-08-07T15:48:34Z</time>
		</rtept>
		<rtept lat="52.7785154632823" lon="6.08753002997975">
			<time>2026-08-07T15:48:34Z</time>
		</rtept>
		<rtept lat="52.7791957696479" lon="6.08720959625795">
			<time>2026-08-07T15:48:34Z</time>
		</rtept>
		<rtept lat="52.78142945160067" lon="6.086297035217285">
			<time>2026-08-07T15:48:34Z</time>
		</rtept>
		<rtept lat="52.7836520159868" lon="6.08551587514992">
			<time>2026-08-07T15:48:34Z</time>
		</rtept>
		<rtept lat="52.7843650346786" lon="6.08556642564901">
			<time>2026-08-07T15:48:34Z</time>
		</rtept>
		<rtept lat="52.7851405299396" lon="6.08615785356152">
			<time>2026-08-07T15:48:34Z</time>
		</rtept>
		<rtept lat="52.7853" lon="6.085">
			<time>2026-08-07T15:48:34Z</time>
		</rtept>
		<rtept lat="52.7853830543084" lon="6.08443566073891">
			<time>2026-08-07T15:48:34Z</time>
		</rtept>
		<rtept lat="52.7856797534836" lon="6.08286920024056">
			<time>2026-08-07T15:48:34Z</time>
		</rtept>
		<rtept lat="52.78643299313976" lon="6.080042454496422">
			<time>2026-08-07T15:48:34Z</time>
		</rtept>
		<rtept lat="52.7871862197565" lon="6.077215708752264">
			<time>2026-08-07T15:48:34Z</time>
		</rtept>
		<rtept lat="52.787939433333975" lon="6.074388963008108">
			<time>2026-08-07T15:48:34Z</time>
		</rtept>
		<rtept lat="52.7886926338722" lon="6.071562217264">
			<time>2026-08-07T15:48:34Z</time>
		</rtept>
		<rtept lat="52.7889638204799" lon="6.070062965154648">
			<time>2026-08-07T15:48:34Z</time>
		</rtept>
		<rtept lat="52.7891428301952" lon="6.0682635902279">
			<time>2026-08-07T15:48:34Z</time>
		</rtept>
		<rtept lat="52.78926463680276" lon="6.066193872912776">
			<time>2026-08-07T15:48:34Z</time>
		</rtept>
		<rtept lat="52.7893864430693" lon="6.064124155597681">
			<time>2026-08-07T15:48:34Z</time>
		</rtept>
		<rtept lat="52.7895082489948" lon="6.062054438282588">
			<time>2026-08-07T15:48:34Z</time>
		</rtept>
		<rtept lat="52.7896300545793" lon="6.05998472096747">
			<time>2026-08-07T15:48:34Z</time>
		</rtept>
		<rtept lat="52.7896202493641" lon="6.0585318537361">
			<time>2026-08-07T15:48:34Z</time>
		</rtept>
		<rtept lat="52.789605074987776" lon="6.056426666454034">
			<time>2026-08-07T15:48:34Z</time>
		</rtept>
		<rtept lat="52.7895899006061" lon="6.05432147917193">
			<time>2026-08-07T15:48:34Z</time>
		</rtept>
		<rtept lat="52.7898910707811" lon="6.05188013741212">
			<time>2026-08-07T15:48:34Z</time>
		</rtept>
		<rtept lat="52.7903902079122" lon="6.04938245123587">
			<time>2026-08-07T15:48:34Z</time>
		</rtept>
		<rtept lat="52.79151580396782" lon="6.0447434071211195">
			<time>2026-08-07T15:48:34Z</time>
		</rtept>
		<rtept lat="52.7918183117177" lon="6.04299984983671">
			<time>2026-08-07T15:48:34Z</time>
		</rtept>
		<rtept lat="52.7919893959397" lon="6.04129759531546">
			<time>2026-08-07T15:48:34Z</time>
		</rtept>
		<rtept lat="52.7920713254309" lon="6.03946058380235">
			<time>2026-08-07T15:48:34Z</time>
		</rtept>
		<rtept lat="52.7920088885443" lon="6.03772519928835">
			<time>2026-08-07T15:48:34Z</time>
		</rtept>
		<rtept lat="52.791667593566" lon="6.03104920945965">
			<time>2026-08-07T15:48:34Z</time>
		</rtept>
		<rtept lat="52.7915395904673" lon="6.02811213141679">
			<time>2026-08-07T15:48:34Z</time>
		</rtept>
		<rtept lat="52.7916381794275" lon="6.02648289849926">
			<time>2026-08-07T15:48:34Z</time>
		</rtept>
		<rtept lat="52.7917167972848" lon="6.02522397630431">
			<time>2026-08-07T15:48:34Z</time>
		</rtept>
		<rtept lat="52.79219689992951" lon="6.019404871488839">
			<time>2026-08-07T15:48:34Z</time>
		</rtept>
		<rtept lat="52.7926769972757" lon="6.0135857666733">
			<time>2026-08-07T15:48:34Z</time>
		</rtept>
		<rtept lat="52.7928972359545" lon="6.01099458614546">
			<time>2026-08-07T15:48:34Z</time>
		</rtept>
		<rtept lat="52.7930104761725" lon="6.00995846325348">
			<time>2026-08-07T15:48:34Z</time>
		</rtept>
		<rtept lat="52.7932326941376" lon="6.00870150538251">
			<time>2026-08-07T15:48:34Z</time>
		</rtept>
		<rtept lat="52.7934895347866" lon="6.00769704677081">
			<time>2026-08-07T15:48:34Z</time>
		</rtept>
		<rtept lat="52.7938369938718" lon="6.00654560435045">
			<time>2026-08-07T15:48:34Z</time>
		</rtept>
		<rtept lat="52.7942024902719" lon="6.00537957252522">
			<time>2026-08-07T15:48:34Z</time>
		</rtept>
		<rtept lat="52.7944173849586" lon="6.00472929465127">
			<time>2026-08-07T15:48:34Z</time>
		</rtept>
		<rtept lat="52.79548753433134" lon="6.0014905472477675">
			<time>2026-08-07T15:48:34Z</time>
		</rtept>
		<rtept lat="52.796557657376" lon="5.99825179984421">
			<time>2026-08-07T15:48:34Z</time>
		</rtept>
		<rtept lat="52.7969973032078" lon="5.99662704934754">
			<time>2026-08-07T15:48:34Z</time>
		</rtept>
		<rtept lat="52.7972193809007" lon="5.99536990934874">
			<time>2026-08-07T15:48:34Z</time>
		</rtept>
		<rtept lat="52.7973688808842" lon="5.99424518960138">
			<time>2026-08-07T15:48:34Z</time>
		</rtept>
		<rtept lat="52.7974464831323" lon="5.99311947055291">
			<time>2026-08-07T15:48:34Z</time>
		</rtept>
		<rtept lat="52.7975219593594" lon="5.98885055863171">
			<time>2026-08-07T15:48:34Z</time>
		</rtept>
		<rtept lat="52.79763536776996" lon="5.984605103731155">
			<time>2026-08-07T15:48:34Z</time>
		</rtept>
		<rtept lat="52.797687792575815" lon="5.980805852004294">
			<time>2026-08-07T15:48:34Z</time>
		</rtept>
		<rtept lat="52.79776077458691" lon="5.97694087672875">
			<time>2026-08-07T15:48:34Z</time>
		</rtept>
		<rtept lat="52.79783375647552" lon="5.973075901453205">
			<time>2026-08-07T15:48:34Z</time>
		</rtept>
		<rtept lat="52.7979067382417" lon="5.96921092617765">
			<time>2026-08-07T15:48:34Z</time>
		</rtept>
		<rtept lat="52.7980125745435" lon="5.96777417102147">
			<time>2026-08-07T15:48:34Z</time>
		</rtept>
		<rtept lat="52.7981619585616" lon="5.96661968507846">
			<time>2026-08-07T15:48:34Z</time>
		</rtept>
		<rtept lat="52.7984095312771" lon="5.96559992241328">
			<time>2026-08-07T15:48:34Z</time>
		</rtept>
		<rtept lat="52.7991511983047" lon="5.96274812654627">
			<time>2026-08-07T15:48:34Z</time>
		</rtept>
		<rtept lat="52.8008570679791" lon="5.95744747216073">
			<time>2026-08-07T15:48:34Z</time>
		</rtept>
		<rtept lat="52.801960649553" lon="5.95403660466025">
			<time>2026-08-07T15:48:34Z</time>
		</rtept>
		<rtept lat="52.8033022350843" lon="5.94967961930773">
			<time>2026-08-07T15:48:34Z</time>
		</rtept>
		<rtept lat="52.803829758146" lon="5.9483369990021">
			<time>2026-08-07T15:48:34Z</time>
		</rtept>
		<rtept lat="52.8042652541845" lon="5.94745285570044">
			<time>2026-08-07T15:48:34Z</time>
		</rtept>
		<rtept lat="52.8049269866845" lon="5.94623051674307">
			<time>2026-08-07T15:48:34Z</time>
		</rtept>
		<rtept lat="52.8076356614093" lon="5.94156401665584">
			<time>2026-08-07T15:48:34Z</time>
		</rtept>
		<rtept lat="52.808206239064" lon="5.94060728361123">
			<time>2026-08-07T15:48:34Z</time>
		</rtept>
		<rtept lat="52.8086246645937" lon="5.93951514247027">
			<time>2026-08-07T15:48:34Z</time>
		</rtept>
		<rtept lat="52.8088988267455" lon="5.93852497988231">
			<time>2026-08-07T15:48:34Z</time>
		</rtept>
		<rtept lat="52.809045744262" lon="5.93784464162415">
			<time>2026-08-07T15:48:34Z</time>
		</rtept>
		<rtept lat="52.8091210431993" lon="5.9371040816081">
			<time>2026-08-07T15:48:34Z</time>
		</rtept>
		<rtept lat="52.8091780933014" lon="5.93642261129389">
			<time>2026-08-07T15:48:34Z</time>
		</rtept>
		<rtept lat="52.8091999438344" lon="5.93557756837493">
			<time>2026-08-07T15:48:34Z</time>
		</rtept>
		<rtept lat="52.809132947178" lon="5.93450896565759">
			<time>2026-08-07T15:48:34Z</time>
		</rtept>
		<rtept lat="52.8090289133136" lon="5.93367718637262">
			<time>2026-08-07T15:48:34Z</time>
		</rtept>
		<rtept lat="52.80862294067161" lon="5.931502389779465">
			<time>2026-08-07T15:48:34Z</time>
		</rtept>
		<rtept lat="52.80821696423868" lon="5.929327593186332">
			<time>2026-08-07T15:48:34Z</time>
		</rtept>
		<rtept lat="52.80781098401483" lon="5.927152796593159">
			<time>2026-08-07T15:48:34Z</time>
		</rtept>
		<rtept lat="52.80738119208209" lon="5.924986973404884">
			<time>2026-08-07T15:48:34Z</time>
		</rtept>
		<rtept lat="52.807325862251304" lon="5.924642980098725">
			<time>2026-08-07T15:48:34Z</time>
		</rtept>
		<rtept lat="52.80727884197346" lon="5.924275517463685">
			<time>2026-08-07T15:48:34Z</time>
		</rtept>
		<rtept lat="52.807244792775" lon="5.92390537261963">
			<time>2026-08-07T15:48:34Z</time>
		</rtept>
		<rtept lat="52.80723668581907" lon="5.923610329627991">
			<time>2026-08-07T15:48:34Z</time>
		</rtept>
		<rtept lat="52.80724154999282" lon="5.923374295234681">
			<time>2026-08-07T15:48:34Z</time>
		</rtept>
		<rtept lat="52.807259385291886" lon="5.923119485378266">
			<time>2026-08-07T15:48:34Z</time>
		</rtept>
		<rtept lat="52.80730316281318" lon="5.9227895736694345">
			<time>2026-08-07T15:48:34Z</time>
		</rtept>
		<rtept lat="52.807419902654445" lon="5.922258496284485">
			<time>2026-08-07T15:48:34Z</time>
		</rtept>
		<rtept lat="52.807523671139094" lon="5.921858847141267">
			<time>2026-08-07T15:48:34Z</time>
		</rtept>
		<rtept lat="52.80762743937608" lon="5.921504795551301">
			<time>2026-08-07T15:48:34Z</time>
		</rtept>
		<rtept lat="52.80769715852119" lon="5.921287536621095">
			<time>2026-08-07T15:48:34Z</time>
		</rtept>
		<rtept lat="52.807774984411594" lon="5.921102464199066">
			<time>2026-08-07T15:48:34Z</time>
		</rtept>
		<rtept lat="52.80785443153103" lon="5.920957624912263">
			<time>2026-08-07T15:48:34Z</time>
		</rtept>
		<rtept lat="52.80816330109562" lon="5.920641124248505">
			<time>2026-08-07T15:48:34Z</time>
		</rtept>
		<rtept lat="52.808575529103805" lon="5.920215994119645">
			<time>2026-08-07T15:48:34Z</time>
		</rtept>
		<rtept lat="52.80869591353696" lon="5.920073837041855">
			<time>2026-08-07T15:48:34Z</time>
		</rtept>
		<rtept lat="52.80883129495915" lon="5.919894129037858">
			<time>2026-08-07T15:48:34Z</time>
		</rtept>
		<rtept lat="52.808951273352235" lon="5.919721126556397">
			<time>2026-08-07T15:48:34Z</time>
		</rtept>
		<rtept lat="52.809070440752755" lon="5.919533371925354">
			<time>2026-08-07T15:48:34Z</time>
		</rtept>
		<rtept lat="52.80967843260955" lon="5.918559730052949">
			<time>2026-08-07T15:48:34Z</time>
		</rtept>
		<rtept lat="52.810025389485276" lon="5.918004512786865">
			<time>2026-08-07T15:48:34Z</time>
		</rtept>
		<rtept lat="52.81053122819318" lon="5.9173446893692025">
			<time>2026-08-07T15:48:34Z</time>
		</rtept>
		<rtept lat="52.8107388234406" lon="5.91706569056058">
			<time>2026-08-07T15:48:34Z</time>
		</rtept>
		<rtept lat="52.811565585176545" lon="5.915939190271056">
			<time>2026-08-07T15:48:34Z</time>
		</rtept>
		<rtept lat="52.812384298567764" lon="5.9148931438004935">
			<time>2026-08-07T15:48:34Z</time>
		</rtept>
		<rtept lat="52.81288038274415" lon="5.914281602132228">
			<time>2026-08-07T15:48:34Z</time>
		</rtept>
		<rtept lat="52.81388550326186" lon="5.913211401586885">
			<time>2026-08-07T15:48:34Z</time>
		</rtept>
		<rtept lat="52.814816029603236" lon="5.912095602352837">
			<time>2026-08-07T15:48:34Z</time>
		</rtept>
		<rtept lat="52.81501056220928" lon="5.911897125130938">
			<time>2026-08-07T15:48:34Z</time>
		</rtept>
		<rtept lat="52.81521644160242" lon="5.911741566943648">
			<time>2026-08-07T15:48:34Z</time>
		</rtept>
		<rtept lat="52.81544339413415" lon="5.911653014871653">
			<time>2026-08-07T15:48:34Z</time>
		</rtept>
		<rtept lat="52.81566548225013" lon="5.911663777204756">
			<time>2026-08-07T15:48:34Z</time>
		</rtept>
		<rtept lat="52.8159" lon="5.9118">
			<time>2026-08-07T15:48:34Z</time>
		</rtept>
		<rtept lat="52.8166" lon="5.9123">
			<time>2026-08-07T15:48:34Z</time>
		</rtept>
		<rtept lat="52.818" lon="5.9133">
			<time>2026-08-07T15:48:34Z</time>
		</rtept>
		<rtept lat="52.8184" lon="5.9136">
			<time>2026-08-07T15:48:34Z</time>
		</rtept>
		<rtept lat="52.8187" lon="5.9139">
			<time>2026-08-07T15:48:34Z</time>
		</rtept>
		<rtept lat="52.8193" lon="5.9148">
			<time>2026-08-07T15:48:34Z</time>
		</rtept>
		<rtept lat="52.8201" lon="5.916">
			<time>2026-08-07T15:48:34Z</time>
		</rtept>
		<rtept lat="52.8213" lon="5.918">
			<time>2026-08-07T15:48:34Z</time>
		</rtept>
		<rtept lat="52.8217" lon="5.9187">
			<time>2026-08-07T15:48:34Z</time>
		</rtept>
		<rtept lat="52.8222" lon="5.92">
			<time>2026-08-07T15:48:34Z</time>
		</rtept>
		<rtept lat="52.8228" lon="5.9215">
			<time>2026-08-07T15:48:34Z</time>
		</rtept>
		<rtept lat="52.8229" lon="5.9218">
			<time>2026-08-07T15:48:34Z</time>
		</rtept>
		<rtept lat="52.8233" lon="5.9237">
			<time>2026-08-07T15:48:34Z</time>
		</rtept>
		<rtept lat="52.82338922778355" lon="5.923934873228425">
			<time>2026-08-07T15:48:34Z</time>
		</rtept>
		<rtept lat="52.82348323343908" lon="5.924119947353691">
			<time>2026-08-07T15:48:34Z</time>
		</rtept>
		<rtept lat="52.8235837220184" lon="5.9242379625632555">
			<time>2026-08-07T15:48:34Z</time>
		</rtept>
		<rtept lat="52.82369069347649" lon="5.924326476596239">
			<time>2026-08-07T15:48:34Z</time>
		</rtept>
		<rtept lat="52.82381711395108" lon="5.92438548945268">
			<time>2026-08-07T15:48:34Z</time>
		</rtept>
		<rtept lat="52.824" lon="5.9244">
			<time>2026-08-07T15:48:34Z</time>
		</rtept>
		<rtept lat="52.8242" lon="5.9243">
			<time>2026-08-07T15:48:34Z</time>
		</rtept>
		<rtept lat="52.8258" lon="5.9234">
			<time>2026-08-07T15:48:34Z</time>
		</rtept>
		<rtept lat="52.8265" lon="5.923">
			<time>2026-08-07T15:48:34Z</time>
		</rtept>
		<rtept lat="52.8269" lon="5.9229">
			<time>2026-08-07T15:48:34Z</time>
		</rtept>
		<rtept lat="52.8271" lon="5.9229">
			<time>2026-08-07T15:48:34Z</time>
		</rtept>
		<rtept lat="52.8273" lon="5.9229">
			<time>2026-08-07T15:48:34Z</time>
		</rtept>
		<rtept lat="52.8274" lon="5.9229">
			<time>2026-08-07T15:48:34Z</time>
		</rtept>
		<rtept lat="52.8276" lon="5.923">
			<time>2026-08-07T15:48:34Z</time>
		</rtept>
		<rtept lat="52.8279" lon="5.9233">
			<time>2026-08-07T15:48:34Z</time>
		</rtept>
		<rtept lat="52.8281" lon="5.9235">
			<time>2026-08-07T15:48:34Z</time>
		</rtept>
		<rtept lat="52.8283" lon="5.9236">
			<time>2026-08-07T15:48:34Z</time>
		</rtept>
		<rtept lat="52.8285" lon="5.9236">
			<time>2026-08-07T15:48:34Z</time>
		</rtept>
		<rtept lat="52.8286" lon="5.9236">
			<time>2026-08-07T15:48:34Z</time>
		</rtept>
		<rtept lat="52.8287731549921" lon="5.923545962289092">
			<time>2026-08-07T15:48:34Z</time>
		</rtept>
		<rtept lat="52.8289" lon="5.9235">
			<time>2026-08-07T15:48:34Z</time>
		</rtept>
		<rtept lat="52.8291" lon="5.9234">
			<time>2026-08-07T15:48:34Z</time>
		</rtept>
		<rtept lat="52.82976818468496" lon="5.922811040993233">
			<time>2026-08-07T15:48:34Z</time>
		</rtept>
		<rtept lat="52.83" lon="5.9227">
			<time>2026-08-07T15:48:34Z</time>
		</rtept>
		<rtept lat="52.8302" lon="5.9227">
			<time>2026-08-07T15:48:34Z</time>
		</rtept>
		<rtept lat="52.8304" lon="5.9227">
			<time>2026-08-07T15:48:34Z</time>
		</rtept>
		<rtept lat="52.8307" lon="5.9228">
			<time>2026-08-07T15:48:34Z</time>
		</rtept>
		<rtept lat="52.8309" lon="5.923">
			<time>2026-08-07T15:48:34Z</time>
		</rtept>
		<rtept lat="52.8313" lon="5.9235">
			<time>2026-08-07T15:48:34Z</time>
		</rtept>
		<rtept lat="52.8334" lon="5.9264">
			<time>2026-08-07T15:48:34Z</time>
		</rtept>
		<rtept lat="52.8336" lon="5.9267">
			<time>2026-08-07T15:48:34Z</time>
		</rtept>
		<rtept lat="52.8337" lon="5.9269">
			<time>2026-08-07T15:48:34Z</time>
		</rtept>
		<rtept lat="52.8338" lon="5.9272">
			<time>2026-08-07T15:48:34Z</time>
		</rtept>
		<rtept lat="52.8343" lon="5.9286">
			<time>2026-08-07T15:48:34Z</time>
		</rtept>
		<rtept lat="52.8348" lon="5.9298">
			<time>2026-08-07T15:48:34Z</time>
		</rtept>
		<rtept lat="52.8352" lon="5.9306">
			<time>2026-08-07T15:48:34Z</time>
		</rtept>
		<rtept lat="52.83567469141301" lon="5.931769609451294">
			<time>2026-08-07T15:48:34Z</time>
		</rtept>
		<rtept lat="52.83580563418601" lon="5.932116619958744">
			<time>2026-08-07T15:48:34Z</time>
		</rtept>
		<rtept lat="52.835936576564244" lon="5.932463630466152">
			<time>2026-08-07T15:48:34Z</time>
		</rtept>
		<rtept lat="52.8365" lon="5.9339">
			<time>2026-08-07T15:48:34Z</time>
		</rtept>
		<rtept lat="52.83663715714612" lon="5.934188963118219">
			<time>2026-08-07T15:48:34Z</time>
		</rtept>
		<rtept lat="52.836812148624354" lon="5.93449205245305">
			<time>2026-08-07T15:48:34Z</time>
		</rtept>
		<rtept lat="52.837" lon="5.9347">
			<time>2026-08-07T15:48:34Z</time>
		</rtept>
		<rtept lat="52.8372" lon="5.9349">
			<time>2026-08-07T15:48:34Z</time>
		</rtept>
		<rtept lat="52.8374" lon="5.935">
			<time>2026-08-07T15:48:34Z</time>
		</rtept>
		<rtept lat="52.8377" lon="5.9351">
			<time>2026-08-07T15:48:34Z</time>
		</rtept>
		<rtept lat="52.83789934839924" lon="5.935127742802528">
			<time>2026-08-07T15:48:34Z</time>
		</rtept>
		<rtept lat="52.8381" lon="5.9351">
			<time>2026-08-07T15:48:34Z</time>
		</rtept>
		<rtept lat="52.8383" lon="5.935">
			<time>2026-08-07T15:48:34Z</time>
		</rtept>
		<rtept lat="52.8385" lon="5.9349">
			<time>2026-08-07T15:48:34Z</time>
		</rtept>
		<rtept lat="52.8387" lon="5.9347">
			<time>2026-08-07T15:48:34Z</time>
		</rtept>
		<rtept lat="52.8392" lon="5.9343">
			<time>2026-08-07T15:48:34Z</time>
		</rtept>
		<rtept lat="52.8399" lon="5.9336">
			<time>2026-08-07T15:48:34Z</time>
		</rtept>
		<rtept lat="52.8403" lon="5.9331">
			<time>2026-08-07T15:48:34Z</time>
		</rtept>
		<rtept lat="52.8412" lon="5.9321">
			<time>2026-08-07T15:48:34Z</time>
		</rtept>
		<rtept lat="52.8418" lon="5.9315">
			<time>2026-08-07T15:48:34Z</time>
		</rtept>
		<rtept lat="52.8476543442659" lon="5.9253953397274">
			<time>2026-08-07T15:48:34Z</time>
		</rtept>
		<rtept lat="52.8484" lon="5.9246">
			<time>2026-08-07T15:48:34Z</time>
		</rtept>
		<rtept lat="52.849" lon="5.9239">
			<time>2026-08-07T15:48:34Z</time>
		</rtept>
		<rtept lat="52.8516" lon="5.9212">
			<time>2026-08-07T15:48:34Z</time>
		</rtept>
		<rtept lat="52.8559" lon="5.9166">
			<time>2026-08-07T15:48:34Z</time>
		</rtept>
		<rtept lat="52.8564" lon="5.916">
			<time>2026-08-07T15:48:34Z</time>
		</rtept>
		<rtept lat="52.8565" lon="5.9157">
			<time>2026-08-07T15:48:34Z</time>
		</rtept>
		<rtept lat="52.8565" lon="5.9155">
			<time>2026-08-07T15:48:34Z</time>
		</rtept>
		<rtept lat="52.8565" lon="5.9153">
			<time>2026-08-07T15:48:34Z</time>
		</rtept>
		<rtept lat="52.8565" lon="5.9151">
			<time>2026-08-07T15:48:34Z</time>
		</rtept>
		<rtept lat="52.8564" lon="5.9147">
			<time>2026-08-07T15:48:34Z</time>
		</rtept>
		<rtept lat="52.856" lon="5.914">
			<time>2026-08-07T15:48:34Z</time>
		</rtept>
		<rtept lat="52.8551" lon="5.9122">
			<time>2026-08-07T15:48:34Z</time>
		</rtept>
		<rtept lat="52.855" lon="5.912">
			<time>2026-08-07T15:48:34Z</time>
		</rtept>
		<rtept lat="52.855" lon="5.9118">
			<time>2026-08-07T15:48:34Z</time>
		</rtept>
		<rtept lat="52.855" lon="5.9115">
			<time>2026-08-07T15:48:34Z</time>
		</rtept>
		<rtept lat="52.855" lon="5.9113">
			<time>2026-08-07T15:48:34Z</time>
		</rtept>
		<rtept lat="52.8551" lon="5.911">
			<time>2026-08-07T15:48:34Z</time>
		</rtept>
		<rtept lat="52.8576" lon="5.9002">
			<time>2026-08-07T15:48:34Z</time>
		</rtept>
		<rtept lat="52.85811510255" lon="5.89805826544762">
			<time>2026-08-07T15:48:34Z</time>
		</rtept>
		<rtept lat="52.8585" lon="5.8966">
			<time>2026-08-07T15:48:34Z</time>
		</rtept>
		<rtept lat="52.8591" lon="5.8939">
			<time>2026-08-07T15:48:34Z</time>
		</rtept>
		<rtept lat="52.86" lon="5.8899">
			<time>2026-08-07T15:48:34Z</time>
		</rtept>
		<rtept lat="52.86185011831837" lon="5.882024999999996">
			<time>2026-08-07T15:48:34Z</time>
		</rtept>
		<rtept lat="52.86277514789752" lon="5.878087500000024">
			<time>2026-08-07T15:48:34Z</time>
		</rtept>
		<rtept lat="52.863237655292146" lon="5.87611875000004">
			<time>2026-08-07T15:48:34Z</time>
		</rtept>
		<rtept lat="52.86370015775688" lon="5.8741500000000135">
			<time>2026-08-07T15:48:34Z</time>
		</rtept>
		<rtept lat="52.86462514789662" lon="5.8702125000000045">
			<time>2026-08-07T15:48:34Z</time>
		</rtept>
		<rtept lat="52.865550118316946" lon="5.866275000000033">
			<time>2026-08-07T15:48:34Z</time>
		</rtept>
		<rtept lat="52.86647506901801" lon="5.862337500000022">
			<time>2026-08-07T15:48:34Z</time>
		</rtept>
		<rtept lat="52.86693753697388" lon="5.860368749999996">
			<time>2026-08-07T15:48:34Z</time>
		</rtept>
		<rtept lat="52.8674" lon="5.8584">
			<time>2026-08-07T15:48:34Z</time>
		</rtept>
		<rtept lat="52.8677" lon="5.857">
			<time>2026-08-07T15:48:34Z</time>
		</rtept>
		<rtept lat="52.8679" lon="5.8565">
			<time>2026-08-07T15:48:34Z</time>
		</rtept>
		<rtept lat="52.8676" lon="5.8561">
			<time>2026-08-07T15:48:34Z</time>
		</rtept>
		<rtept lat="52.8674" lon="5.8558">
			<time>2026-08-07T15:48:34Z</time>
		</rtept>
		<rtept lat="52.8672" lon="5.8556">
			<time>2026-08-07T15:48:34Z</time>
		</rtept>
		<rtept lat="52.8669" lon="5.8554">
			<time>2026-08-07T15:48:34Z</time>
		</rtept>
		<rtept lat="52.8668" lon="5.8553">
			<time>2026-08-07T15:48:34Z</time>
		</rtept>
		<rtept lat="52.866373962103594" lon="5.855219364166261">
			<time>2026-08-07T15:48:34Z</time>
		</rtept>
		<rtept lat="52.86596916393035" lon="5.855026245117188">
			<time>2026-08-07T15:48:34Z</time>
		</rtept>
		<rtept lat="52.865599984703366" lon="5.854672193527223">
			<time>2026-08-07T15:48:34Z</time>
		</rtept>
		<rtept lat="52.86503325609333" lon="5.854071378707887">
			<time>2026-08-07T15:48:34Z</time>
		</rtept>
		<rtept lat="52.86373137148058" lon="5.852531790733337">
			<time>2026-08-07T15:48:34Z</time>
		</rtept>
		<rtept lat="52.86354353415763" lon="5.852279663085938">
			<time>2026-08-07T15:48:34Z</time>
		</rtept>
		<rtept lat="52.863381604778276" lon="5.851984620094299">
			<time>2026-08-07T15:48:34Z</time>
		</rtept>
		<rtept lat="52.863271492455134" lon="5.851673483848573">
			<time>2026-08-07T15:48:34Z</time>
		</rtept>
		<rtept lat="52.86321481688578" lon="5.851386487483979">
			<time>2026-08-07T15:48:34Z</time>
		</rtept>
		<rtept lat="52.86318081150863" lon="5.851072669029237">
			<time>2026-08-07T15:48:34Z</time>
		</rtept>
		<rtept lat="52.863184050117134" lon="5.850740075111389">
			<time>2026-08-07T15:48:34Z</time>
		</rtept>
		<rtept lat="52.863243964330685" lon="5.850367248058319">
			<time>2026-08-07T15:48:34Z</time>
		</rtept>
		<rtept lat="52.86332978724924" lon="5.850101709365846">
			<time>2026-08-07T15:48:34Z</time>
		</rtept>
		<rtept lat="52.86344313801363" lon="5.849887132644653">
			<time>2026-08-07T15:48:34Z</time>
		</rtept>
		<rtept lat="52.863621260045065" lon="5.849683284759522">
			<time>2026-08-07T15:48:34Z</time>
		</rtept>
		<rtept lat="52.8641" lon="5.8493">
			<time>2026-08-07T15:48:34Z</time>
		</rtept>
		<rtept lat="52.8643" lon="5.849">
			<time>2026-08-07T15:48:34Z</time>
		</rtept>
		<rtept lat="52.8645" lon="5.8486">
			<time>2026-08-07T15:48:34Z</time>
		</rtept>
		<rtept lat="52.8648" lon="5.8481">
			<time>2026-08-07T15:48:34Z</time>
		</rtept>
		<rtept lat="52.8651" lon="5.8471">
			<time>2026-08-07T15:48:34Z</time>
		</rtept>
		<rtept lat="52.8663707237332" lon="5.843353271484376">
			<time>2026-08-07T15:48:34Z</time>
		</rtept>
		<rtept lat="52.8705" lon="5.8312">
			<time>2026-08-07T15:48:34Z</time>
		</rtept>
		<rtept lat="52.8729" lon="5.8243">
			<time>2026-08-07T15:48:34Z</time>
		</rtept>
		<rtept lat="52.873291399452036" lon="5.823078709965945">
			<time>2026-08-07T15:48:34Z</time>
		</rtept>
		<rtept lat="52.87334399416942" lon="5.822914838790894">
			<time>2026-08-07T15:48:34Z</time>
		</rtept>
		<rtept lat="52.87341441734969" lon="5.822737812995911">
			<time>2026-08-07T15:48:34Z</time>
		</rtept>
		<rtept lat="52.87349293501357" lon="5.822590291500092">
			<time>2026-08-07T15:48:34Z</time>
		</rtept>
		<rtept lat="52.87359330790268" lon="5.822415947914124">
			<time>2026-08-07T15:48:34Z</time>
		</rtept>
		<rtept lat="52.8736888238234" lon="5.822228193283082">
			<time>2026-08-07T15:48:34Z</time>
		</rtept>
		<rtept lat="52.87378110171654" lon="5.822032392024995">
			<time>2026-08-07T15:48:34Z</time>
		</rtept>
		<rtept lat="52.87388471174855" lon="5.82177221775055">
			<time>2026-08-07T15:48:34Z</time>
		</rtept>
		<rtept lat="52.87398994043401" lon="5.821482539176942">
			<time>2026-08-07T15:48:34Z</time>
		</rtept>
		<rtept lat="52.8756" lon="5.8166">
			<time>2026-08-07T15:48:34Z</time>
		</rtept>
		<rtept lat="52.8771" lon="5.8124">
			<time>2026-08-07T15:48:34Z</time>
		</rtept>
		<rtept lat="52.8782" lon="5.81">
			<time>2026-08-07T15:48:34Z</time>
		</rtept>
		<rtept lat="52.8783" lon="5.8096">
			<time>2026-08-07T15:48:34Z</time>
		</rtept>
		<rtept lat="52.87840000011531" lon="5.809100000000009">
			<time>2026-08-07T15:48:34Z</time>
		</rtept>
		<rtept lat="52.8785" lon="5.8086">
			<time>2026-08-07T15:48:34Z</time>
		</rtept>
		<rtept lat="52.8811" lon="5.7856">
			<time>2026-08-07T15:48:34Z</time>
		</rtept>
		<rtept lat="52.8819" lon="5.7779">
			<time>2026-08-07T15:48:34Z</time>
		</rtept>
		<rtept lat="52.88219175261184" lon="5.775027392297335">
			<time>2026-08-07T15:48:34Z</time>
		</rtept>
		<rtept lat="52.8832" lon="5.7651">
			<time>2026-08-07T15:48:34Z</time>
		</rtept>
		<rtept lat="52.8837" lon="5.758">
			<time>2026-08-07T15:48:34Z</time>
		</rtept>
		<rtept lat="52.8837" lon="5.7571">
			<time>2026-08-07T15:48:34Z</time>
		</rtept>
		<rtept lat="52.8839" lon="5.756">
			<time>2026-08-07T15:48:34Z</time>
		</rtept>
		<rtept lat="52.884276" lon="5.755113">
			<time>2026-08-07T15:48:34Z</time>
		</rtept>
		<rtept lat="52.884349668659375" lon="5.754379034042358">
			<time>2026-08-07T15:48:34Z</time>
		</rtept>
		<rtept lat="52.8844731240781" lon="5.75341035957025">
			<time>2026-08-07T15:48:34Z</time>
		</rtept>
		<rtept lat="52.88500000103792" lon="5.749649999999998">
			<time>2026-08-07T15:48:34Z</time>
		</rtept>
		<rtept lat="52.8853" lon="5.746">
			<time>2026-08-07T15:48:34Z</time>
		</rtept>
		<rtept lat="52.8855" lon="5.7441">
			<time>2026-08-07T15:48:34Z</time>
		</rtept>
		<rtept lat="52.8866" lon="5.7393">
			<time>2026-08-07T15:48:34Z</time>
		</rtept>
		<rtept lat="52.887" lon="5.7374">
			<time>2026-08-07T15:48:34Z</time>
		</rtept>
		<rtept lat="52.8888" lon="5.7299">
			<time>2026-08-07T15:48:34Z</time>
		</rtept>
		<rtept lat="52.8893" lon="5.7271">
			<time>2026-08-07T15:48:34Z</time>
		</rtept>
		<rtept lat="52.8895" lon="5.7258">
			<time>2026-08-07T15:48:34Z</time>
		</rtept>
		<rtept lat="52.8898" lon="5.7242">
			<time>2026-08-07T15:48:34Z</time>
		</rtept>
		<rtept lat="52.8911" lon="5.7174">
			<time>2026-08-07T15:48:34Z</time>
		</rtept>
		<rtept lat="52.8919" lon="5.7137">
			<time>2026-08-07T15:48:34Z</time>
		</rtept>
		<rtept lat="52.8944" lon="5.7018">
			<time>2026-08-07T15:48:34Z</time>
		</rtept>
		<rtept lat="52.895" lon="5.6991">
			<time>2026-08-07T15:48:34Z</time>
		</rtept>
		<rtept lat="52.8951" lon="5.6985">
			<time>2026-08-07T15:48:34Z</time>
		</rtept>
		<rtept lat="52.8936" lon="5.6981">
			<time>2026-08-07T15:48:34Z</time>
		</rtept>
		<rtept lat="52.8939" lon="5.6922">
			<time>2026-08-07T15:48:34Z</time>
		</rtept>
		<rtept lat="52.8939" lon="5.6918">
			<time>2026-08-07T15:48:34Z</time>
		</rtept>
		<rtept lat="52.8944" lon="5.6894">
			<time>2026-08-07T15:48:34Z</time>
		</rtept>
		<rtept lat="52.8951" lon="5.686">
			<time>2026-08-07T15:48:34Z</time>
		</rtept>
		<rtept lat="52.8951" lon="5.6858">
			<time>2026-08-07T15:48:34Z</time>
		</rtept>
		<rtept lat="52.8951" lon="5.6856">
			<time>2026-08-07T15:48:34Z</time>
		</rtept>
		<rtept lat="52.8951" lon="5.6855">
			<time>2026-08-07T15:48:34Z</time>
		</rtept>
		<rtept lat="52.895" lon="5.6851">
			<time>2026-08-07T15:48:34Z</time>
		</rtept>
		<rtept lat="52.8928" lon="5.6809">
			<time>2026-08-07T15:48:34Z</time>
		</rtept>
		<rtept lat="52.8925" lon="5.6802">
			<time>2026-08-07T15:48:34Z</time>
		</rtept>
		<rtept lat="52.8923" lon="5.6797">
			<time>2026-08-07T15:48:34Z</time>
		</rtept>
		<rtept lat="52.8922" lon="5.6792">
			<time>2026-08-07T15:48:34Z</time>
		</rtept>
		<rtept lat="52.8921" lon="5.6786">
			<time>2026-08-07T15:48:34Z</time>
		</rtept>
		<rtept lat="52.8921" lon="5.678">
			<time>2026-08-07T15:48:34Z</time>
		</rtept>
		<rtept lat="52.8921" lon="5.6767">
			<time>2026-08-07T15:48:34Z</time>
		</rtept>
		<rtept lat="52.8921" lon="5.6764">
			<time>2026-08-07T15:48:34Z</time>
		</rtept>
		<rtept lat="52.892" lon="5.676">
			<time>2026-08-07T15:48:34Z</time>
		</rtept>
		<rtept lat="52.8919" lon="5.6757">
			<time>2026-08-07T15:48:34Z</time>
		</rtept>
		<rtept lat="52.8914" lon="5.6746">
			<time>2026-08-07T15:48:34Z</time>
		</rtept>
		<rtept lat="52.8912" lon="5.6741">
			<time>2026-08-07T15:48:34Z</time>
		</rtept>
		<rtept lat="52.8878" lon="5.6611">
			<time>2026-08-07T15:48:34Z</time>
		</rtept>
		<rtept lat="52.8866" lon="5.6551">
			<time>2026-08-07T15:48:34Z</time>
		</rtept>
		<rtept lat="52.8863" lon="5.6535">
			<time>2026-08-07T15:48:34Z</time>
		</rtept>
		<rtept lat="52.8863" lon="5.6532">
			<time>2026-08-07T15:48:34Z</time>
		</rtept>
		<rtept lat="52.8863" lon="5.6528">
			<time>2026-08-07T15:48:34Z</time>
		</rtept>
		<rtept lat="52.8864" lon="5.6519">
			<time>2026-08-07T15:48:34Z</time>
		</rtept>
		<rtept lat="52.8866" lon="5.6519">
			<time>2026-08-07T15:48:34Z</time>
		</rtept>
		<rtept lat="52.8867" lon="5.6519">
			<time>2026-08-07T15:48:34Z</time>
		</rtept>
		<rtept lat="52.8868" lon="5.6518">
			<time>2026-08-07T15:48:34Z</time>
		</rtept>
		<rtept lat="52.8881" lon="5.6505">
			<time>2026-08-07T15:48:34Z</time>
		</rtept>
		<rtept lat="52.8886" lon="5.6501">
			<time>2026-08-07T15:48:34Z</time>
		</rtept>
		<rtept lat="52.8893" lon="5.6496">
			<time>2026-08-07T15:48:34Z</time>
		</rtept>
		<rtept lat="52.8896" lon="5.6494">
			<time>2026-08-07T15:48:34Z</time>
		</rtept>
		<rtept lat="52.88990971968532" lon="5.649291424955965">
			<time>2026-08-07T15:48:34Z</time>
		</rtept>
		<rtept lat="52.8901" lon="5.6492">
			<time>2026-08-07T15:48:34Z</time>
		</rtept>
		<rtept lat="52.89112747623621" lon="5.648646354675294">
			<time>2026-08-07T15:48:34Z</time>
		</rtept>
		<rtept lat="52.891394488505526" lon="5.648461282253266">
			<time>2026-08-07T15:48:34Z</time>
		</rtept>
		<rtept lat="52.89162751605099" lon="5.6482547521591195">
			<time>2026-08-07T15:48:34Z</time>
		</rtept>
		<rtept lat="52.89223597095808" lon="5.64759761095047">
			<time>2026-08-07T15:48:34Z</time>
		</rtept>
		<rtept lat="52.8923977926338" lon="5.647447407245637">
			<time>2026-08-07T15:48:34Z</time>
		</rtept>
		<rtept lat="52.8925126854836" lon="5.647358894019009">
			<time>2026-08-07T15:48:34Z</time>
		</rtept>
		<rtept lat="52.89264538226585" lon="5.647260992237966">
			<time>2026-08-07T15:48:34Z</time>
		</rtept>
		<rtept lat="52.892784555423376" lon="5.647171135767422">
			<time>2026-08-07T15:48:34Z</time>
		</rtept>
		<rtept lat="52.8929008662521" lon="5.64709762885753">
			<time>2026-08-07T15:48:34Z</time>
		</rtept>
		<rtept lat="52.89297710928" lon="5.646996796131135">
			<time>2026-08-07T15:48:34Z</time>
		</rtept>
		<rtept lat="52.89303860053651" lon="5.646878778934479">
			<time>2026-08-07T15:48:34Z</time>
		</rtept>
		<rtept lat="52.89317938282155" lon="5.646559596061707">
			<time>2026-08-07T15:48:34Z</time>
		</rtept>
		<rtept lat="52.89325220106543" lon="5.646401345729829">
			<time>2026-08-07T15:48:34Z</time>
		</rtept>
		<rtept lat="52.89333735780101" lon="5.646246448159218">
			<time>2026-08-07T15:48:34Z</time>
		</rtept>
		<rtept lat="52.89333149190299" lon="5.646231025457383">
			<time>2026-08-07T15:48:34Z</time>
		</rtept>
		<rtept lat="52.893324816914586" lon="5.646204538643361">
			<time>2026-08-07T15:48:34Z</time>
		</rtept>
		<rtept lat="52.89331895101486" lon="5.646168328821659">
			<time>2026-08-07T15:48:34Z</time>
		</rtept>
		<rtept lat="52.89331429874898" lon="5.646122731268406">
			<time>2026-08-07T15:48:34Z</time>
		</rtept>
		<rtept lat="52.89330317376337" lon="5.645925253629685">
			<time>2026-08-07T15:48:34Z</time>
		</rtept>
		<rtept lat="52.893289419231735" lon="5.645744204521179">
			<time>2026-08-07T15:48:34Z</time>
		</rtept>
		<rtept lat="52.893265955608875" lon="5.645568519830704">
			<time>2026-08-07T15:48:34Z</time>
		</rtept>
		<rtept lat="52.89322954651378" lon="5.645400881767274">
			<time>2026-08-07T15:48:34Z</time>
		</rtept>
	</rte>
</gpx>
