<?xml version="1.0" encoding="UTF-8"?>
<gpx xmlns:xsi="http://www.w3.org/2001/XMLSchema-instance" xmlns="http://www.topografix.com/GPX/1/1" xsi:schemaLocation="http://www.topografix.com/GPX/1/1 http://www.topografix.com/GPX/1/1/gpx.xsd" version="1.1" creator="Waterkaarten">
	<metadata>
		<name>T7 Sloten - Woudsend - Heeg -Uitwellingerga- SN38A</name>
		<time>2026-08-07T15:47:31Z</time>
	</metadata>
	<rte>
		<name>T7 Sloten - Woudsend - Heeg -Uitwellingerga- SN38A</name>
		<rtept lat="52.89322954651378" lon="5.645400881767274">
			<time>2026-08-07T15:47:32Z</time>
		</rtept>
		<rtept lat="52.893265955608875" lon="5.645568519830704">
			<time>2026-08-07T15:47:32Z</time>
		</rtept>
		<rtept lat="52.893289419231735" lon="5.645744204521179">
			<time>2026-08-07T15:47:32Z</time>
		</rtept>
		<rtept lat="52.89330317376337" lon="5.645925253629685">
			<time>2026-08-07T15:47:32Z</time>
		</rtept>
		<rtept lat="52.89331429874898" lon="5.646122731268406">
			<time>2026-08-07T15:47:32Z</time>
		</rtept>
		<rtept lat="52.89331895101486" lon="5.646168328821659">
			<time>2026-08-07T15:47:32Z</time>
		</rtept>
		<rtept lat="52.893324816914586" lon="5.646204538643361">
			<time>2026-08-07T15:47:32Z</time>
		</rtept>
		<rtept lat="52.89333149190299" lon="5.646231025457383">
			<time>2026-08-07T15:47:32Z</time>
		</rtept>
		<rtept lat="52.89333735780101" lon="5.646246448159218">
			<time>2026-08-07T15:47:32Z</time>
		</rtept>
		<rtept lat="52.89325220106543" lon="5.646401345729829">
			<time>2026-08-07T15:47:32Z</time>
		</rtept>
		<rtept lat="52.89317938282155" lon="5.646559596061707">
			<time>2026-08-07T15:47:32Z</time>
		</rtept>
		<rtept lat="52.89303860053651" lon="5.646878778934479">
			<time>2026-08-07T15:47:32Z</time>
		</rtept>
		<rtept lat="52.89297710928" lon="5.646996796131135">
			<time>2026-08-07T15:47:32Z</time>
		</rtept>
		<rtept lat="52.8929008662521" lon="5.64709762885753">
			<time>2026-08-07T15:47:32Z</time>
		</rtept>
		<rtept lat="52.893049927863714" lon="5.647122859954835">
			<time>2026-08-07T15:47:32Z</time>
		</rtept>
		<rtept lat="52.893195564664104" lon="5.647179186344147">
			<time>2026-08-07T15:47:32Z</time>
		</rtept>
		<rtept lat="52.89335576457934" lon="5.647275745868684">
			<time>2026-08-07T15:47:32Z</time>
		</rtept>
		<rtept lat="52.895004656566925" lon="5.648085772991181">
			<time>2026-08-07T15:47:32Z</time>
		</rtept>
		<rtept lat="52.89526031820572" lon="5.648222565650941">
			<time>2026-08-07T15:47:32Z</time>
		</rtept>
		<rtept lat="52.89551274214163" lon="5.648413002490998">
			<time>2026-08-07T15:47:32Z</time>
		</rtept>
		<rtept lat="52.89559364693815" lon="5.648463964462281">
			<time>2026-08-07T15:47:32Z</time>
		</rtept>
		<rtept lat="52.895679405857585" lon="5.64849615097046">
			<time>2026-08-07T15:47:32Z</time>
		</rtept>
		<rtept lat="52.895778109309525" lon="5.6485041975975046">
			<time>2026-08-07T15:47:32Z</time>
		</rtept>
		<rtept lat="52.8958703402008" lon="5.648472011089326">
			<time>2026-08-07T15:47:32Z</time>
		</rtept>
		<rtept lat="52.89594477200503" lon="5.648418366909028">
			<time>2026-08-07T15:47:32Z</time>
		</rtept>
		<rtept lat="52.896019203681426" lon="5.648324489593507">
			<time>2026-08-07T15:47:32Z</time>
		</rtept>
		<rtept lat="52.896090399078346" lon="5.648168921470643">
			<time>2026-08-07T15:47:32Z</time>
		</rtept>
		<rtept lat="52.89614217747539" lon="5.64799189567566">
			<time>2026-08-07T15:47:32Z</time>
		</rtept>
		<rtept lat="52.89617615701481" lon="5.6477800011634836">
			<time>2026-08-07T15:47:32Z</time>
		</rtept>
		<rtept lat="52.896185865449766" lon="5.647549331188202">
			<time>2026-08-07T15:47:32Z</time>
		</rtept>
		<rtept lat="52.89620851845617" lon="5.647299885749818">
			<time>2026-08-07T15:47:32Z</time>
		</rtept>
		<rtept lat="52.89624735215393" lon="5.6470584869384775">
			<time>2026-08-07T15:47:32Z</time>
		</rtept>
		<rtept lat="52.8963" lon="5.6468">
			<time>2026-08-07T15:47:32Z</time>
		</rtept>
		<rtept lat="52.896464172993404" lon="5.646229684352876">
			<time>2026-08-07T15:47:32Z</time>
		</rtept>
		<rtept lat="52.89665348582442" lon="5.645663738250733">
			<time>2026-08-07T15:47:32Z</time>
		</rtept>
		<rtept lat="52.896805582713476" lon="5.645258724689484">
			<time>2026-08-07T15:47:32Z</time>
		</rtept>
		<rtept lat="52.896991657968776" lon="5.644867122173309">
			<time>2026-08-07T15:47:32Z</time>
		</rtept>
		<rtept lat="52.897130809376684" lon="5.6446364521980295">
			<time>2026-08-07T15:47:32Z</time>
		</rtept>
		<rtept lat="52.8976" lon="5.6442">
			<time>2026-08-07T15:47:32Z</time>
		</rtept>
		<rtept lat="52.8978" lon="5.6441">
			<time>2026-08-07T15:47:32Z</time>
		</rtept>
		<rtept lat="52.9005" lon="5.6426">
			<time>2026-08-07T15:47:32Z</time>
		</rtept>
		<rtept lat="52.9007" lon="5.6425">
			<time>2026-08-07T15:47:32Z</time>
		</rtept>
		<rtept lat="52.9037" lon="5.6399">
			<time>2026-08-07T15:47:32Z</time>
		</rtept>
		<rtept lat="52.9042" lon="5.6395">
			<time>2026-08-07T15:47:32Z</time>
		</rtept>
		<rtept lat="52.9047" lon="5.6387">
			<time>2026-08-07T15:47:32Z</time>
		</rtept>
		<rtept lat="52.9049" lon="5.6386">
			<time>2026-08-07T15:47:32Z</time>
		</rtept>
		<rtept lat="52.9064" lon="5.6385">
			<time>2026-08-07T15:47:32Z</time>
		</rtept>
		<rtept lat="52.9091" lon="5.6381">
			<time>2026-08-07T15:47:32Z</time>
		</rtept>
		<rtept lat="52.91471853784431" lon="5.636630058288575">
			<time>2026-08-07T15:47:32Z</time>
		</rtept>
		<rtept lat="52.92020142272492" lon="5.635250000000007">
			<time>2026-08-07T15:47:32Z</time>
		</rtept>
		<rtept lat="52.9313" lon="5.6324">
			<time>2026-08-07T15:47:32Z</time>
		</rtept>
		<rtept lat="52.9329" lon="5.6315">
			<time>2026-08-07T15:47:32Z</time>
		</rtept>
		<rtept lat="52.9336" lon="5.6313">
			<time>2026-08-07T15:47:32Z</time>
		</rtept>
		<rtept lat="52.9354" lon="5.6303">
			<time>2026-08-07T15:47:32Z</time>
		</rtept>
		<rtept lat="52.9356" lon="5.6303">
			<time>2026-08-07T15:47:32Z</time>
		</rtept>
		<rtept lat="52.9359" lon="5.6302">
			<time>2026-08-07T15:47:32Z</time>
		</rtept>
		<rtept lat="52.9361" lon="5.6302">
			<time>2026-08-07T15:47:32Z</time>
		</rtept>
		<rtept lat="52.937" lon="5.6303">
			<time>2026-08-07T15:47:32Z</time>
		</rtept>
		<rtept lat="52.9388" lon="5.6303">
			<time>2026-08-07T15:47:32Z</time>
		</rtept>
		<rtept lat="52.9392" lon="5.6303">
			<time>2026-08-07T15:47:32Z</time>
		</rtept>
		<rtept lat="52.93945859965288" lon="5.630305409431458">
			<time>2026-08-07T15:47:32Z</time>
		</rtept>
		<rtept lat="52.9398" lon="5.6303">
			<time>2026-08-07T15:47:32Z</time>
		</rtept>
		<rtept lat="52.9418" lon="5.6298">
			<time>2026-08-07T15:47:32Z</time>
		</rtept>
		<rtept lat="52.9419" lon="5.6298">
			<time>2026-08-07T15:47:32Z</time>
		</rtept>
		<rtept lat="52.942" lon="5.6298">
			<time>2026-08-07T15:47:32Z</time>
		</rtept>
		<rtept lat="52.9422" lon="5.6299">
			<time>2026-08-07T15:47:32Z</time>
		</rtept>
		<rtept lat="52.9432" lon="5.6304">
			<time>2026-08-07T15:47:32Z</time>
		</rtept>
		<rtept lat="52.9433" lon="5.6304">
			<time>2026-08-07T15:47:32Z</time>
		</rtept>
		<rtept lat="52.943411534768615" lon="5.630439547450983">
			<time>2026-08-07T15:47:32Z</time>
		</rtept>
		<rtept lat="52.94356945666964" lon="5.630481098604628">
			<time>2026-08-07T15:47:32Z</time>
		</rtept>
		<rtept lat="52.9437" lon="5.6305">
			<time>2026-08-07T15:47:32Z</time>
		</rtept>
		<rtept lat="52.944712568739" lon="5.63084638684649">
			<time>2026-08-07T15:47:32Z</time>
		</rtept>
		<rtept lat="52.945081921755" lon="5.63038728764974">
			<time>2026-08-07T15:47:32Z</time>
		</rtept>
		<rtept lat="52.94545801007151" lon="5.629975221682756">
			<time>2026-08-07T15:47:32Z</time>
		</rtept>
		<rtept lat="52.9456763087919" lon="5.62973603825877">
			<time>2026-08-07T15:47:32Z</time>
		</rtept>
		<rtept lat="52.9464229422764" lon="5.62929310853589">
			<time>2026-08-07T15:47:32Z</time>
		</rtept>
		<rtept lat="52.94659922362429" lon="5.629124917390219">
			<time>2026-08-07T15:47:32Z</time>
		</rtept>
		<rtept lat="52.9469182084197" lon="5.62882057024325">
			<time>2026-08-07T15:47:32Z</time>
		</rtept>
		<rtept lat="52.9472247425933" lon="5.62831645471952">
			<time>2026-08-07T15:47:32Z</time>
		</rtept>
		<rtept lat="52.9476502888716" lon="5.62788591244932">
			<time>2026-08-07T15:47:32Z</time>
		</rtept>
		<rtept lat="52.9481702352774" lon="5.62773543370127">
			<time>2026-08-07T15:47:32Z</time>
		</rtept>
		<rtept lat="52.948485969966434" lon="5.627768039703369">
			<time>2026-08-07T15:47:32Z</time>
		</rtept>
		<rtept lat="52.94864111710969" lon="5.627751946449281">
			<time>2026-08-07T15:47:32Z</time>
		</rtept>
		<rtept lat="52.94876394153679" lon="5.627725124359131">
			<time>2026-08-07T15:47:32Z</time>
		</rtept>
		<rtept lat="52.948839898573745" lon="5.6276848912239075">
			<time>2026-08-07T15:47:32Z</time>
		</rtept>
		<rtept lat="52.94890292665211" lon="5.627633929252625">
			<time>2026-08-07T15:47:32Z</time>
		</rtept>
		<rtept lat="52.948965954638595" lon="5.627558827400208">
			<time>2026-08-07T15:47:32Z</time>
		</rtept>
		<rtept lat="52.94901928594006" lon="5.627467632293701">
			<time>2026-08-07T15:47:32Z</time>
		</rtept>
		<rtept lat="52.94905645620222" lon="5.627363026142121">
			<time>2026-08-07T15:47:32Z</time>
		</rtept>
		<rtept lat="52.949083929853714" lon="5.62725841999054">
			<time>2026-08-07T15:47:32Z</time>
		</rtept>
		<rtept lat="52.94910009081702" lon="5.627137720584869">
			<time>2026-08-07T15:47:32Z</time>
		</rtept>
		<rtept lat="52.9491081712964" lon="5.626987516880035">
			<time>2026-08-07T15:47:32Z</time>
		</rtept>
		<rtept lat="52.94910009081702" lon="5.626829266548157">
			<time>2026-08-07T15:47:32Z</time>
		</rtept>
		<rtept lat="52.94899666054748" lon="5.625965595245362">
			<time>2026-08-07T15:47:32Z</time>
		</rtept>
		<rtept lat="52.94897726734441" lon="5.625729560852052">
			<time>2026-08-07T15:47:32Z</time>
		</rtept>
		<rtept lat="52.948970802941446" lon="5.6256115436553955">
			<time>2026-08-07T15:47:32Z</time>
		</rtept>
		<rtept lat="52.948970802941446" lon="5.625501573085785">
			<time>2026-08-07T15:47:32Z</time>
		</rtept>
		<rtept lat="52.94899827664734" lon="5.625249445438386">
			<time>2026-08-07T15:47:32Z</time>
		</rtept>
		<rtept lat="52.94905322400678" lon="5.6250107288360605">
			<time>2026-08-07T15:47:32Z</time>
		</rtept>
		<rtept lat="52.94911948396502" lon="5.624812245368958">
			<time>2026-08-07T15:47:32Z</time>
		</rtept>
		<rtept lat="52.9491999273212" lon="5.62466750389075">
			<time>2026-08-07T15:47:32Z</time>
		</rtept>
		<rtept lat="52.94931664714284" lon="5.624506473541261">
			<time>2026-08-07T15:47:32Z</time>
		</rtept>
		<rtept lat="52.949468559142275" lon="5.624377727508546">
			<time>2026-08-07T15:47:32Z</time>
		</rtept>
		<rtept lat="52.94995338110397" lon="5.624141693115235">
			<time>2026-08-07T15:47:32Z</time>
		</rtept>
		<rtept lat="52.9508433199888" lon="5.62372933513035">
			<time>2026-08-07T15:47:32Z</time>
		</rtept>
		<rtept lat="52.9511065859161" lon="5.62328779477212">
			<time>2026-08-07T15:47:32Z</time>
		</rtept>
		<rtept lat="52.9511541538034" lon="5.62264914448041">
			<time>2026-08-07T15:47:32Z</time>
		</rtept>
		<rtept lat="52.9511102112152" lon="5.62198494740446">
			<time>2026-08-07T15:47:32Z</time>
		</rtept>
		<rtept lat="52.9506382236621" lon="5.61979537302742">
			<time>2026-08-07T15:47:32Z</time>
		</rtept>
		<rtept lat="52.9506570907601" lon="5.61897495987284">
			<time>2026-08-07T15:47:32Z</time>
		</rtept>
		<rtept lat="52.9509668234987" lon="5.61843993699825">
			<time>2026-08-07T15:47:32Z</time>
		</rtept>
		<rtept lat="52.9516361959423" lon="5.61817085980804">
			<time>2026-08-07T15:47:32Z</time>
		</rtept>
		<rtept lat="52.9527479780529" lon="5.61792968215572">
			<time>2026-08-07T15:47:32Z</time>
		</rtept>
		<rtept lat="52.9535627342783" lon="5.61766835955626">
			<time>2026-08-07T15:47:32Z</time>
		</rtept>
		<rtept lat="52.9544343540751" lon="5.61767294859775">
			<time>2026-08-07T15:47:32Z</time>
		</rtept>
		<rtept lat="52.9547671702718" lon="5.61749614993819">
			<time>2026-08-07T15:47:32Z</time>
		</rtept>
		<rtept lat="52.9548574845262" lon="5.61725855662816">
			<time>2026-08-07T15:47:32Z</time>
		</rtept>
		<rtept lat="52.9549121969942" lon="5.61684222385248">
			<time>2026-08-07T15:47:32Z</time>
		</rtept>
		<rtept lat="52.9548076577283" lon="5.61511568111858">
			<time>2026-08-07T15:47:32Z</time>
		</rtept>
		<rtept lat="52.954808701881" lon="5.61456515389398">
			<time>2026-08-07T15:47:32Z</time>
		</rtept>
		<rtept lat="52.9548719122078" lon="5.61440181010198">
			<time>2026-08-07T15:47:32Z</time>
		</rtept>
		<rtept lat="52.9549712342307" lon="5.61414937723641">
			<time>2026-08-07T15:47:32Z</time>
		</rtept>
		<rtept lat="52.9553130590615" lon="5.61395771682473">
			<time>2026-08-07T15:47:32Z</time>
		</rtept>
		<rtept lat="52.9557173342911" lon="5.61400444977564">
			<time>2026-08-07T15:47:32Z</time>
		</rtept>
		<rtept lat="52.958068493876006" lon="5.614013671875001">
			<time>2026-08-07T15:47:32Z</time>
		</rtept>
		<rtept lat="52.959361083303264" lon="5.613670349121095">
			<time>2026-08-07T15:47:32Z</time>
		</rtept>
		<rtept lat="52.96061485812971" lon="5.612736940383912">
			<time>2026-08-07T15:47:32Z</time>
		</rtept>
		<rtept lat="52.96253422647805" lon="5.6116533279418945">
			<time>2026-08-07T15:47:32Z</time>
		</rtept>
		<rtept lat="52.964299262725206" lon="5.610412916544379">
			<time>2026-08-07T15:47:32Z</time>
		</rtept>
		<rtept lat="52.96496078065914" lon="5.613327026367188">
			<time>2026-08-07T15:47:32Z</time>
		</rtept>
		<rtept lat="52.96601407603345" lon="5.619852840900421">
			<time>2026-08-07T15:47:32Z</time>
		</rtept>
		<rtept lat="52.96633878308239" lon="5.621741116046906">
			<time>2026-08-07T15:47:32Z</time>
		</rtept>
		<rtept lat="52.9674195068858" lon="5.628100135706707">
			<time>2026-08-07T15:47:32Z</time>
		</rtept>
		<rtept lat="52.9676" lon="5.629">
			<time>2026-08-07T15:47:32Z</time>
		</rtept>
		<rtept lat="52.96754873961266" lon="5.629549026489259">
			<time>2026-08-07T15:47:32Z</time>
		</rtept>
		<rtept lat="52.96755197042588" lon="5.630064010620118">
			<time>2026-08-07T15:47:32Z</time>
		</rtept>
		<rtept lat="52.96758589395014" lon="5.6307533383369455">
			<time>2026-08-07T15:47:32Z</time>
		</rtept>
		<rtept lat="52.96750189279381" lon="5.631928145885468">
			<time>2026-08-07T15:47:32Z</time>
		</rtept>
		<rtept lat="52.967353274963536" lon="5.633414089679719">
			<time>2026-08-07T15:47:32Z</time>
		</rtept>
		<rtept lat="52.96710800724846" lon="5.6345649186153866">
			<time>2026-08-07T15:47:32Z</time>
		</rtept>
		<rtept lat="52.9658745389798" lon="5.63941778577036">
			<time>2026-08-07T15:47:32Z</time>
		</rtept>
		<rtept lat="52.9656" lon="5.6415">
			<time>2026-08-07T15:47:32Z</time>
		</rtept>
		<rtept lat="52.9656153794812" lon="5.64298820104998">
			<time>2026-08-07T15:47:32Z</time>
		</rtept>
		<rtept lat="52.9657190690565" lon="5.64492359623166">
			<time>2026-08-07T15:47:32Z</time>
		</rtept>
		<rtept lat="52.9660673556716" lon="5.65041568587336">
			<time>2026-08-07T15:47:32Z</time>
		</rtept>
		<rtept lat="52.966107772845184" lon="5.651822090148927">
			<time>2026-08-07T15:47:32Z</time>
		</rtept>
		<rtept lat="52.9662237836771" lon="5.65386618825397">
			<time>2026-08-07T15:47:32Z</time>
		</rtept>
		<rtept lat="52.9662929732415" lon="5.65482351002241">
			<time>2026-08-07T15:47:32Z</time>
		</rtept>
		<rtept lat="52.9664052507371" lon="5.65573286284183">
			<time>2026-08-07T15:47:32Z</time>
		</rtept>
		<rtept lat="52.9666432686594" lon="5.65764910685875">
			<time>2026-08-07T15:47:32Z</time>
		</rtept>
		<rtept lat="52.9667615595097" lon="5.65896116592093">
			<time>2026-08-07T15:47:32Z</time>
		</rtept>
		<rtept lat="52.96698657443566" lon="5.665791034698487">
			<time>2026-08-07T15:47:32Z</time>
		</rtept>
		<rtept lat="52.9670841261242" lon="5.67304650356633">
			<time>2026-08-07T15:47:32Z</time>
		</rtept>
		<rtept lat="52.9670732990306" lon="5.67755612439188">
			<time>2026-08-07T15:47:32Z</time>
		</rtept>
		<rtept lat="52.9671778424431" lon="5.68491867852281">
			<time>2026-08-07T15:47:32Z</time>
		</rtept>
		<rtept lat="52.9669302631618" lon="5.68819682465005">
			<time>2026-08-07T15:47:32Z</time>
		</rtept>
		<rtept lat="52.9667" lon="5.6909">
			<time>2026-08-07T15:47:32Z</time>
		</rtept>
		<rtept lat="52.96960009728585" lon="5.6906999999999925">
			<time>2026-08-07T15:47:32Z</time>
		</rtept>
		<rtept lat="52.9725" lon="5.6905">
			<time>2026-08-07T15:47:32Z</time>
		</rtept>
		<rtept lat="52.9732" lon="5.6904">
			<time>2026-08-07T15:47:32Z</time>
		</rtept>
		<rtept lat="52.9744" lon="5.6902">
			<time>2026-08-07T15:47:32Z</time>
		</rtept>
		<rtept lat="52.9752" lon="5.69">
			<time>2026-08-07T15:47:32Z</time>
		</rtept>
		<rtept lat="52.9762" lon="5.6897">
			<time>2026-08-07T15:47:32Z</time>
		</rtept>
		<rtept lat="52.9783" lon="5.6887">
			<time>2026-08-07T15:47:32Z</time>
		</rtept>
		<rtept lat="52.9799" lon="5.688">
			<time>2026-08-07T15:47:32Z</time>
		</rtept>
		<rtept lat="52.9808" lon="5.6876">
			<time>2026-08-07T15:47:32Z</time>
		</rtept>
		<rtept lat="52.9812" lon="5.6875">
			<time>2026-08-07T15:47:32Z</time>
		</rtept>
		<rtept lat="52.9816" lon="5.6875">
			<time>2026-08-07T15:47:32Z</time>
		</rtept>
		<rtept lat="52.982" lon="5.6875">
			<time>2026-08-07T15:47:32Z</time>
		</rtept>
		<rtept lat="52.9824" lon="5.6875">
			<time>2026-08-07T15:47:32Z</time>
		</rtept>
		<rtept lat="52.9831" lon="5.6876">
			<time>2026-08-07T15:47:32Z</time>
		</rtept>
		<rtept lat="52.9836" lon="5.6877">
			<time>2026-08-07T15:47:32Z</time>
		</rtept>
		<rtept lat="52.9842" lon="5.6879">
			<time>2026-08-07T15:47:32Z</time>
		</rtept>
		<rtept lat="52.9846" lon="5.6881">
			<time>2026-08-07T15:47:32Z</time>
		</rtept>
		<rtept lat="52.985" lon="5.6882">
			<time>2026-08-07T15:47:32Z</time>
		</rtept>
		<rtept lat="52.9857" lon="5.6887">
			<time>2026-08-07T15:47:32Z</time>
		</rtept>
		<rtept lat="52.9868" lon="5.6895">
			<time>2026-08-07T15:47:32Z</time>
		</rtept>
		<rtept lat="52.9878" lon="5.6905">
			<time>2026-08-07T15:47:32Z</time>
		</rtept>
		<rtept lat="52.9882" lon="5.6909">
			<time>2026-08-07T15:47:32Z</time>
		</rtept>
		<rtept lat="52.9895553099222" lon="5.69223920969155">
			<time>2026-08-07T15:47:32Z</time>
		</rtept>
		<rtept lat="52.9898" lon="5.6926">
			<time>2026-08-07T15:47:32Z</time>
		</rtept>
		<rtept lat="52.9903" lon="5.6932">
			<time>2026-08-07T15:47:32Z</time>
		</rtept>
		<rtept lat="52.991" lon="5.694">
			<time>2026-08-07T15:47:32Z</time>
		</rtept>
		<rtept lat="52.9966" lon="5.7004">
			<time>2026-08-07T15:47:32Z</time>
		</rtept>
		<rtept lat="52.9975" lon="5.7021">
			<time>2026-08-07T15:47:32Z</time>
		</rtept>
		<rtept lat="52.99885002110486" lon="5.704700000000003">
			<time>2026-08-07T15:47:32Z</time>
		</rtept>
		<rtept lat="52.99960670540533" lon="5.7059718668460695">
			<time>2026-08-07T15:47:32Z</time>
		</rtept>
		<rtept lat="53.0002" lon="5.7073">
			<time>2026-08-07T15:47:32Z</time>
		</rtept>
		<rtept lat="53.0033" lon="5.7136">
			<time>2026-08-07T15:47:32Z</time>
		</rtept>
		<rtept lat="53.005" lon="5.7167">
			<time>2026-08-07T15:47:32Z</time>
		</rtept>
		<rtept lat="53.0054" lon="5.7199">
			<time>2026-08-07T15:47:32Z</time>
		</rtept>
		<rtept lat="53.005384377715885" lon="5.7204169092701695">
			<time>2026-08-07T15:47:32Z</time>
		</rtept>
		<rtept lat="53.0053" lon="5.7208">
			<time>2026-08-07T15:47:32Z</time>
		</rtept>
		<rtept lat="53.0051544096215" lon="5.72144918814794">
			<time>2026-08-07T15:47:32Z</time>
		</rtept>
		<rtept lat="53.00505410039733" lon="5.722062808003075">
			<time>2026-08-07T15:47:32Z</time>
		</rtept>
		<rtept lat="53.00504543836515" lon="5.722401473685813">
			<time>2026-08-07T15:47:32Z</time>
		</rtept>
		<rtept lat="53.0050648707997" lon="5.722993806594655">
			<time>2026-08-07T15:47:32Z</time>
		</rtept>
		<rtept lat="53.0050816654586" lon="5.72323816034333">
			<time>2026-08-07T15:47:32Z</time>
		</rtept>
		<rtept lat="53.00515762365178" lon="5.723987160339195">
			<time>2026-08-07T15:47:32Z</time>
		</rtept>
		<rtept lat="53.005164728485234" lon="5.724407625651363">
			<time>2026-08-07T15:47:32Z</time>
		</rtept>
		<rtept lat="53.0051500269019" lon="5.72543254009253">
			<time>2026-08-07T15:47:32Z</time>
		</rtept>
		<rtept lat="53.0051510183677" lon="5.72588180063956">
			<time>2026-08-07T15:47:32Z</time>
		</rtept>
		<rtept lat="53.005234761589435" lon="5.726597174024174">
			<time>2026-08-07T15:47:32Z</time>
		</rtept>
		<rtept lat="53.0053" lon="5.7271">
			<time>2026-08-07T15:47:32Z</time>
		</rtept>
		<rtept lat="53.0054" lon="5.7277">
			<time>2026-08-07T15:47:32Z</time>
		</rtept>
		<rtept lat="53.0055" lon="5.7287">
			<time>2026-08-07T15:47:32Z</time>
		</rtept>
		<rtept lat="53.005574828395225" lon="5.729480079240924">
			<time>2026-08-07T15:47:32Z</time>
		</rtept>
		<rtept lat="53.0056" lon="5.73">
			<time>2026-08-07T15:47:32Z</time>
		</rtept>
		<rtept lat="53.0056" lon="5.7306">
			<time>2026-08-07T15:47:32Z</time>
		</rtept>
		<rtept lat="53.0056" lon="5.7312">
			<time>2026-08-07T15:47:32Z</time>
		</rtept>
		<rtept lat="53.0056" lon="5.7318">
			<time>2026-08-07T15:47:32Z</time>
		</rtept>
		<rtept lat="53.005566758468255" lon="5.732398331449207">
			<time>2026-08-07T15:47:32Z</time>
		</rtept>
		<rtept lat="53.0054" lon="5.7338">
			<time>2026-08-07T15:47:32Z</time>
		</rtept>
		<rtept lat="53.0053" lon="5.7341">
			<time>2026-08-07T15:47:32Z</time>
		</rtept>
		<rtept lat="53.0051" lon="5.7343">
			<time>2026-08-07T15:47:32Z</time>
		</rtept>
		<rtept lat="53.0047" lon="5.7345">
			<time>2026-08-07T15:47:32Z</time>
		</rtept>
		<rtept lat="53.0042" lon="5.7347">
			<time>2026-08-07T15:47:32Z</time>
		</rtept>
		<rtept lat="53.004" lon="5.7348">
			<time>2026-08-07T15:47:32Z</time>
		</rtept>
		<rtept lat="53.0034" lon="5.7352">
			<time>2026-08-07T15:47:32Z</time>
		</rtept>
		<rtept lat="53.0025" lon="5.7349">
			<time>2026-08-07T15:47:32Z</time>
		</rtept>
		<rtept lat="53.0011" lon="5.7337">
			<time>2026-08-07T15:47:32Z</time>
		</rtept>
	</rte>
</gpx>
