<?xml version="1.0" encoding="UTF-8"?>
<gpx xmlns:xsi="http://www.w3.org/2001/XMLSchema-instance" xmlns="http://www.topografix.com/GPX/1/1" xsi:schemaLocation="http://www.topografix.com/GPX/1/1 http://www.topografix.com/GPX/1/1/gpx.xsd" version="1.1" creator="Waterkaarten">
	<metadata>
		<name>T3 Workum - Bolsward - Sloten</name>
		<time>2026-08-09T07:33:34Z</time>
	</metadata>
	<rte>
		<name>T3 Workum - Bolsward - Sloten</name>
		<rtept lat="52.97703982705066" lon="5.442320192232729">
			<time>2026-08-09T07:33:34Z</time>
		</rtept>
		<rtept lat="52.97688478178447" lon="5.442620599642397">
			<time>2026-08-09T07:33:34Z</time>
		</rtept>
		<rtept lat="52.976760422158506" lon="5.442902147769928">
			<time>2026-08-09T07:33:34Z</time>
		</rtept>
		<rtept lat="52.97686055591138" lon="5.443119406700134">
			<time>2026-08-09T07:33:34Z</time>
		</rtept>
		<rtept lat="52.9771" lon="5.4435">
			<time>2026-08-09T07:33:34Z</time>
		</rtept>
		<rtept lat="52.97724655320692" lon="5.443693399997068">
			<time>2026-08-09T07:33:34Z</time>
		</rtept>
		<rtept lat="52.97751141964922" lon="5.443977715855884">
			<time>2026-08-09T07:33:34Z</time>
		</rtept>
		<rtept lat="52.97797977706743" lon="5.444417594160106">
			<time>2026-08-09T07:33:34Z</time>
		</rtept>
		<rtept lat="52.97808636804656" lon="5.444540972936061">
			<time>2026-08-09T07:33:34Z</time>
		</rtept>
		<rtept lat="52.97860236156915" lon="5.445059984489635">
			<time>2026-08-09T07:33:34Z</time>
		</rtept>
		<rtept lat="52.9795" lon="5.4463">
			<time>2026-08-09T07:33:34Z</time>
		</rtept>
		<rtept lat="52.9799" lon="5.4468">
			<time>2026-08-09T07:33:34Z</time>
		</rtept>
		<rtept lat="52.9801" lon="5.4469">
			<time>2026-08-09T07:33:34Z</time>
		</rtept>
		<rtept lat="52.980218132412254" lon="5.446971051464825">
			<time>2026-08-09T07:33:34Z</time>
		</rtept>
		<rtept lat="52.98059037290337" lon="5.447519568425118">
			<time>2026-08-09T07:33:34Z</time>
		</rtept>
		<rtept lat="52.98083826229746" lon="5.448049301759794">
			<time>2026-08-09T07:33:34Z</time>
		</rtept>
		<rtept lat="52.98105465969374" lon="5.448623297327711">
			<time>2026-08-09T07:33:34Z</time>
		</rtept>
		<rtept lat="52.9812" lon="5.4494">
			<time>2026-08-09T07:33:34Z</time>
		</rtept>
		<rtept lat="52.981261366642244" lon="5.449932214191487">
			<time>2026-08-09T07:33:34Z</time>
		</rtept>
		<rtept lat="52.98139055798286" lon="5.4504901074213805">
			<time>2026-08-09T07:33:34Z</time>
		</rtept>
		<rtept lat="52.98157788474056" lon="5.450897812843324">
			<time>2026-08-09T07:33:34Z</time>
		</rtept>
		<rtept lat="52.9817" lon="5.4511">
			<time>2026-08-09T07:33:34Z</time>
		</rtept>
		<rtept lat="52.9821" lon="5.4514">
			<time>2026-08-09T07:33:34Z</time>
		</rtept>
		<rtept lat="52.98247171287043" lon="5.4517185667822154">
			<time>2026-08-09T07:33:34Z</time>
		</rtept>
		<rtept lat="52.98270828759121" lon="5.4519116867154604">
			<time>2026-08-09T07:33:34Z</time>
		</rtept>
		<rtept lat="52.983" lon="5.4522">
			<time>2026-08-09T07:33:34Z</time>
		</rtept>
		<rtept lat="52.9833" lon="5.4525">
			<time>2026-08-09T07:33:34Z</time>
		</rtept>
		<rtept lat="52.9838" lon="5.4532">
			<time>2026-08-09T07:33:34Z</time>
		</rtept>
		<rtept lat="52.98388064558882" lon="5.453392267794919">
			<time>2026-08-09T07:33:34Z</time>
		</rtept>
		<rtept lat="52.9839" lon="5.4536">
			<time>2026-08-09T07:33:34Z</time>
		</rtept>
		<rtept lat="52.98387418640326" lon="5.4538965230897185">
			<time>2026-08-09T07:33:34Z</time>
		</rtept>
		<rtept lat="52.9837" lon="5.4544">
			<time>2026-08-09T07:33:34Z</time>
		</rtept>
		<rtept lat="52.9833" lon="5.4553">
			<time>2026-08-09T07:33:34Z</time>
		</rtept>
		<rtept lat="52.9826" lon="5.4567">
			<time>2026-08-09T07:33:34Z</time>
		</rtept>
		<rtept lat="52.9823" lon="5.4572">
			<time>2026-08-09T07:33:34Z</time>
		</rtept>
		<rtept lat="52.98211402235131" lon="5.457372657456832">
			<time>2026-08-09T07:33:34Z</time>
		</rtept>
		<rtept lat="52.9819" lon="5.4577">
			<time>2026-08-09T07:33:34Z</time>
		</rtept>
		<rtept lat="52.981639250225975" lon="5.458606480984378">
			<time>2026-08-09T07:33:34Z</time>
		</rtept>
		<rtept lat="52.9815" lon="5.4593">
			<time>2026-08-09T07:33:34Z</time>
		</rtept>
		<rtept lat="52.981329999590066" lon="5.459766531180522">
			<time>2026-08-09T07:33:34Z</time>
		</rtept>
		<rtept lat="52.98114832390232" lon="5.460124609015825">
			<time>2026-08-09T07:33:34Z</time>
		</rtept>
		<rtept lat="52.980481365716365" lon="5.461538135139815">
			<time>2026-08-09T07:33:34Z</time>
		</rtept>
		<rtept lat="52.980161609714486" lon="5.462238192269759">
			<time>2026-08-09T07:33:34Z</time>
		</rtept>
		<rtept lat="52.979856385868864" lon="5.462940930756083">
			<time>2026-08-09T07:33:34Z</time>
		</rtept>
		<rtept lat="52.979630292741206" lon="5.4634398216328535">
			<time>2026-08-09T07:33:34Z</time>
		</rtept>
		<rtept lat="52.97941388821092" lon="5.463938712509623">
			<time>2026-08-09T07:33:34Z</time>
		</rtept>
		<rtept lat="52.979275001150285" lon="5.464255219378575">
			<time>2026-08-09T07:33:34Z</time>
		</rtept>
		<rtept lat="52.979691660992835" lon="5.464845299720764">
			<time>2026-08-09T07:33:34Z</time>
		</rtept>
		<rtept lat="52.98088347975341" lon="5.466615557670594">
			<time>2026-08-09T07:33:34Z</time>
		</rtept>
		<rtept lat="52.9810966471227" lon="5.467087626457214">
			<time>2026-08-09T07:33:34Z</time>
		</rtept>
		<rtept lat="52.98128720494129" lon="5.467578470706941">
			<time>2026-08-09T07:33:34Z</time>
		</rtept>
		<rtept lat="52.981439004636" lon="5.467878878116608">
			<time>2026-08-09T07:33:34Z</time>
		</rtept>
		<rtept lat="52.98161341213748" lon="5.4681336879730225">
			<time>2026-08-09T07:33:34Z</time>
		</rtept>
		<rtept lat="52.981929927656694" lon="5.4685065150260925">
			<time>2026-08-09T07:33:34Z</time>
		</rtept>
		<rtept lat="52.98253226966295" lon="5.469037592411042">
			<time>2026-08-09T07:33:34Z</time>
		</rtept>
		<rtept lat="52.982769651471024" lon="5.469219982624055">
			<time>2026-08-09T07:33:34Z</time>
		</rtept>
		<rtept lat="52.98296020191066" lon="5.46933263540268">
			<time>2026-08-09T07:33:34Z</time>
		</rtept>
		<rtept lat="52.98321211476117" lon="5.469472110271455">
			<time>2026-08-09T07:33:34Z</time>
		</rtept>
		<rtept lat="52.98373672663171" lon="5.469751730561256">
			<time>2026-08-09T07:33:34Z</time>
		</rtept>
		<rtept lat="52.98428272798841" lon="5.4699642956256875">
			<time>2026-08-09T07:33:34Z</time>
		</rtept>
		<rtept lat="52.984694495241826" lon="5.470198988914491">
			<time>2026-08-09T07:33:34Z</time>
		</rtept>
		<rtept lat="52.985203143489095" lon="5.470562428236009">
			<time>2026-08-09T07:33:34Z</time>
		</rtept>
		<rtept lat="52.9862" lon="5.4712">
			<time>2026-08-09T07:33:34Z</time>
		</rtept>
		<rtept lat="52.98848256982219" lon="5.472655892372132">
			<time>2026-08-09T07:33:34Z</time>
		</rtept>
		<rtept lat="52.98944326056587" lon="5.4732728004455575">
			<time>2026-08-09T07:33:34Z</time>
		</rtept>
		<rtept lat="52.98993247806108" lon="5.473562479019166">
			<time>2026-08-09T07:33:34Z</time>
		</rtept>
		<rtept lat="52.9904" lon="5.4738">
			<time>2026-08-09T07:33:34Z</time>
		</rtept>
		<rtept lat="52.99119505338437" lon="5.474219620227814">
			<time>2026-08-09T07:33:34Z</time>
		</rtept>
		<rtept lat="52.99159706770306" lon="5.474380552768708">
			<time>2026-08-09T07:33:34Z</time>
		</rtept>
		<rtept lat="52.992" lon="5.4745">
			<time>2026-08-09T07:33:34Z</time>
		</rtept>
		<rtept lat="52.99272397946038" lon="5.474659502506256">
			<time>2026-08-09T07:33:34Z</time>
		</rtept>
		<rtept lat="52.99351506040529" lon="5.474793612957002">
			<time>2026-08-09T07:33:34Z</time>
		</rtept>
		<rtept lat="52.99460479103799" lon="5.474981367588044">
			<time>2026-08-09T07:33:34Z</time>
		</rtept>
		<rtept lat="52.995184355091325" lon="5.475069880485535">
			<time>2026-08-09T07:33:34Z</time>
		</rtept>
		<rtept lat="52.99548947064577" lon="5.475091338157654">
			<time>2026-08-09T07:33:34Z</time>
		</rtept>
		<rtept lat="52.995770368774096" lon="5.47508865594864">
			<time>2026-08-09T07:33:34Z</time>
		</rtept>
		<rtept lat="52.99606740848521" lon="5.475059151649476">
			<time>2026-08-09T07:33:34Z</time>
		</rtept>
		<rtept lat="52.99637897511699" lon="5.475008189678192">
			<time>2026-08-09T07:33:34Z</time>
		</rtept>
		<rtept lat="52.99742666196415" lon="5.474866032600404">
			<time>2026-08-09T07:33:34Z</time>
		</rtept>
		<rtept lat="52.99771400460807" lon="5.474812388420105">
			<time>2026-08-09T07:33:34Z</time>
		</rtept>
		<rtept lat="52.99799165972834" lon="5.474753379821778">
			<time>2026-08-09T07:33:34Z</time>
		</rtept>
		<rtept lat="52.99880201504401" lon="5.474554896354676">
			<time>2026-08-09T07:33:34Z</time>
		</rtept>
		<rtept lat="52.99917167407097" lon="5.47443687915802">
			<time>2026-08-09T07:33:34Z</time>
		</rtept>
		<rtept lat="52.99949290358109" lon="5.4742974042892465">
			<time>2026-08-09T07:33:34Z</time>
		</rtept>
		<rtept lat="52.99993680977486" lon="5.474047958850861">
			<time>2026-08-09T07:33:34Z</time>
		</rtept>
		<rtept lat="53.00031130163268" lon="5.473817288875581">
			<time>2026-08-09T07:33:34Z</time>
		</rtept>
		<rtept lat="53.00076488440379" lon="5.473516881465913">
			<time>2026-08-09T07:33:34Z</time>
		</rtept>
		<rtept lat="53.001221690705826" lon="5.473205745220185">
			<time>2026-08-09T07:33:34Z</time>
		</rtept>
		<rtept lat="53.001479953614165" lon="5.47307699918747">
			<time>2026-08-09T07:33:34Z</time>
		</rtept>
		<rtept lat="53.001679306498154" lon="5.473022011760898">
			<time>2026-08-09T07:33:34Z</time>
		</rtept>
		<rtept lat="53.0019867900807" lon="5.473004579544067">
			<time>2026-08-09T07:33:34Z</time>
		</rtept>
		<rtept lat="53.00232736793064" lon="5.473036766052247">
			<time>2026-08-09T07:33:34Z</time>
		</rtept>
		<rtept lat="53.00264211758317" lon="5.47306627035141">
			<time>2026-08-09T07:33:34Z</time>
		</rtept>
		<rtept lat="53.002853563497034" lon="5.473055541515351">
			<time>2026-08-09T07:33:34Z</time>
		</rtept>
		<rtept lat="53.00305532389968" lon="5.4730260372161865">
			<time>2026-08-09T07:33:34Z</time>
		</rtept>
		<rtept lat="53.00351856221619" lon="5.472908020019532">
			<time>2026-08-09T07:33:34Z</time>
		</rtept>
		<rtept lat="53.003818776728394" lon="5.47283560037613">
			<time>2026-08-09T07:33:34Z</time>
		</rtept>
		<rtept lat="53.0041" lon="5.4728">
			<time>2026-08-09T07:33:34Z</time>
		</rtept>
		<rtept lat="53.00436432248709" lon="5.47280341386795">
			<time>2026-08-09T07:33:34Z</time>
		</rtept>
		<rtept lat="53.00459674225451" lon="5.472838282585145">
			<time>2026-08-09T07:33:34Z</time>
		</rtept>
		<rtept lat="53.0048533709607" lon="5.472916066646576">
			<time>2026-08-09T07:33:34Z</time>
		</rtept>
		<rtept lat="53.00509870012137" lon="5.473020672798157">
			<time>2026-08-09T07:33:34Z</time>
		</rtept>
		<rtept lat="53.005815311527265" lon="5.473363995552064">
			<time>2026-08-09T07:33:34Z</time>
		</rtept>
		<rtept lat="53.00648510647699" lon="5.47370731830597">
			<time>2026-08-09T07:33:34Z</time>
		</rtept>
		<rtept lat="53.00669330568129" lon="5.473854839801788">
			<time>2026-08-09T07:33:34Z</time>
		</rtept>
		<rtept lat="53.00687568090337" lon="5.474042594432832">
			<time>2026-08-09T07:33:34Z</time>
		</rtept>
		<rtept lat="53.00720976448855" lon="5.474415421485901">
			<time>2026-08-09T07:33:34Z</time>
		</rtept>
		<rtept lat="53.00740020711427" lon="5.474611222743989">
			<time>2026-08-09T07:33:34Z</time>
		</rtept>
		<rtept lat="53.00749542811205" lon="5.474694371223451">
			<time>2026-08-09T07:33:34Z</time>
		</rtept>
		<rtept lat="53.007605174086194" lon="5.474769473075867">
			<time>2026-08-09T07:33:34Z</time>
		</rtept>
		<rtept lat="53.00793763812837" lon="5.474984049797058">
			<time>2026-08-09T07:33:34Z</time>
		</rtept>
		<rtept lat="53.01070215498506" lon="5.476711392402649">
			<time>2026-08-09T07:33:34Z</time>
		</rtept>
		<rtept lat="53.01113464948475" lon="5.476960837841035">
			<time>2026-08-09T07:33:34Z</time>
		</rtept>
		<rtept lat="53.011428355965016" lon="5.477108359336854">
			<time>2026-08-09T07:33:34Z</time>
		</rtept>
		<rtept lat="53.011699467865" lon="5.477221012115479">
			<time>2026-08-09T07:33:34Z</time>
		</rtept>
		<rtept lat="53.01186568443774" lon="5.477271974086762">
			<time>2026-08-09T07:33:34Z</time>
		</rtept>
		<rtept lat="53.012010921695634" lon="5.4772961139678955">
			<time>2026-08-09T07:33:34Z</time>
		</rtept>
		<rtept lat="53.0122" lon="5.4773">
			<time>2026-08-09T07:33:34Z</time>
		</rtept>
		<rtept lat="53.01254184040153" lon="5.477263927459718">
			<time>2026-08-09T07:33:34Z</time>
		</rtept>
		<rtept lat="53.01287588013037" lon="5.47721564769745">
			<time>2026-08-09T07:33:34Z</time>
		</rtept>
		<rtept lat="53.0135294286434" lon="5.477127134799958">
			<time>2026-08-09T07:33:34Z</time>
		</rtept>
		<rtept lat="53.0142087858652" lon="5.4770198464393625">
			<time>2026-08-09T07:33:34Z</time>
		</rtept>
		<rtept lat="53.014368538148" lon="5.477001070976258">
			<time>2026-08-09T07:33:34Z</time>
		</rtept>
		<rtept lat="53.014515380633796" lon="5.477003753185273">
			<time>2026-08-09T07:33:34Z</time>
		</rtept>
		<rtept lat="53.014641245223935" lon="5.477017164230347">
			<time>2026-08-09T07:33:34Z</time>
		</rtept>
		<rtept lat="53.01476549580537" lon="5.47705739736557">
			<time>2026-08-09T07:33:34Z</time>
		</rtept>
		<rtept lat="53.01488006420631" lon="5.477116405963899">
			<time>2026-08-09T07:33:34Z</time>
		</rtept>
		<rtept lat="53.01508015476856" lon="5.477255880832672">
			<time>2026-08-09T07:33:34Z</time>
		</rtept>
		<rtept lat="53.01541578846693" lon="5.477494597434998">
			<time>2026-08-09T07:33:34Z</time>
		</rtept>
		<rtept lat="53.0156997841727" lon="5.477674305438996">
			<time>2026-08-09T07:33:34Z</time>
		</rtept>
		<rtept lat="53.01584984933065" lon="5.477746725082398">
			<time>2026-08-09T07:33:34Z</time>
		</rtept>
		<rtept lat="53.016003141157476" lon="5.477805733680726">
			<time>2026-08-09T07:33:34Z</time>
		</rtept>
		<rtept lat="53.01614836449105" lon="5.47783523797989">
			<time>2026-08-09T07:33:34Z</time>
		</rtept>
		<rtept lat="53.01633876767683" lon="5.477859377861024">
			<time>2026-08-09T07:33:34Z</time>
		</rtept>
		<rtept lat="53.016711503684526" lon="5.477888882160187">
			<time>2026-08-09T07:33:34Z</time>
		</rtept>
		<rtept lat="53.017047124694166" lon="5.4779183864593515">
			<time>2026-08-09T07:33:34Z</time>
		</rtept>
		<rtept lat="53.017250432305346" lon="5.477950572967529">
			<time>2026-08-09T07:33:34Z</time>
		</rtept>
		<rtept lat="53.01743114937776" lon="5.477990806102754">
			<time>2026-08-09T07:33:34Z</time>
		</rtept>
		<rtept lat="53.01758443558696" lon="5.478036403656006">
			<time>2026-08-09T07:33:34Z</time>
		</rtept>
		<rtept lat="53.01774094831238" lon="5.478108823299409">
			<time>2026-08-09T07:33:34Z</time>
		</rtept>
		<rtept lat="53.01790391456747" lon="5.478205382823945">
			<time>2026-08-09T07:33:34Z</time>
		</rtept>
		<rtept lat="53.01806042613402" lon="5.478307306766511">
			<time>2026-08-09T07:33:34Z</time>
		</rtept>
		<rtept lat="53.01827663705499" lon="5.478462874889375">
			<time>2026-08-09T07:33:34Z</time>
		</rtept>
		<rtept lat="53.01848558613195" lon="5.4786157608032235">
			<time>2026-08-09T07:33:34Z</time>
		</rtept>
		<rtept lat="53.018651171506136" lon="5.478746183216572">
			<time>2026-08-09T07:33:34Z</time>
		</rtept>
		<rtept lat="53.01900755102665" lon="5.4790449142456055">
			<time>2026-08-09T07:33:34Z</time>
		</rtept>
		<rtept lat="53.0193899447935" lon="5.479377508163453">
			<time>2026-08-09T07:33:34Z</time>
		</rtept>
		<rtept lat="53.01960937597318" lon="5.479581356048585">
			<time>2026-08-09T07:33:34Z</time>
		</rtept>
		<rtept lat="53.019827192584586" lon="5.47980397939682">
			<time>2026-08-09T07:33:34Z</time>
		</rtept>
		<rtept lat="53.020080503853315" lon="5.480080246925355">
			<time>2026-08-09T07:33:34Z</time>
		</rtept>
		<rtept lat="53.02039512405896" lon="5.48045039176941">
			<time>2026-08-09T07:33:34Z</time>
		</rtept>
		<rtept lat="53.020840428735916" lon="5.48094391822815">
			<time>2026-08-09T07:33:34Z</time>
		</rtept>
		<rtept lat="53.02128814891325" lon="5.481424033641816">
			<time>2026-08-09T07:33:34Z</time>
		</rtept>
		<rtept lat="53.02206015279223" lon="5.482220649719239">
			<time>2026-08-09T07:33:34Z</time>
		</rtept>
		<rtept lat="53.022376371918405" lon="5.482504963874818">
			<time>2026-08-09T07:33:34Z</time>
		</rtept>
		<rtept lat="53.02271517555291" lon="5.482746362686158">
			<time>2026-08-09T07:33:34Z</time>
		</rtept>
		<rtept lat="53.02301606321653" lon="5.482919365167619">
			<time>2026-08-09T07:33:34Z</time>
		</rtept>
		<rtept lat="53.023321788746685" lon="5.483073592185975">
			<time>2026-08-09T07:33:34Z</time>
		</rtept>
		<rtept lat="53.024094562880485" lon="5.483445078134537">
			<time>2026-08-09T07:33:34Z</time>
		</rtept>
		<rtept lat="53.02448175139527" lon="5.483666360378265">
			<time>2026-08-09T07:33:34Z</time>
		</rtept>
		<rtept lat="53.02492217410594" lon="5.483964085578919">
			<time>2026-08-09T07:33:34Z</time>
		</rtept>
		<rtept lat="53.02533032740194" lon="5.484277904033661">
			<time>2026-08-09T07:33:34Z</time>
		</rtept>
		<rtept lat="53.025728797447485" lon="5.484618544578553">
			<time>2026-08-09T07:33:34Z</time>
		</rtept>
		<rtept lat="53.02655153771688" lon="5.485323965549469">
			<time>2026-08-09T07:33:34Z</time>
		</rtept>
		<rtept lat="53.027427496872605" lon="5.486087054014206">
			<time>2026-08-09T07:33:34Z</time>
		</rtept>
		<rtept lat="53.02826069013238" lon="5.486799180507661">
			<time>2026-08-09T07:33:34Z</time>
		</rtept>
		<rtept lat="53.029807660682614" lon="5.48811748623848">
			<time>2026-08-09T07:33:34Z</time>
		</rtept>
		<rtept lat="53.03051982920241" lon="5.488711595535279">
			<time>2026-08-09T07:33:34Z</time>
		</rtept>
		<rtept lat="53.03108761991378" lon="5.489183664321899">
			<time>2026-08-09T07:33:34Z</time>
		</rtept>
		<rtept lat="53.03146506755709" lon="5.489467978477478">
			<time>2026-08-09T07:33:34Z</time>
		</rtept>
		<rtept lat="53.03186509393219" lon="5.489741563796998">
			<time>2026-08-09T07:33:34Z</time>
		</rtept>
		<rtept lat="53.03223930879487" lon="5.490036606788635">
			<time>2026-08-09T07:33:34Z</time>
		</rtept>
		<rtept lat="53.032603842564654" lon="5.490369200706483">
			<time>2026-08-09T07:33:34Z</time>
		</rtept>
		<rtept lat="53.03428130338196" lon="5.491989254951478">
			<time>2026-08-09T07:33:34Z</time>
		</rtept>
		<rtept lat="53.034616787715194" lon="5.492364764213563">
			<time>2026-08-09T07:33:34Z</time>
		</rtept>
		<rtept lat="53.034907108589195" lon="5.492751002311707">
			<time>2026-08-09T07:33:34Z</time>
		</rtept>
		<rtept lat="53.035203879017885" lon="5.4931479692459115">
			<time>2026-08-09T07:33:34Z</time>
		</rtept>
		<rtept lat="53.03549742167177" lon="5.493518114089967">
			<time>2026-08-09T07:33:34Z</time>
		</rtept>
		<rtept lat="53.03572967378409" lon="5.493770241737367">
			<time>2026-08-09T07:33:34Z</time>
		</rtept>
		<rtept lat="53.03600063300073" lon="5.4939740896224984">
			<time>2026-08-09T07:33:34Z</time>
		</rtept>
		<rtept lat="53.0362" lon="5.4941">
			<time>2026-08-09T07:33:34Z</time>
		</rtept>
		<rtept lat="53.036461904893386" lon="5.494220852851868">
			<time>2026-08-09T07:33:34Z</time>
		</rtept>
		<rtept lat="53.0367" lon="5.4943">
			<time>2026-08-09T07:33:34Z</time>
		</rtept>
		<rtept lat="53.03713928823919" lon="5.494440793991089">
			<time>2026-08-09T07:33:34Z</time>
		</rtept>
		<rtept lat="53.03740378741859" lon="5.494569540023804">
			<time>2026-08-09T07:33:34Z</time>
		</rtept>
		<rtept lat="53.03770054066407" lon="5.494751930236817">
			<time>2026-08-09T07:33:34Z</time>
		</rtept>
		<rtept lat="53.038050513334255" lon="5.494993329048158">
			<time>2026-08-09T07:33:34Z</time>
		</rtept>
		<rtept lat="53.03839887040608" lon="5.495253503322602">
			<time>2026-08-09T07:33:34Z</time>
		</rtept>
		<rtept lat="53.03873432270395" lon="5.495524406433106">
			<time>2026-08-09T07:33:34Z</time>
		</rtept>
		<rtept lat="53.03897784653512" lon="5.495760440826417">
			<time>2026-08-09T07:33:34Z</time>
		</rtept>
		<rtept lat="53.03921975626379" lon="5.496007204055787">
			<time>2026-08-09T07:33:34Z</time>
		</rtept>
		<rtept lat="53.039551170388535" lon="5.496343821287156">
			<time>2026-08-09T07:33:34Z</time>
		</rtept>
		<rtept lat="53.03987935656116" lon="5.496691167354585">
			<time>2026-08-09T07:33:34Z</time>
		</rtept>
		<rtept lat="53.03999547097235" lon="5.496849417686463">
			<time>2026-08-09T07:33:34Z</time>
		</rtept>
		<rtept lat="53.04012932469719" lon="5.497085452079774">
			<time>2026-08-09T07:33:34Z</time>
		</rtept>
		<rtept lat="53.040255114565845" lon="5.497364401817322">
			<time>2026-08-09T07:33:34Z</time>
		</rtept>
		<rtept lat="53.04045831280914" lon="5.497847199440003">
			<time>2026-08-09T07:33:34Z</time>
		</rtept>
		<rtept lat="53.0408163264314" lon="5.49867868423462">
			<time>2026-08-09T07:33:34Z</time>
		</rtept>
		<rtept lat="53.041" lon="5.4991">
			<time>2026-08-09T07:33:34Z</time>
		</rtept>
		<rtept lat="53.04113724602527" lon="5.499405562877656">
			<time>2026-08-09T07:33:34Z</time>
		</rtept>
		<rtept lat="53.04128399740538" lon="5.499705970287324">
			<time>2026-08-09T07:33:34Z</time>
		</rtept>
		<rtept lat="53.04147267701717" lon="5.500073432922364">
			<time>2026-08-09T07:33:34Z</time>
		</rtept>
		<rtept lat="53.04159765664728" lon="5.500289350748062">
			<time>2026-08-09T07:33:34Z</time>
		</rtept>
		<rtept lat="53.04171941064819" lon="5.5004650354385385">
			<time>2026-08-09T07:33:34Z</time>
		</rtept>
		<rtept lat="53.04186293479043" lon="5.500636696815491">
			<time>2026-08-09T07:33:34Z</time>
		</rtept>
		<rtept lat="53.04198146279486" lon="5.500757396221162">
			<time>2026-08-09T07:33:34Z</time>
		</rtept>
		<rtept lat="53.042119341900154" lon="5.50086334347725">
			<time>2026-08-09T07:33:34Z</time>
		</rtept>
		<rtept lat="53.042279797145866" lon="5.500963926315308">
			<time>2026-08-09T07:33:34Z</time>
		</rtept>
		<rtept lat="53.04246595270328" lon="5.501070879399777">
			<time>2026-08-09T07:33:34Z</time>
		</rtept>
		<rtept lat="53.042638601941405" lon="5.501181185245514">
			<time>2026-08-09T07:33:34Z</time>
		</rtept>
		<rtept lat="53.042792604881456" lon="5.501271039247513">
			<time>2026-08-09T07:33:34Z</time>
		</rtept>
		<rtept lat="53.043011917019285" lon="5.501386374235154">
			<time>2026-08-09T07:33:34Z</time>
		</rtept>
		<rtept lat="53.043491658430895" lon="5.5016157031059265">
			<time>2026-08-09T07:33:34Z</time>
		</rtept>
		<rtept lat="53.043815783219635" lon="5.501784682273866">
			<time>2026-08-09T07:33:34Z</time>
		</rtept>
		<rtept lat="53.044136680485224" lon="5.5019643902778625">
			<time>2026-08-09T07:33:34Z</time>
		</rtept>
		<rtept lat="53.04448176332118" lon="5.502162873744965">
			<time>2026-08-09T07:33:34Z</time>
		</rtept>
		<rtept lat="53.044644628559894" lon="5.502272844314575">
			<time>2026-08-09T07:33:34Z</time>
		</rtept>
		<rtept lat="53.04479459303748" lon="5.502382814884186">
			<time>2026-08-09T07:33:34Z</time>
		</rtept>
		<rtept lat="53.044901019124445" lon="5.502476692199708">
			<time>2026-08-09T07:33:34Z</time>
		</rtept>
		<rtept lat="53.045028407579984" lon="5.5026108026504525">
			<time>2026-08-09T07:33:34Z</time>
		</rtept>
		<rtept lat="53.04540089571421" lon="5.503002405166627">
			<time>2026-08-09T07:33:34Z</time>
		</rtept>
		<rtept lat="53.045697593916316" lon="5.50327330827713">
			<time>2026-08-09T07:33:34Z</time>
		</rtept>
		<rtept lat="53.04602331459083" lon="5.503493249416351">
			<time>2026-08-09T07:33:34Z</time>
		</rtept>
		<rtept lat="53.046484479257124" lon="5.503790974617005">
			<time>2026-08-09T07:33:34Z</time>
		</rtept>
		<rtept lat="53.04683921795062" lon="5.504077970981598">
			<time>2026-08-09T07:33:34Z</time>
		</rtept>
		<rtept lat="53.0471455808364" lon="5.504324734210968">
			<time>2026-08-09T07:33:34Z</time>
		</rtept>
		<rtept lat="53.04727779993546" lon="5.50441861152649">
			<time>2026-08-09T07:33:34Z</time>
		</rtept>
		<rtept lat="53.04741485589051" lon="5.504488348960877">
			<time>2026-08-09T07:33:34Z</time>
		</rtept>
		<rtept lat="53.047719602275706" lon="5.504641234874726">
			<time>2026-08-09T07:33:34Z</time>
		</rtept>
		<rtept lat="53.04798081174807" lon="5.504799485206604">
			<time>2026-08-09T07:33:34Z</time>
		</rtept>
		<rtept lat="53.048229120519515" lon="5.504976511001587">
			<time>2026-08-09T07:33:34Z</time>
		</rtept>
		<rtept lat="53.048566108706844" lon="5.505268871784211">
			<time>2026-08-09T07:33:34Z</time>
		</rtept>
		<rtept lat="53.04892083026806" lon="5.505569279193879">
			<time>2026-08-09T07:33:34Z</time>
		</rtept>
		<rtept lat="53.04913003400199" lon="5.505748316645623">
			<time>2026-08-09T07:33:34Z</time>
		</rtept>
		<rtept lat="53.04931102061341" lon="5.505901873111726">
			<time>2026-08-09T07:33:34Z</time>
		</rtept>
		<rtept lat="53.04953997363429" lon="5.506108403205872">
			<time>2026-08-09T07:33:34Z</time>
		</rtept>
		<rtept lat="53.049822132374246" lon="5.506371259689331">
			<time>2026-08-09T07:33:34Z</time>
		</rtept>
		<rtept lat="53.050017223908526" lon="5.506569743156433">
			<time>2026-08-09T07:33:34Z</time>
		</rtept>
		<rtept lat="53.05016394505909" lon="5.506733357906342">
			<time>2026-08-09T07:33:34Z</time>
		</rtept>
		<rtept lat="53.05031711495806" lon="5.506937205791473">
			<time>2026-08-09T07:33:34Z</time>
		</rtept>
		<rtept lat="53.050625065423255" lon="5.5073824524879464">
			<time>2026-08-09T07:33:34Z</time>
		</rtept>
		<rtept lat="53.05087497125138" lon="5.507739186286927">
			<time>2026-08-09T07:33:34Z</time>
		</rtept>
		<rtept lat="53.05107005801967" lon="5.5080074071884155">
			<time>2026-08-09T07:33:34Z</time>
		</rtept>
		<rtept lat="53.05129577714545" lon="5.508286356925965">
			<time>2026-08-09T07:33:34Z</time>
		</rtept>
		<rtept lat="53.0515472913501" lon="5.508602857589723">
			<time>2026-08-09T07:33:34Z</time>
		</rtept>
		<rtept lat="53.05184394724317" lon="5.508994460105897">
			<time>2026-08-09T07:33:34Z</time>
		</rtept>
		<rtept lat="53.05216962146986" lon="5.509447753429413">
			<time>2026-08-09T07:33:34Z</time>
		</rtept>
		<rtept lat="53.05233406989671" lon="5.509729385375977">
			<time>2026-08-09T07:33:34Z</time>
		</rtept>
		<rtept lat="53.052461436384256" lon="5.510000288486482">
			<time>2026-08-09T07:33:34Z</time>
		</rtept>
		<rtept lat="53.052606536987355" lon="5.510311424732209">
			<time>2026-08-09T07:33:34Z</time>
		</rtept>
		<rtept lat="53.052748412660186" lon="5.510560870170593">
			<time>2026-08-09T07:33:34Z</time>
		</rtept>
		<rtept lat="53.05290318558871" lon="5.510796904563904">
			<time>2026-08-09T07:33:34Z</time>
		</rtept>
		<rtept lat="53.05325787145332" lon="5.511220693588258">
			<time>2026-08-09T07:33:34Z</time>
		</rtept>
		<rtept lat="53.05344327426614" lon="5.511397719383241">
			<time>2026-08-09T07:33:34Z</time>
		</rtept>
		<rtept lat="53.0536222275289" lon="5.511505007743836">
			<time>2026-08-09T07:33:34Z</time>
		</rtept>
		<rtept lat="53.05385276982606" lon="5.511590838432313">
			<time>2026-08-09T07:33:34Z</time>
		</rtept>
		<rtept lat="53.0545" lon="5.5118">
			<time>2026-08-09T07:33:34Z</time>
		</rtept>
		<rtept lat="53.054808781713916" lon="5.511880519276905">
			<time>2026-08-09T07:33:34Z</time>
		</rtept>
		<rtept lat="53.055029644850634" lon="5.5119529366493225">
			<time>2026-08-09T07:33:34Z</time>
		</rtept>
		<rtept lat="53.055302094897655" lon="5.512068275043438">
			<time>2026-08-09T07:33:34Z</time>
		</rtept>
		<rtept lat="53.05546008289319" lon="5.51215946674347">
			<time>2026-08-09T07:33:34Z</time>
		</rtept>
		<rtept lat="53.05555842206729" lon="5.512266755104066">
			<time>2026-08-09T07:33:34Z</time>
		</rtept>
		<rtept lat="53.055634191441804" lon="5.5124169588089">
			<time>2026-08-09T07:33:34Z</time>
		</rtept>
		<rtept lat="53.05570028802141" lon="5.512674450874329">
			<time>2026-08-09T07:33:34Z</time>
		</rtept>
		<rtept lat="53.05579379032671" lon="5.513173341751099">
			<time>2026-08-09T07:33:34Z</time>
		</rtept>
		<rtept lat="53.05588890453253" lon="5.51366686820984">
			<time>2026-08-09T07:33:34Z</time>
		</rtept>
		<rtept lat="53.05597918222857" lon="5.514037013053895">
			<time>2026-08-09T07:33:34Z</time>
		</rtept>
		<rtept lat="53.05608719279495" lon="5.51440179347992">
			<time>2026-08-09T07:33:34Z</time>
		</rtept>
		<rtept lat="53.05619842727435" lon="5.5146995186805725">
			<time>2026-08-09T07:33:34Z</time>
		</rtept>
		<rtept lat="53.05640155036532" lon="5.515174269676209">
			<time>2026-08-09T07:33:34Z</time>
		</rtept>
		<rtept lat="53.05662079326194" lon="5.5156463384628305">
			<time>2026-08-09T07:33:34Z</time>
		</rtept>
		<rtept lat="53.0567981212593" lon="5.515981614589692">
			<time>2026-08-09T07:33:34Z</time>
		</rtept>
		<rtept lat="53.0569303107462" lon="5.51618814581933">
			<time>2026-08-09T07:33:34Z</time>
		</rtept>
		<rtept lat="53.05706249982752" lon="5.516365173885296">
			<time>2026-08-09T07:33:34Z</time>
		</rtept>
		<rtept lat="53.0572" lon="5.5165">
			<time>2026-08-09T07:33:34Z</time>
		</rtept>
		<rtept lat="53.05730269602267" lon="5.5165958404541025">
			<time>2026-08-09T07:33:34Z</time>
		</rtept>
		<rtept lat="53.05740425508493" lon="5.516689717769623">
			<time>2026-08-09T07:33:34Z</time>
		</rtept>
		<rtept lat="53.0575" lon="5.5168">
			<time>2026-08-09T07:33:34Z</time>
		</rtept>
		<rtept lat="53.057560623331824" lon="5.5169016122818">
			<time>2026-08-09T07:33:34Z</time>
		</rtept>
		<rtept lat="53.05761220860839" lon="5.517035722732544">
			<time>2026-08-09T07:33:34Z</time>
		</rtept>
		<rtept lat="53.05766218178613" lon="5.517223475092604">
			<time>2026-08-09T07:33:34Z</time>
		</rtept>
		<rtept lat="53.05777502423238" lon="5.517781376838684">
			<time>2026-08-09T07:33:34Z</time>
		</rtept>
		<rtept lat="53.05784111752793" lon="5.518221259117127">
			<time>2026-08-09T07:33:34Z</time>
		</rtept>
		<rtept lat="53.057873358123096" lon="5.518620908260346">
			<time>2026-08-09T07:33:34Z</time>
		</rtept>
		<rtept lat="53.05789028442592" lon="5.518881753087045">
			<time>2026-08-09T07:33:34Z</time>
		</rtept>
		<rtept lat="53.05790882274994" lon="5.519092977046967">
			<time>2026-08-09T07:33:34Z</time>
		</rtept>
		<rtept lat="53.05792373400481" lon="5.5192190408706665">
			<time>2026-08-09T07:33:34Z</time>
		</rtept>
		<rtept lat="53.05793985427447" lon="5.5193109065294275">
			<time>2026-08-09T07:33:34Z</time>
		</rtept>
		<rtept lat="53.05796363166128" lon="5.519376620650292">
			<time>2026-08-09T07:33:34Z</time>
		</rtept>
		<rtept lat="53.05798700602874" lon="5.5194128304719925">
			<time>2026-08-09T07:33:34Z</time>
		</rtept>
		<rtept lat="53.05802085853841" lon="5.519433617591858">
			<time>2026-08-09T07:33:34Z</time>
		</rtept>
		<rtept lat="53.05805874107725" lon="5.519447028636933">
			<time>2026-08-09T07:33:34Z</time>
		</rtept>
		<rtept lat="53.05824734726415" lon="5.519503355026245">
			<time>2026-08-09T07:33:34Z</time>
		</rtept>
		<rtept lat="53.05805874107725" lon="5.519447028636933">
			<time>2026-08-09T07:33:34Z</time>
		</rtept>
		<rtept lat="53.05802025402954" lon="5.519440323114396">
			<time>2026-08-09T07:33:34Z</time>
		</rtept>
		<rtept lat="53.05798458799131" lon="5.519443005323411">
			<time>2026-08-09T07:33:34Z</time>
		</rtept>
		<rtept lat="53.05795154146625" lon="5.5194658041000375">
			<time>2026-08-09T07:33:34Z</time>
		</rtept>
		<rtept lat="53.0579176889021" lon="5.519506037235261">
			<time>2026-08-09T07:33:34Z</time>
		</rtept>
		<rtept lat="53.057883030296956" lon="5.519574433565141">
			<time>2026-08-09T07:33:34Z</time>
		</rtept>
		<rtept lat="53.05785481978382" lon="5.519656240940094">
			<time>2026-08-09T07:33:34Z</time>
		</rtept>
		<rtept lat="53.05783225136003" lon="5.519740730524063">
			<time>2026-08-09T07:33:34Z</time>
		</rtept>
		<rtept lat="53.057811496459834" lon="5.51985489204526">
			<time>2026-08-09T07:33:34Z</time>
		</rtept>
		<rtept lat="53.05779436862205" lon="5.519972741603852">
			<time>2026-08-09T07:33:34Z</time>
		</rtept>
		<rtept lat="53.05770409472922" lon="5.5205386877059945">
			<time>2026-08-09T07:33:34Z</time>
		</rtept>
		<rtept lat="53.05760414841298" lon="5.521037578582765">
			<time>2026-08-09T07:33:34Z</time>
		</rtept>
		<rtept lat="53.05746873690497" lon="5.521579384803773">
			<time>2026-08-09T07:33:34Z</time>
		</rtept>
		<rtept lat="53.05732204062439" lon="5.522102415561677">
			<time>2026-08-09T07:33:34Z</time>
		</rtept>
		<rtept lat="53.0570592757084" lon="5.523046553134919">
			<time>2026-08-09T07:33:34Z</time>
		</rtept>
		<rtept lat="53.05698512090229" lon="5.523269176483155">
			<time>2026-08-09T07:33:34Z</time>
		</rtept>
		<rtept lat="53.056914190098766" lon="5.523427426815033">
			<time>2026-08-09T07:33:34Z</time>
		</rtept>
		<rtept lat="53.0568335867712" lon="5.523572266101838">
			<time>2026-08-09T07:33:34Z</time>
		</rtept>
		<rtept lat="53.0566933366218" lon="5.523808300495149">
			<time>2026-08-09T07:33:34Z</time>
		</rtept>
		<rtept lat="53.056064623445245" lon="5.524945557117463">
			<time>2026-08-09T07:33:34Z</time>
		</rtept>
		<rtept lat="53.055864722974675" lon="5.525270104408265">
			<time>2026-08-09T07:33:34Z</time>
		</rtept>
		<rtept lat="53.055776057146446" lon="5.525396168231965">
			<time>2026-08-09T07:33:34Z</time>
		</rtept>
		<rtept lat="53.05568416691379" lon="5.525495409965516">
			<time>2026-08-09T07:33:34Z</time>
		</rtept>
		<rtept lat="53.055426228371495" lon="5.525701940059663">
			<time>2026-08-09T07:33:34Z</time>
		</rtept>
		<rtept lat="53.055260179617925" lon="5.5258092284202585">
			<time>2026-08-09T07:33:34Z</time>
		</rtept>
		<rtept lat="53.05510057875655" lon="5.525892376899719">
			<time>2026-08-09T07:33:34Z</time>
		</rtept>
		<rtept lat="53.05490712237446" lon="5.5259594321250916">
			<time>2026-08-09T07:33:34Z</time>
		</rtept>
		<rtept lat="53.05477653882554" lon="5.525975525379181">
			<time>2026-08-09T07:33:34Z</time>
		</rtept>
		<rtept lat="53.05462822122825" lon="5.5259594321250916">
			<time>2026-08-09T07:33:34Z</time>
		</rtept>
		<rtept lat="53.05430095341952" lon="5.525889694690704">
			<time>2026-08-09T07:33:34Z</time>
		</rtept>
		<rtept lat="53.05385438200562" lon="5.525790452957154">
			<time>2026-08-09T07:33:34Z</time>
		</rtept>
		<rtept lat="53.05370606123421" lon="5.52577704191208">
			<time>2026-08-09T07:33:34Z</time>
		</rtept>
		<rtept lat="53.053580310615075" lon="5.525787770748139">
			<time>2026-08-09T07:33:34Z</time>
		</rtept>
		<rtept lat="53.05339813278516" lon="5.525806546211243">
			<time>2026-08-09T07:33:34Z</time>
		</rtept>
		<rtept lat="53.05325142264548" lon="5.525860190391541">
			<time>2026-08-09T07:33:34Z</time>
		</rtept>
		<rtept lat="53.05310471200629" lon="5.525932610034943">
			<time>2026-08-09T07:33:34Z</time>
		</rtept>
		<rtept lat="53.052946715374716" lon="5.5260586738586435">
			<time>2026-08-09T07:33:34Z</time>
		</rtept>
		<rtept lat="53.05279677926006" lon="5.526214241981507">
			<time>2026-08-09T07:33:34Z</time>
		</rtept>
		<rtept lat="53.05263555704934" lon="5.526415407657623">
			<time>2026-08-09T07:33:34Z</time>
		</rtept>
		<rtept lat="53.05225023352223" lon="5.526975989341737">
			<time>2026-08-09T07:33:34Z</time>
		</rtept>
		<rtept lat="53.05183749822373" lon="5.527533888816834">
			<time>2026-08-09T07:33:34Z</time>
		</rtept>
		<rtept lat="53.05163757814242" lon="5.527759194374085">
			<time>2026-08-09T07:33:34Z</time>
		</rtept>
		<rtept lat="53.051407023993924" lon="5.527989864349366">
			<time>2026-08-09T07:33:34Z</time>
		</rtept>
		<rtept lat="53.05093462597674" lon="5.528435111045838">
			<time>2026-08-09T07:33:34Z</time>
		</rtept>
		<rtept lat="53.05071374185072" lon="5.528660416603088">
			<time>2026-08-09T07:33:34Z</time>
		</rtept>
		<rtept lat="53.0505" lon="5.5289">
			<time>2026-08-09T07:33:34Z</time>
		</rtept>
		<rtept lat="53.050371933526485" lon="5.529073476791382">
			<time>2026-08-09T07:33:34Z</time>
		</rtept>
		<rtept lat="53.050226825399264" lon="5.529341697692872">
			<time>2026-08-09T07:33:34Z</time>
		</rtept>
		<rtept lat="53.05008332910413" lon="5.529655516147614">
			<time>2026-08-09T07:33:34Z</time>
		</rtept>
		<rtept lat="53.049485154007655" lon="5.531146824359894">
			<time>2026-08-09T07:33:34Z</time>
		</rtept>
		<rtept lat="53.04903692032674" lon="5.532190203666688">
			<time>2026-08-09T07:33:34Z</time>
		</rtept>
		<rtept lat="53.04858223247751" lon="5.533182621002198">
			<time>2026-08-09T07:33:34Z</time>
		</rtept>
		<rtept lat="53.0472" lon="5.5353">
			<time>2026-08-09T07:33:34Z</time>
		</rtept>
		<rtept lat="53.0459" lon="5.5396">
			<time>2026-08-09T07:33:34Z</time>
		</rtept>
		<rtept lat="53.0455" lon="5.5405">
			<time>2026-08-09T07:33:34Z</time>
		</rtept>
		<rtept lat="53.04490263163888" lon="5.540993213653565">
			<time>2026-08-09T07:33:34Z</time>
		</rtept>
		<rtept lat="53.043692422579845" lon="5.541591346263886">
			<time>2026-08-09T07:33:34Z</time>
		</rtept>
		<rtept lat="53.0433" lon="5.542">
			<time>2026-08-09T07:33:34Z</time>
		</rtept>
		<rtept lat="53.0431" lon="5.5424">
			<time>2026-08-09T07:33:34Z</time>
		</rtept>
		<rtept lat="53.0425" lon="5.5442">
			<time>2026-08-09T07:33:34Z</time>
		</rtept>
		<rtept lat="53.0421" lon="5.5455">
			<time>2026-08-09T07:33:34Z</time>
		</rtept>
		<rtept lat="53.0407" lon="5.5479">
			<time>2026-08-09T07:33:34Z</time>
		</rtept>
		<rtept lat="53.04061232088505" lon="5.548024621081391">
			<time>2026-08-09T07:33:34Z</time>
		</rtept>
		<rtept lat="53.04" lon="5.5493">
			<time>2026-08-09T07:33:34Z</time>
		</rtept>
		<rtept lat="53.0395" lon="5.5499">
			<time>2026-08-09T07:33:34Z</time>
		</rtept>
		<rtept lat="53.0365" lon="5.551">
			<time>2026-08-09T07:33:34Z</time>
		</rtept>
		<rtept lat="53.0362" lon="5.5516">
			<time>2026-08-09T07:33:34Z</time>
		</rtept>
		<rtept lat="53.0359" lon="5.5527">
			<time>2026-08-09T07:33:34Z</time>
		</rtept>
		<rtept lat="53.0355" lon="5.5533">
			<time>2026-08-09T07:33:34Z</time>
		</rtept>
		<rtept lat="53.0352" lon="5.5535">
			<time>2026-08-09T07:33:34Z</time>
		</rtept>
		<rtept lat="53.0347" lon="5.5541">
			<time>2026-08-09T07:33:34Z</time>
		</rtept>
		<rtept lat="53.0338" lon="5.5549">
			<time>2026-08-09T07:33:34Z</time>
		</rtept>
		<rtept lat="53.0335" lon="5.5552">
			<time>2026-08-09T07:33:34Z</time>
		</rtept>
		<rtept lat="53.0328" lon="5.5556">
			<time>2026-08-09T07:33:34Z</time>
		</rtept>
		<rtept lat="53.0321" lon="5.5559">
			<time>2026-08-09T07:33:34Z</time>
		</rtept>
		<rtept lat="53.0307" lon="5.5563">
			<time>2026-08-09T07:33:34Z</time>
		</rtept>
		<rtept lat="53.0295" lon="5.5571">
			<time>2026-08-09T07:33:34Z</time>
		</rtept>
		<rtept lat="53.0272" lon="5.5598">
			<time>2026-08-09T07:33:34Z</time>
		</rtept>
		<rtept lat="53.0255" lon="5.5644">
			<time>2026-08-09T07:33:34Z</time>
		</rtept>
		<rtept lat="53.0252" lon="5.5648">
			<time>2026-08-09T07:33:34Z</time>
		</rtept>
		<rtept lat="53.025" lon="5.5651">
			<time>2026-08-09T07:33:34Z</time>
		</rtept>
		<rtept lat="53.02471829766845" lon="5.565850418061015">
			<time>2026-08-09T07:33:34Z</time>
		</rtept>
		<rtept lat="53.0241" lon="5.5677">
			<time>2026-08-09T07:33:34Z</time>
		</rtept>
		<rtept lat="53.024" lon="5.5681">
			<time>2026-08-09T07:33:34Z</time>
		</rtept>
		<rtept lat="53.0239" lon="5.5733">
			<time>2026-08-09T07:33:34Z</time>
		</rtept>
		<rtept lat="53.0237" lon="5.577">
			<time>2026-08-09T07:33:34Z</time>
		</rtept>
		<rtept lat="53.0234" lon="5.5792">
			<time>2026-08-09T07:33:34Z</time>
		</rtept>
		<rtept lat="53.0232" lon="5.5804">
			<time>2026-08-09T07:33:34Z</time>
		</rtept>
		<rtept lat="53.0228" lon="5.5817">
			<time>2026-08-09T07:33:34Z</time>
		</rtept>
		<rtept lat="53.0224" lon="5.5831">
			<time>2026-08-09T07:33:34Z</time>
		</rtept>
		<rtept lat="53.0211" lon="5.5848">
			<time>2026-08-09T07:33:34Z</time>
		</rtept>
		<rtept lat="53.0205" lon="5.5853">
			<time>2026-08-09T07:33:34Z</time>
		</rtept>
		<rtept lat="53.0201" lon="5.5857">
			<time>2026-08-09T07:33:34Z</time>
		</rtept>
		<rtept lat="53.0198" lon="5.5863">
			<time>2026-08-09T07:33:34Z</time>
		</rtept>
		<rtept lat="53.0196" lon="5.5867">
			<time>2026-08-09T07:33:34Z</time>
		</rtept>
		<rtept lat="53.019" lon="5.5873">
			<time>2026-08-09T07:33:34Z</time>
		</rtept>
		<rtept lat="53.0188" lon="5.5878">
			<time>2026-08-09T07:33:34Z</time>
		</rtept>
		<rtept lat="53.0187" lon="5.5885">
			<time>2026-08-09T07:33:34Z</time>
		</rtept>
		<rtept lat="53.0187" lon="5.5894">
			<time>2026-08-09T07:33:34Z</time>
		</rtept>
		<rtept lat="53.0186" lon="5.5903">
			<time>2026-08-09T07:33:34Z</time>
		</rtept>
		<rtept lat="53.018" lon="5.5953">
			<time>2026-08-09T07:33:34Z</time>
		</rtept>
		<rtept lat="53.0178" lon="5.5961">
			<time>2026-08-09T07:33:34Z</time>
		</rtept>
		<rtept lat="53.0175" lon="5.5972">
			<time>2026-08-09T07:33:34Z</time>
		</rtept>
		<rtept lat="53.01727141467164" lon="5.597732656865394">
			<time>2026-08-09T07:33:34Z</time>
		</rtept>
		<rtept lat="53.01701969957634" lon="5.598210094262851">
			<time>2026-08-09T07:33:34Z</time>
		</rtept>
		<rtept lat="53.016819642962794" lon="5.598521249376247">
			<time>2026-08-09T07:33:34Z</time>
		</rtept>
		<rtept lat="53.016454960630625" lon="5.598950395481177">
			<time>2026-08-09T07:33:34Z</time>
		</rtept>
		<rtept lat="53.016309" lon="5.599304">
			<time>2026-08-09T07:33:34Z</time>
		</rtept>
		<rtept lat="53.016" lon="5.6001">
			<time>2026-08-09T07:33:34Z</time>
		</rtept>
		<rtept lat="53.0157" lon="5.6005">
			<time>2026-08-09T07:33:34Z</time>
		</rtept>
		<rtept lat="53.0154" lon="5.6007">
			<time>2026-08-09T07:33:34Z</time>
		</rtept>
		<rtept lat="53.0139" lon="5.6013">
			<time>2026-08-09T07:33:34Z</time>
		</rtept>
		<rtept lat="53.0133" lon="5.602">
			<time>2026-08-09T07:33:34Z</time>
		</rtept>
		<rtept lat="53.0128" lon="5.6029">
			<time>2026-08-09T07:33:34Z</time>
		</rtept>
		<rtept lat="53.0117" lon="5.6053">
			<time>2026-08-09T07:33:34Z</time>
		</rtept>
		<rtept lat="53.0116" lon="5.6054">
			<time>2026-08-09T07:33:34Z</time>
		</rtept>
		<rtept lat="53.009981441078004" lon="5.606554402446748">
			<time>2026-08-09T07:33:34Z</time>
		</rtept>
		<rtept lat="53.0097822828687" lon="5.606688559055329">
			<time>2026-08-09T07:33:34Z</time>
		</rtept>
		<rtept lat="53.00961121676928" lon="5.606777071952821">
			<time>2026-08-09T07:33:34Z</time>
		</rtept>
		<rtept lat="53.00943772923068" lon="5.606842115521432">
			<time>2026-08-09T07:33:34Z</time>
		</rtept>
		<rtept lat="53.00923196403671" lon="5.606917887926102">
			<time>2026-08-09T07:33:34Z</time>
		</rtept>
		<rtept lat="53.00915046461022" lon="5.606966167688371">
			<time>2026-08-09T07:33:34Z</time>
		</rtept>
		<rtept lat="53.00908106893765" lon="5.607041269540788">
			<time>2026-08-09T07:33:34Z</time>
		</rtept>
		<rtept lat="53.00901005929675" lon="5.607152581214906">
			<time>2026-08-09T07:33:34Z</time>
		</rtept>
		<rtept lat="53.008877002482734" lon="5.607402682209015">
			<time>2026-08-09T07:33:34Z</time>
		</rtept>
		<rtept lat="53.00870423234911" lon="5.607750713825226">
			<time>2026-08-09T07:33:34Z</time>
		</rtept>
		<rtept lat="53.0084" lon="5.6087">
			<time>2026-08-09T07:33:34Z</time>
		</rtept>
		<rtept lat="53.0034" lon="5.6112">
			<time>2026-08-09T07:33:34Z</time>
		</rtept>
		<rtept lat="53.0001" lon="5.6127">
			<time>2026-08-09T07:33:34Z</time>
		</rtept>
		<rtept lat="52.9942131744406" lon="5.61604039628056">
			<time>2026-08-09T07:33:34Z</time>
		</rtept>
		<rtept lat="52.9878" lon="5.6192">
			<time>2026-08-09T07:33:34Z</time>
		</rtept>
		<rtept lat="52.9839" lon="5.6212">
			<time>2026-08-09T07:33:34Z</time>
		</rtept>
		<rtept lat="52.97776083567018" lon="5.624112069940567">
			<time>2026-08-09T07:33:34Z</time>
		</rtept>
		<rtept lat="52.9708311213368" lon="5.627768027484625">
			<time>2026-08-09T07:33:34Z</time>
		</rtept>
		<rtept lat="52.9684" lon="5.6286">
			<time>2026-08-09T07:33:34Z</time>
		</rtept>
		<rtept lat="52.9676" lon="5.629">
			<time>2026-08-09T07:33:34Z</time>
		</rtept>
		<rtept lat="52.9674195068858" lon="5.628100135706707">
			<time>2026-08-09T07:33:34Z</time>
		</rtept>
		<rtept lat="52.9666" lon="5.628">
			<time>2026-08-09T07:33:34Z</time>
		</rtept>
		<rtept lat="52.9663" lon="5.628">
			<time>2026-08-09T07:33:34Z</time>
		</rtept>
		<rtept lat="52.9658" lon="5.6281">
			<time>2026-08-09T07:33:34Z</time>
		</rtept>
		<rtept lat="52.9641" lon="5.6287">
			<time>2026-08-09T07:33:34Z</time>
		</rtept>
		<rtept lat="52.9627" lon="5.6293">
			<time>2026-08-09T07:33:34Z</time>
		</rtept>
		<rtept lat="52.9623" lon="5.6294">
			<time>2026-08-09T07:33:34Z</time>
		</rtept>
		<rtept lat="52.9613" lon="5.6293">
			<time>2026-08-09T07:33:34Z</time>
		</rtept>
		<rtept lat="52.961" lon="5.6294">
			<time>2026-08-09T07:33:34Z</time>
		</rtept>
		<rtept lat="52.9572" lon="5.6309">
			<time>2026-08-09T07:33:34Z</time>
		</rtept>
		<rtept lat="52.9568" lon="5.6311">
			<time>2026-08-09T07:33:34Z</time>
		</rtept>
		<rtept lat="52.9539" lon="5.6323">
			<time>2026-08-09T07:33:34Z</time>
		</rtept>
		<rtept lat="52.9516" lon="5.6335">
			<time>2026-08-09T07:33:34Z</time>
		</rtept>
		<rtept lat="52.9511" lon="5.6339">
			<time>2026-08-09T07:33:34Z</time>
		</rtept>
		<rtept lat="52.9507" lon="5.6341">
			<time>2026-08-09T07:33:34Z</time>
		</rtept>
		<rtept lat="52.9502" lon="5.6342">
			<time>2026-08-09T07:33:34Z</time>
		</rtept>
		<rtept lat="52.95" lon="5.6341">
			<time>2026-08-09T07:33:34Z</time>
		</rtept>
		<rtept lat="52.9479" lon="5.6332">
			<time>2026-08-09T07:33:34Z</time>
		</rtept>
		<rtept lat="52.9478" lon="5.6331">
			<time>2026-08-09T07:33:34Z</time>
		</rtept>
		<rtept lat="52.9468" lon="5.6324">
			<time>2026-08-09T07:33:34Z</time>
		</rtept>
		<rtept lat="52.9452" lon="5.6312">
			<time>2026-08-09T07:33:34Z</time>
		</rtept>
		<rtept lat="52.944712568739" lon="5.63084638684649">
			<time>2026-08-09T07:33:34Z</time>
		</rtept>
		<rtept lat="52.9437" lon="5.6305">
			<time>2026-08-09T07:33:34Z</time>
		</rtept>
		<rtept lat="52.94356945666964" lon="5.630481098604628">
			<time>2026-08-09T07:33:34Z</time>
		</rtept>
		<rtept lat="52.943411534768615" lon="5.630439547450983">
			<time>2026-08-09T07:33:34Z</time>
		</rtept>
		<rtept lat="52.9433" lon="5.6304">
			<time>2026-08-09T07:33:34Z</time>
		</rtept>
		<rtept lat="52.9432" lon="5.6304">
			<time>2026-08-09T07:33:34Z</time>
		</rtept>
		<rtept lat="52.9422" lon="5.6299">
			<time>2026-08-09T07:33:34Z</time>
		</rtept>
		<rtept lat="52.942" lon="5.6298">
			<time>2026-08-09T07:33:34Z</time>
		</rtept>
		<rtept lat="52.9419" lon="5.6298">
			<time>2026-08-09T07:33:34Z</time>
		</rtept>
		<rtept lat="52.9418" lon="5.6298">
			<time>2026-08-09T07:33:34Z</time>
		</rtept>
		<rtept lat="52.9398" lon="5.6303">
			<time>2026-08-09T07:33:34Z</time>
		</rtept>
		<rtept lat="52.93945859965288" lon="5.630305409431458">
			<time>2026-08-09T07:33:34Z</time>
		</rtept>
		<rtept lat="52.9392" lon="5.6303">
			<time>2026-08-09T07:33:34Z</time>
		</rtept>
		<rtept lat="52.9388" lon="5.6303">
			<time>2026-08-09T07:33:34Z</time>
		</rtept>
		<rtept lat="52.937" lon="5.6303">
			<time>2026-08-09T07:33:34Z</time>
		</rtept>
		<rtept lat="52.9361" lon="5.6302">
			<time>2026-08-09T07:33:34Z</time>
		</rtept>
		<rtept lat="52.9359" lon="5.6302">
			<time>2026-08-09T07:33:34Z</time>
		</rtept>
		<rtept lat="52.9356" lon="5.6303">
			<time>2026-08-09T07:33:34Z</time>
		</rtept>
		<rtept lat="52.9354" lon="5.6303">
			<time>2026-08-09T07:33:34Z</time>
		</rtept>
		<rtept lat="52.9336" lon="5.6313">
			<time>2026-08-09T07:33:34Z</time>
		</rtept>
		<rtept lat="52.9329" lon="5.6315">
			<time>2026-08-09T07:33:34Z</time>
		</rtept>
		<rtept lat="52.9313" lon="5.6324">
			<time>2026-08-09T07:33:34Z</time>
		</rtept>
		<rtept lat="52.92020142272492" lon="5.635250000000007">
			<time>2026-08-09T07:33:34Z</time>
		</rtept>
		<rtept lat="52.91471853784431" lon="5.636630058288575">
			<time>2026-08-09T07:33:34Z</time>
		</rtept>
		<rtept lat="52.9091" lon="5.6381">
			<time>2026-08-09T07:33:34Z</time>
		</rtept>
		<rtept lat="52.9064" lon="5.6385">
			<time>2026-08-09T07:33:34Z</time>
		</rtept>
		<rtept lat="52.9049" lon="5.6386">
			<time>2026-08-09T07:33:34Z</time>
		</rtept>
		<rtept lat="52.9047" lon="5.6387">
			<time>2026-08-09T07:33:34Z</time>
		</rtept>
		<rtept lat="52.9042" lon="5.6395">
			<time>2026-08-09T07:33:34Z</time>
		</rtept>
		<rtept lat="52.9037" lon="5.6399">
			<time>2026-08-09T07:33:34Z</time>
		</rtept>
		<rtept lat="52.9007" lon="5.6425">
			<time>2026-08-09T07:33:34Z</time>
		</rtept>
		<rtept lat="52.9005" lon="5.6426">
			<time>2026-08-09T07:33:34Z</time>
		</rtept>
		<rtept lat="52.8978" lon="5.6441">
			<time>2026-08-09T07:33:34Z</time>
		</rtept>
		<rtept lat="52.8976" lon="5.6442">
			<time>2026-08-09T07:33:34Z</time>
		</rtept>
		<rtept lat="52.897130809376684" lon="5.6446364521980295">
			<time>2026-08-09T07:33:34Z</time>
		</rtept>
		<rtept lat="52.896991657968776" lon="5.644867122173309">
			<time>2026-08-09T07:33:34Z</time>
		</rtept>
		<rtept lat="52.896805582713476" lon="5.645258724689484">
			<time>2026-08-09T07:33:34Z</time>
		</rtept>
		<rtept lat="52.89665348582442" lon="5.645663738250733">
			<time>2026-08-09T07:33:34Z</time>
		</rtept>
		<rtept lat="52.896464172993404" lon="5.646229684352876">
			<time>2026-08-09T07:33:34Z</time>
		</rtept>
		<rtept lat="52.8963" lon="5.6468">
			<time>2026-08-09T07:33:34Z</time>
		</rtept>
		<rtept lat="52.89624735215393" lon="5.6470584869384775">
			<time>2026-08-09T07:33:34Z</time>
		</rtept>
		<rtept lat="52.89620851845617" lon="5.647299885749818">
			<time>2026-08-09T07:33:34Z</time>
		</rtept>
		<rtept lat="52.896185865449766" lon="5.647549331188202">
			<time>2026-08-09T07:33:34Z</time>
		</rtept>
		<rtept lat="52.89617615701481" lon="5.6477800011634836">
			<time>2026-08-09T07:33:34Z</time>
		</rtept>
		<rtept lat="52.89614217747539" lon="5.64799189567566">
			<time>2026-08-09T07:33:34Z</time>
		</rtept>
		<rtept lat="52.896090399078346" lon="5.648168921470643">
			<time>2026-08-09T07:33:34Z</time>
		</rtept>
		<rtept lat="52.896019203681426" lon="5.648324489593507">
			<time>2026-08-09T07:33:34Z</time>
		</rtept>
		<rtept lat="52.89594477200503" lon="5.648418366909028">
			<time>2026-08-09T07:33:34Z</time>
		</rtept>
		<rtept lat="52.8958703402008" lon="5.648472011089326">
			<time>2026-08-09T07:33:34Z</time>
		</rtept>
		<rtept lat="52.895778109309525" lon="5.6485041975975046">
			<time>2026-08-09T07:33:34Z</time>
		</rtept>
		<rtept lat="52.895679405857585" lon="5.64849615097046">
			<time>2026-08-09T07:33:34Z</time>
		</rtept>
		<rtept lat="52.89559364693815" lon="5.648463964462281">
			<time>2026-08-09T07:33:34Z</time>
		</rtept>
		<rtept lat="52.89551274214163" lon="5.648413002490998">
			<time>2026-08-09T07:33:34Z</time>
		</rtept>
		<rtept lat="52.89526031820572" lon="5.648222565650941">
			<time>2026-08-09T07:33:34Z</time>
		</rtept>
		<rtept lat="52.895004656566925" lon="5.648085772991181">
			<time>2026-08-09T07:33:34Z</time>
		</rtept>
		<rtept lat="52.89335576457934" lon="5.647275745868684">
			<time>2026-08-09T07:33:34Z</time>
		</rtept>
		<rtept lat="52.893195564664104" lon="5.647179186344147">
			<time>2026-08-09T07:33:34Z</time>
		</rtept>
		<rtept lat="52.893049927863714" lon="5.647122859954835">
			<time>2026-08-09T07:33:34Z</time>
		</rtept>
		<rtept lat="52.8929008662521" lon="5.64709762885753">
			<time>2026-08-09T07:33:34Z</time>
		</rtept>
		<rtept lat="52.89297710928" lon="5.646996796131135">
			<time>2026-08-09T07:33:34Z</time>
		</rtept>
		<rtept lat="52.89303860053651" lon="5.646878778934479">
			<time>2026-08-09T07:33:34Z</time>
		</rtept>
		<rtept lat="52.89317938282155" lon="5.646559596061707">
			<time>2026-08-09T07:33:34Z</time>
		</rtept>
		<rtept lat="52.89325220106543" lon="5.646401345729829">
			<time>2026-08-09T07:33:34Z</time>
		</rtept>
		<rtept lat="52.89333735780101" lon="5.646246448159218">
			<time>2026-08-09T07:33:34Z</time>
		</rtept>
		<rtept lat="52.89333149190299" lon="5.646231025457383">
			<time>2026-08-09T07:33:34Z</time>
		</rtept>
		<rtept lat="52.893324816914586" lon="5.646204538643361">
			<time>2026-08-09T07:33:34Z</time>
		</rtept>
		<rtept lat="52.89331895101486" lon="5.646168328821659">
			<time>2026-08-09T07:33:34Z</time>
		</rtept>
		<rtept lat="52.89331429874898" lon="5.646122731268406">
			<time>2026-08-09T07:33:34Z</time>
		</rtept>
		<rtept lat="52.89330317376337" lon="5.645925253629685">
			<time>2026-08-09T07:33:34Z</time>
		</rtept>
		<rtept lat="52.893289419231735" lon="5.645744204521179">
			<time>2026-08-09T07:33:34Z</time>
		</rtept>
		<rtept lat="52.893265955608875" lon="5.645568519830704">
			<time>2026-08-09T07:33:34Z</time>
		</rtept>
		<rtept lat="52.89322954651378" lon="5.645400881767274">
			<time>2026-08-09T07:33:34Z</time>
		</rtept>
	</rte>
</gpx>
